{"type":"FeatureCollection","features":[{"type":"Feature","id":"node/349585184","properties":{"amenity":"post_office","check_date":"2026-06-03","ele":"684","gnis:feature_id":"2097971","name":"Afton Post Office","operator":"United States Postal Service","operator:short":"USPS","operator:type":"public","operator:wikidata":"Q668687","website":"https://tools.usps.com/locations/details/1352421","osm_type":"node","osm_id":349585184},"geometry":{"type":"Point","coordinates":[1741.759970444953,1168.07243799977]}},{"type":"Feature","id":"node/4296594766","properties":{"amenity":"restaurant","cuisine":"burger","name":"The Lumberyard Pub","osm_type":"node","osm_id":4296594766},"geometry":{"type":"Point","coordinates":[1727.7651416342705,1172.9894393272698]}},{"type":"Feature","id":"node/5404131501","properties":{"amenity":"toilets","osm_type":"node","osm_id":5404131501},"geometry":{"type":"Point","coordinates":[1727.9714951302158,676.6235361266881]}},{"type":"Feature","id":"node/5404133443","properties":{"amenity":"drinking_water","osm_type":"node","osm_id":5404133443},"geometry":{"type":"Point","coordinates":[1680.4382199461106,677.7407657476142]}},{"type":"Feature","id":"node/6574764643","properties":{"amenity":"toilets","changing_table":"yes","toilets:disposal":"flush","wheelchair":"yes","osm_type":"node","osm_id":6574764643},"geometry":{"type":"Point","coordinates":[1676.3087793131708,677.7964066108689]}},{"type":"Feature","id":"node/7178966984","properties":{"amenity":"bicycle_repair_station","osm_type":"node","osm_id":7178966984},"geometry":{"type":"Point","coordinates":[1686.227684414538,673.9792782906443]}},{"type":"Feature","id":"node/12439995080","properties":{"amenity":"bench","osm_type":"node","osm_id":12439995080},"geometry":{"type":"Point","coordinates":[1721.7078048154362,1342.0576306870207]}},{"type":"Feature","id":"node/12510957431","properties":{"archaeological_site":"tumulus","historic":"archaeological_site","name":"Rattlesnake Effigy Mound","osm_type":"node","osm_id":12510957431},"geometry":{"type":"Point","coordinates":[1764.1010076696402,735.4848337620497]}},{"type":"Feature","id":"node/12525337488","properties":{"amenity":"bench","osm_type":"node","osm_id":12525337488},"geometry":{"type":"Point","coordinates":[1690.2222359863226,677.133673613891]}},{"type":"Feature","id":"node/12525337489","properties":{"amenity":"bench","osm_type":"node","osm_id":12525337489},"geometry":{"type":"Point","coordinates":[1690.2000242554932,682.4990754211321]}},{"type":"Feature","id":"node/12525337495","properties":{"amenity":"recycling","recycling_type":"container","osm_type":"node","osm_id":12525337495},"geometry":{"type":"Point","coordinates":[1614.0511513539823,714.3780212784186]}},{"type":"Feature","id":"node/12525337500","properties":{"amenity":"bench","osm_type":"node","osm_id":12525337500},"geometry":{"type":"Point","coordinates":[1629.3507612753892,679.3376761144027]}},{"type":"Feature","id":"node/12525401105","properties":{"amenity":"bench","osm_type":"node","osm_id":12525401105},"geometry":{"type":"Point","coordinates":[1628.2782950903056,687.7551545929164]}},{"type":"Feature","id":"node/12525401110","properties":{"amenity":"bench","osm_type":"node","osm_id":12525401110},"geometry":{"type":"Point","coordinates":[1639.4076296697021,650.3598309252411]}},{"type":"Feature","id":"node/12525401115","properties":{"amenity":"bench","osm_type":"node","osm_id":12525401115},"geometry":{"type":"Point","coordinates":[1637.9437462251517,657.5098841907457]}},{"type":"Feature","id":"node/12525401116","properties":{"amenity":"bench","osm_type":"node","osm_id":12525401116},"geometry":{"type":"Point","coordinates":[1641.1985994357383,665.6833747373894]}},{"type":"Feature","id":"node/12525402441","properties":{"amenity":"bicycle_parking","osm_type":"node","osm_id":12525402441},"geometry":{"type":"Point","coordinates":[1684.0072258302243,674.6731980228797]}},{"type":"Feature","id":"node/12543039431","properties":{"amenity":"bench","osm_type":"node","osm_id":12543039431},"geometry":{"type":"Point","coordinates":[1713.197954946314,405.2117436276749]}},{"type":"Feature","id":"node/12543039432","properties":{"amenity":"bench","osm_type":"node","osm_id":12543039432},"geometry":{"type":"Point","coordinates":[1735.051496045373,414.7569189341739]}},{"type":"Feature","id":"node/12829438260","properties":{"amenity":"bench","osm_type":"node","osm_id":12829438260},"geometry":{"type":"Point","coordinates":[1797.0424952597823,1363.8546715555713]}},{"type":"Feature","id":"node/12829486526","properties":{"amenity":"bench","osm_type":"node","osm_id":12829486526},"geometry":{"type":"Point","coordinates":[1895.5849362708977,1731.1381675805897]}}]}