{"type":"FeatureCollection","features":[{"type":"Feature","properties":{"Plat_Link":"https://www.co.washington.mn.us/DocumentCenter/View/56313/Wash-Co-Hwy-ROW-Plat-No-167","OBJECTID":838,"LAYER":"PLTLBL","LAND_TYPE":"B","PLAT_ID":2489,"PLAT_NAME":"WASH CO HWY ROW PLAT #167 CSAH 18","SUBTYPE":3,"SEC":null,"TWP":null,"RNG":null,"RECORDED":1216252800000,"SURVEYOR":"26004","created_user":null,"created_date":null,"last_edited_user":"SMKRECH","last_edited_date":1787147193000,"Shape_Length":2046.5010779542042,"Shape_Area":29166.033177644043},"geometry":{"type":"Polygon","coordinates":[[[1576.3872223418439,1104.3743633879349],[1588.820304845227,1101.183887901716],[1600.7593748542713,1098.443851464428],[1600.7587241716683,1095.8571036402136],[1615.9921212715562,1095.8535970468074],[1631.2254474720103,1095.8501971606165],[1692.159039375896,1095.8364657349885],[1692.153594238218,1071.4630814874545],[1646.4533680588356,1071.4733094461262],[1600.7532863625675,1071.4835809823126],[1600.754745557846,1077.9601913709193],[1592.2726995929843,1079.6885873172432],[1583.8226768600289,1081.7067946270108],[1576.4002766467747,1083.611434135586],[1528.6160829608561,1095.8733057854697],[1484.6077176627587,1095.883221753873],[1484.6137885624776,1104.95900197234],[1476.498240011104,1105.6381660522893],[1468.3709249512176,1105.893293426372],[1460.2430309437332,1105.7240328788757],[1455.9130064455094,1105.4645413663238],[1450.3508572050487,1105.0499154664576],[1435.3332590505015,1103.731233496219],[1420.3364937189035,1102.0146738914773],[1419.4217857299955,1101.8956464203075],[1364.249370365229,1094.8436647290364],[1254.9176769100013,1080.8650313457474],[1237.3981602312997,1075.5536061478779],[1221.6191942178411,1073.5361483804882],[1221.2328447929467,1076.5581494625658],[1201.386125231511,1074.0207088338211],[1179.8792502736324,1071.2710129022598],[1180.4587814649567,1066.7378975190222],[1148.6602064111503,1062.6722099017352],[1148.0806264570565,1067.2053307201713],[1146.9589525976917,1067.0619868822396],[1103.0663862784859,1061.4500024653971],[1103.4528226536931,1058.4279878316447],[1096.3854324668064,1057.5244124094024],[1095.9989993735217,1060.546427874826],[1089.539347637794,1059.7205505846068],[1074.974568530044,1057.8583309846],[1075.3609209362767,1054.8363128574565],[1058.3889964385307,1052.6662651309744],[1058.002580632805,1055.6884264349937],[1042.4216017900617,1053.6962987454608],[1031.1303406131337,1051.9869405142963],[1019.8865403636592,1049.7486172309145],[1019.8224581789691,1060.0264411093667],[1019.8010375722079,1063.4573028050363],[1019.7584205138846,1070.2869315920398],[1024.7617994542816,1071.2693091798574],[1032.3078025925788,1072.564915349707],[1039.871415046102,1073.6419329056516],[1152.3632209518692,1088.0246406197548],[1191.783993383171,1093.0648464523256],[1191.3976591671235,1096.086840108037],[1210.3870232421905,1098.514722735621],[1210.773366278212,1095.4927313160151],[1258.5744599380996,1101.6043572528288],[1328.93201038189,1110.5998732382432],[1333.9570511411293,1111.2423521038145],[1338.9820199928363,1111.8848346648738],[1417.7854312776471,1121.9602977288887],[1419.3759361554985,1122.1613938044757],[1434.1069560734904,1123.8172648213804],[1448.8571307538077,1125.1024144347757],[1454.4175609613303,1125.5168919963762],[1460.2542148220818,1125.854846606031],[1466.3657592037925,1125.9994737738743],[1472.4782437591348,1125.9291673777625],[1478.5555535813328,1125.6551975002512],[1484.6261925262515,1125.1629067221656],[1493.6608424604638,1124.0540293352678],[1502.6601117572282,1122.4681742768735],[1503.4907543574227,1122.2992464732379],[1522.625970574445,1118.0653431406245],[1532.6573490002193,1115.5958053749055],[1576.3872223418439,1104.3743633879349]]]}},{"type":"Feature","properties":{"Plat_Link":"https://www.co.washington.mn.us/DocumentCenter/View/56948/Schmitts-Afton-Coullee-Ridge","OBJECTID":919,"LAYER":"PLTLBL","LAND_TYPE":"B","PLAT_ID":19720,"PLAT_NAME":"SCHMITT'S AFTON COULEE RIDGE","SUBTYPE":4,"SEC":"22","TWP":"28","RNG":"20","RECORDED":-128217600000,"SURVEYOR":"4987","created_user":null,"created_date":null,"last_edited_user":"SMKRECH","last_edited_date":1786566387000,"Shape_Length":2017.6672205526318,"Shape_Area":174828.63251605752},"geometry":{"type":"Polygon","coordinates":[[[972.4767284317059,372.18563998211175],[929.7192288484075,467.92613351903856],[946.5324442051933,525.5425606966019],[955.4334392859018,556.0450813500211],[1022.9621554485639,556.6329516228288],[1063.739351405471,556.9878711048514],[1122.501696776133,557.4994092546403],[1122.1561499013333,612.8997623668984],[1122.1205504846876,618.6166350618005],[1122.0646825459553,627.5716235665604],[1126.9391796657,627.6138881063089],[1218.1919419161277,628.4068729309365],[1300.7141757876961,629.1239577280357],[1352.9544284614385,629.5779107026756],[1358.9205926342984,629.6297810385004],[1364.8874663650058,629.68151741568],[1416.0283142270637,630.1259675882757],[1420.9028801126988,630.1682438421994],[1420.908084218332,628.4837149940431],[1420.9453209231724,616.492382328026],[1420.9837975598057,604.1099178073928],[1421.1203728494002,560.0990104367957],[1421.125662008475,558.4090912472457],[1421.268306021695,512.7082964917645],[1421.344373472908,488.3344163419679],[1421.4343210770749,459.5663902601227],[1377.7097285637283,458.5369272110984],[1335.539060332405,457.5440563624725],[1334.5308813164593,457.5203570295125],[1307.4686334906146,456.8831401048228],[1299.1326271964354,456.68680058512837],[1235.0266058326815,455.1775395628065],[1173.4521089181653,453.7277791230008],[1174.1432683063322,377.34463900048286],[1118.973711808154,375.93331464007497],[1035.470485218626,373.7971647270024],[1034.3039241161896,373.7672387929633],[1014.7286291561904,373.2666094265878],[972.4767284317059,372.18563998211175]]]}},{"type":"Feature","properties":{"Plat_Link":"https://www.co.washington.mn.us/DocumentCenter/View/56884/Afton","OBJECTID":1987,"LAYER":"PLTLBL","LAND_TYPE":"B","PLAT_ID":19040,"PLAT_NAME":"AFTON","SUBTYPE":4,"SEC":"22","TWP":"28","RNG":"20","RECORDED":-3618691200000,"SURVEYOR":"EMERSON","created_user":null,"created_date":null,"last_edited_user":"SMKRECH","last_edited_date":1786566387000,"Shape_Length":6137.442715340308,"Shape_Area":1150053.8997939138},"geometry":{"type":"Polygon","coordinates":[[[1819.2904427752947,970.1360352849588],[1828.0554551682435,970.4767634635791],[1881.1719822376035,972.5422424804419],[1994.987224244338,976.967876243405],[2017.8440472685616,977.8567800959572],[2052.290035560087,979.1961339199916],[2049.6910629051854,965.2537639569491],[2049.0819332062383,965.0631676120684],[2048.1019994390663,964.5421057436615],[2045.952192312223,963.3990944847465],[2042.3238941315212,961.9066270198673],[2036.6229621316306,958.8230173354968],[2031.4425200735568,955.0115861641243],[2028.5813087769202,952.3996061524376],[2026.2021462091943,950.7556063914672],[2024.3553416081122,949.5234442716464],[2022.7909533830243,948.7332576476038],[2022.0071621248499,945.4055328620598],[2019.9759336392744,939.6446623606607],[2019.0075669481885,937.3195744603872],[2017.7643862389377,935.3029091097414],[2016.2211709443363,933.845172053203],[2014.6956406508107,931.3867424055934],[2008.1799192899489,924.697820478119],[2003.9847655736376,919.3200288498774],[2000.09822040156,914.2445410490036],[1997.9757821738021,910.4579599015415],[1995.9773165921215,907.9763291450217],[1992.7236955845146,905.0350944874808],[1990.3127956089447,903.0022475970909],[1988.551961461082,902.019411008805],[1978.7416784412344,902.1454611225054],[1961.9392801379436,903.5088358968496],[1946.2991438449244,904.3605395006016],[1929.6630866540363,905.666629306972],[1915.2165112954099,906.3395560188219],[1900.2981384873274,907.0726651605219],[1885.491184064711,907.860324267298],[1870.7371126883081,908.3695944035426],[1854.3162297055824,908.9510291712359],[1847.8667620437918,908.8768271682784],[1845.2524967477657,908.708486430347],[1844.549464648182,907.8816403979436],[1842.6356052134652,899.979240834713],[1841.1730191887473,887.1524177473038],[1839.7344856048585,876.743887794204],[1838.789683727373,871.2222374118865],[1841.5522831372218,866.7471495838836],[1858.0867220220389,866.3868017029017],[1869.612835011736,866.3666243478656],[1878.2655404116958,866.3515798524022],[1897.1094856345444,866.2460901541635],[1915.8157442306983,866.2810870725662],[1930.2946834990871,866.0524963289499],[1941.6347927118768,866.0224734777585],[1957.2213670989731,865.393617073074],[1974.529752606817,864.60873263143],[1988.5324934817618,864.0235798722133],[2003.675562227727,863.5106149585918],[2010.8972659257124,862.9937473693863],[2022.8090315473382,861.7623008275405],[2027.8876307496685,860.9889045711607],[2029.777232394088,860.9421642189845],[2032.709825991944,862.3582522943616],[2034.2529888240388,863.7881595212966],[2037.2936081077787,867.6487418888137],[2039.1765335087548,869.7146032946184],[2041.6634405718069,871.0516564939171],[2043.092635351466,871.3841606620699],[2042.4778084100108,865.6778261475265],[2040.6154017637018,848.3934831442311],[2039.9993330056313,844.7824326949194],[2039.6066978797317,842.7773100659251],[2039.1791484394344,840.7793723000214],[2038.716824960662,838.7891852753237],[2038.219867528358,836.8073855536059],[2037.6883453038172,834.8346094964072],[2037.122469678463,832.8713524993509],[2036.522380739334,830.9182511130348],[2035.888289304101,828.9760127905756],[2035.2205488079344,827.0450626220554],[2034.8437700288487,826.0142283542082],[2034.5190156453755,825.1260363971815],[2033.784255252045,823.2196425339207],[2033.1571687231772,821.6737518990412],[2026.2493433767813,822.3145853243768],[2015.097985697852,821.7594182472676],[2003.8678962022532,821.6495839850977],[1993.8115212915582,822.1949549624696],[1981.0275427228771,822.3785952962935],[1966.7412390813697,822.4105971409008],[1951.9279393323814,822.5588935064152],[1935.5309315384948,822.751003104262],[1920.7711456854013,822.6765052946284],[1904.8123443957884,822.2251611137763],[1892.1377626032918,822.240832076408],[1878.7401036568335,822.1804288290441],[1867.318048057612,822.3507938776165],[1856.9186827336089,821.9547088183463],[1848.274464658578,821.9300099471584],[1842.9360464881756,821.761118219234],[1838.8148647196358,821.0242312615737],[1836.5507378097973,819.7405774518847],[1835.0624999432475,818.2266704924405],[1834.3323083973373,814.7318764096126],[1833.1717497665086,807.0719344383106],[1832.335865124769,798.547387516126],[1831.6646255249507,789.8264138577506],[1831.4718672479503,787.527703567408],[1830.7492757142754,778.9122516801581],[1830.2022289676825,774.2482264218852],[1830.6151765001123,771.0752760246396],[1831.4712618468911,768.6402009874582],[1831.7233412111527,767.9234209544957],[1833.1176505963667,765.6025364939123],[1835.4135508527397,764.4954872187227],[1845.6932618605788,764.0590365966782],[1861.0948194027878,764.3769766893238],[1877.4666155488812,764.4352567950264],[1895.3948228192749,764.4782014908269],[1904.5521890124655,764.3710368871689],[1911.958797146799,764.2843169970438],[1924.5493086515344,764.2415962358937],[1934.5070575723657,764.9478272646666],[1945.355132104538,765.7285133870319],[1959.1098065819242,765.3685956466943],[1968.3413922926993,765.7204727977514],[1975.8217286808067,766.0904434565455],[1984.9368649765383,765.9158451342955],[1994.249690683093,766.0726758595556],[2010.2371965318453,766.6072378009558],[2021.6143644664553,767.0985493501648],[2020.8240355344024,761.0027351956815],[2020.4645550309797,758.5641628103331],[2020.0625722005498,756.1322597563267],[2014.2209063100163,731.5153748029843],[2014.1988395015942,731.2839596616104],[2014.1792940886808,731.1164514729753],[2014.1568394222995,730.9494301779196],[2014.1315470093396,730.7826839005575],[2014.1033451532712,730.6164951995015],[2014.0722340481589,730.4507933845744],[2014.0382133063395,730.2857198342681],[2014.0012831228669,730.1212038481608],[2013.9615140365786,729.957387004979],[2013.9189769718796,729.7942694919184],[2013.8735300784465,729.6318509243429],[2013.8251727806055,729.4703433588147],[2013.7741180449375,729.3096766863018],[2013.7202238269383,729.1499212067574],[2013.6635606706259,728.9912184840068],[2013.6040580316912,728.8334269588813],[2013.541928301158,728.6766885761172],[2013.477029245405,728.5211443267763],[2007.8693208813202,715.7943557864055],[2003.2821135675767,705.9203897565603],[2001.0062342043966,701.2842560149729],[1999.3769738819683,698.1378942616284],[1997.6930916256388,695.0205058101565],[1995.9549400869873,691.9327985709533],[1994.1632961185533,688.8759764116257],[1992.3184412628761,685.8508177306503],[1990.421152766212,682.8583850385621],[1988.5695556351566,679.938034449704],[1986.7692514400114,676.9858720060438],[1985.0207343961229,674.0027471957728],[1983.3244989178493,670.9894388336688],[1981.681180499203,667.9470088481903],[1980.091202256619,664.87637724448],[1977.7343415889773,660.065901353024],[1977.573009503074,659.717190076597],[1977.4179263007827,659.3657389516011],[1977.2688078990323,659.0116885872558],[1977.126008925261,658.6550399381667],[1976.9893869553925,658.2960046837106],[1976.8590840306715,657.9345125155523],[1976.7350990034174,657.570987559855],[1976.6175033733016,657.2052179379389],[1976.506296375068,656.8374864021316],[1976.401619860495,656.4677933380008],[1976.3032600957667,656.0964915892109],[1976.2113593160757,655.7234401740134],[1976.1262006476172,655.3488519256935],[1976.0473583486164,654.9727963656187],[1975.949965762673,654.4541151858866],[1975.4791711003054,651.6263550277799],[1975.057690435904,648.7908811988309],[1974.6859474704834,645.9484016988426],[1974.4837629074464,644.1611004164442],[1972.286319531966,640.7150191459805],[1970.6788998174015,638.3962977901101],[1966.879145323357,630.9017941243947],[1963.8870838264702,623.566257703118],[1962.0835235193954,615.5515921320766],[1961.544816807378,613.6232685782015],[1959.4891695936094,606.2660778742284],[1958.00597572868,596.9419982871041],[1956.8525817250484,587.2530619967729],[1956.2359110598918,578.3926110621542],[1956.8375623167376,571.8824935154989],[1957.9357628005673,567.7580132186413],[1960.050981118402,562.48336877767],[1962.376944407646,558.8245094213635],[1964.3482568580075,555.8528339089826],[1964.801025993831,553.8749418212101],[1964.4467130912817,551.7939894776791],[1963.6261543241562,550.356658661738],[1961.3543593824725,545.5430828109384],[1961.9394565213588,540.1453056177124],[1965.650493131252,533.2427774453536],[1971.465989582939,525.5408123042434],[1973.7410867488943,522.6255797594786],[1978.134417383466,516.9963612426072],[1980.9159484392148,514.1833735955879],[1980.9288672992843,513.9444113792852],[1980.942739882681,513.5630854219198],[1980.9498746067402,513.1816704683006],[1980.9503427786985,512.8000253364444],[1980.944213983661,512.4186450373381],[1980.931346939993,512.0373171158135],[1980.9118831197848,511.65618334151804],[1980.8857506318018,511.27559695392847],[1980.8529498635326,510.89541658293456],[1980.813550968538,510.5159251661971],[1980.7675537568284,510.13719339761883],[1980.715028963401,509.7592921536416],[1980.655763226794,509.38243292365223],[1980.5900404474814,509.0065457923338],[1980.4172483147704,508.1225426411256],[1980.2678352738149,507.4314408013597],[1980.1062862118706,506.74306281562895],[1979.932884449663,506.0575508167967],[1979.7474875531625,505.3751165000722],[1979.550236223149,504.69618437532336],[1979.3412013831548,504.02075463347137],[1979.120382454479,503.34903934504837],[1978.887778856384,502.6812505722046],[1978.6436735287425,502.01767184585333],[1978.387995156867,501.3584443414584],[1978.12081409042,500.70378032978624],[1977.8422717970097,500.05382157303393],[1977.5524380492861,499.4089923845604],[1977.2513841531472,498.76915159262717],[1977.0509133268497,498.3617246840149],[1976.9391798875295,498.13472351431847],[1976.6495412155055,497.5747916176915],[1976.419960329542,497.1521583488211],[1976.183133731538,496.73360533453524],[1975.9389191836817,496.31927356962115],[1975.6876000060001,495.90930521208793],[1975.429105274612,495.50370005797595],[1975.1635760738864,495.10274125728756],[1974.891154259385,494.70642918441445],[1974.611768325034,494.31497572362423],[1974.3255597430398,493.928522628732],[1974.0328126028762,493.54692930262536],[1973.7333840940846,493.17054879758507],[1973.4273445641738,492.7995933769271],[1973.1149781089625,492.43392243329436],[1972.7962130319793,492.07381852250546],[1972.4712621155195,491.71928223315626],[1972.1401249719784,491.3704549362883],[1971.8030847387854,491.02754947077483],[1971.459857898939,490.69049438275397],[1971.1110112917959,490.35950327292085],[1970.7564028743654,490.0346464496106],[1970.396174115769,489.7160656666383],[1969.9632062742603,489.33310238830745],[1969.5369256598642,488.9427349437028],[1969.1176161708427,488.5448934212327],[1968.7052061160794,488.13986036460847],[1968.2999793950003,487.72756585571915],[1967.9020057827584,487.3084342200309],[1967.5114984464599,486.8823246508837],[1967.128385691496,486.4495197078213],[1966.7529514177004,486.0099494624883],[1966.3851235522307,485.5640378566459],[1966.025256725843,485.11178585048765],[1965.6733507524477,484.6532641220838],[1965.329475981067,484.1886849272996],[1964.9936322247959,483.7181189516559],[1964.6661733502406,483.2418499067426],[1964.3470993593219,482.7598777990788],[1964.0364096811973,482.2724146768451],[1963.734387446253,481.77967337705195],[1963.4408908051555,481.2816535141319],[1963.0643772299518,480.6120591778308],[1961.2186700846069,477.16698969341815],[1959.4333351796377,473.69034327287227],[1957.708866781497,470.1829694164917],[1956.0459707884584,466.6461423365399],[1954.256435450865,462.6495635267347],[1953.302214600728,460.40797777008265],[1952.3872602118063,458.15016861166805],[1951.5117126466357,455.87670190632343],[1951.129620460968,454.8303889585659],[1950.6760668969364,453.5881444681436],[1949.880461986526,451.28555698506534],[1948.7721167420968,447.83724181726575],[1947.5148658353137,443.61292091012],[1946.3315073711565,439.3672374021262],[1945.2225341513404,435.10160633921623],[1944.1881558413734,430.81722991913557],[1943.2039976462838,426.4003029996529],[1942.0736503213993,421.38240074552596],[1941.12315533543,417.52485334314406],[1940.1054435163387,413.6844407338649],[1939.0209368740325,409.8624365441501],[1937.8697744762176,406.05983086302876],[1937.6484910754953,405.3734021894634],[1936.7230561334873,402.5016089845449],[1935.563045115734,399.11088372487575],[1934.3441058527096,395.74092156626284],[1933.0665900368476,392.3927838727832],[1932.110723614518,389.88764138985425],[1931.1987346739625,387.3661460913718],[1930.3308339399518,384.82907610107213],[1929.0051663482445,380.6370499795303],[1928.9769646542845,380.5480459202081],[1928.8283338133479,380.0365565922111],[1928.6885756877018,379.5226170858368],[1928.5578321321518,379.00622778199613],[1928.436102196516,378.4877421334386],[1928.323527736764,377.96716051362455],[1928.219895397022,377.44469441846013],[1928.1254887029645,376.92041530273855],[1928.0402357700514,376.3946764227003],[1927.9642073408468,375.8675486613065],[1927.8973324860563,375.3390318173915],[1927.8396809900296,374.8095502248034],[1927.7736311850022,374.0546865798533],[1927.6211847381783,372.33156191464514],[1927.4971769656404,371.21291237697005],[1927.3536575125763,370.0965426368639],[1927.19076726801,368.9828065261245],[1927.0083632196765,367.8721277983859],[1926.806586450024,366.76478960271925],[1926.5856487778365,365.6611459683627],[1926.3454071904416,364.56162064615637],[1926.0984267125023,363.5409669354558],[1925.9244376549032,362.885412232019],[1925.7388784127543,362.23307791538537],[1925.5419615783612,361.58403525222093],[1925.3338282399927,360.9385673766956],[1925.1144780113245,360.2968156822026],[1924.8839103187784,359.6589922327548],[1924.6422666322906,359.0252387961373],[1924.3896171120577,358.3958383221179],[1924.126032303553,357.77093238476664],[1923.8515116296476,357.1507330574095],[1923.5661967528868,356.5353114111349],[1923.270228191046,355.9251626683399],[1922.9636774449027,355.32007494661957],[1922.6466140997945,354.720543269068],[1922.3191798237967,354.12663871608675],[1921.9813032968668,353.5385024724528],[1921.6332674773294,352.95641807466745],[1921.2750723553472,352.38038551807404],[1920.3812371814856,351.0110339317471],[1919.7759765756782,350.12718464713544],[1919.1555082033155,349.2539683980867],[1918.5196894403198,348.3916675625369],[1917.8691574928816,347.54070801846683],[1917.2037701210356,346.70123076066375],[1916.5238106553443,345.8733779527247],[1915.8294909229153,345.05750362202525],[1915.1210934928386,344.2540326882154],[1914.3987600295222,343.46303622983396],[1913.6627738651587,342.6846564076841],[1912.9132049707114,341.9192468598485],[1912.1504781577387,341.1670915186405],[1911.3747348999605,340.42833214905113],[1910.5862581499969,339.703252280131],[1909.6431548481341,338.87334509566426],[1909.0071592493914,338.3381271865219],[1908.362125592248,337.81398324202746],[1907.7079108820762,337.30133703071624],[1907.6328081998508,337.24458189774305],[1907.0448703336297,336.7999774450436],[1906.3731444702134,336.31039969529957],[1905.693017008074,335.8326045656577],[1905.0047001629719,335.3668046966195],[1904.3083359866287,334.91292979195714],[1903.6040651914664,334.4714043736458],[1902.8923133542994,334.04222959745675],[1902.1730800968944,333.6255468511954],[1901.4467906117206,333.2214986635372],[1900.7135158305173,332.83008524030447],[1899.973467970558,332.45151921827346],[1899.227000917017,332.0860843285918],[1898.4742571020615,331.7335688881576],[1897.7154481725884,331.39439760521054],[1896.9508582269773,331.06842988170683],[1896.1806996771484,330.75580767169595],[1895.4051845475333,330.4568143142387],[1894.624526013853,330.17130900081247],[1893.8390074115014,329.8994338903576],[1893.0489120809943,329.6413311306387],[1892.2544526209822,329.3970719836652],[1891.4557705133338,329.1667982181534],[1890.6532917182776,328.95036960951984],[1889.1846318265307,328.55435676313937],[1887.7229914707132,328.1329146437347],[1886.2689386357088,327.68583270162344],[1884.822968665103,327.2135364096612],[1883.385435997683,326.7160973949358],[1881.956766191346,326.1935168020427],[1880.537383662304,325.6462199045345],[1879.1279269459774,325.07413771841675],[1877.7285369344172,324.47762406710535],[1876.3398517838214,323.85675134975463],[1874.962154624518,323.21173238102347],[1873.595941568201,322.54270986746997],[1872.2416372231673,321.85003839898854],[1870.8996669579647,321.1337897852063],[1869.5703137217206,320.394247549586],[1868.2540734309587,319.6316250693053],[1866.9515131305088,318.8460652511567],[1865.662631664134,318.0379922101274],[1864.3882088652463,317.2075494127348],[1862.819992468867,316.14133981242776],[1858.5110240482609,313.0863611251116],[1854.256017446809,309.9566679606214],[1850.0563173879054,306.7533240849152],[1845.2714736367343,302.9589875712991],[1843.9049939174438,301.83295359648764],[1842.5583672861103,300.68307971023023],[1841.232017602655,299.51000325009227],[1839.9264409861644,298.31386690586805],[1838.641848510888,297.09530743490905],[1837.3787366794422,295.85432615689933],[1835.914651982137,294.36022614780813],[1835.2461304463213,293.65144935809076],[1834.5900525831385,292.93111276160926],[1833.9467013499816,292.19949986599386],[1833.3161471065832,291.4568229354918],[1832.6986735695973,290.7030827207491],[1832.094492391625,289.9387039281428],[1831.4848751773825,289.1383995600045],[1830.9265009533847,288.3790215747431],[1830.3631860622554,287.584143480286],[1829.8137286889832,286.7794765904546],[1829.278482532769,285.9653752995655],[1828.7573757175705,285.14219286013395],[1828.250833821192,284.30993041116744],[1827.7588558976422,283.46894140541553],[1826.94816465053,282.00423801504076],[1825.6980680202832,279.61406944785267],[1824.4899479414453,277.2023816835135],[1823.3241566289216,274.77009462565184],[1822.2009055758244,272.31770361587405],[1821.1206886668224,269.84619961772114],[1819.279339882487,265.3354745404795],[1819.2794498727308,237.58790632989258],[1819.2797345842118,156.9723287206143],[1807.8319238308468,156.86338198091835],[1806.662012408604,156.85225127264857],[1734.7419629305368,156.16767168045044],[1727.4498404686456,156.0982622941956],[1705.8297405609628,155.89260621741414],[1694.1803459796356,155.7816982679069],[1675.6943374963594,155.6057154443115],[1666.3898678410915,155.5189234269783],[1649.05703548959,155.35216926038265],[1422.3908136580721,153.1949391560629],[1422.3526394997025,165.38174570910633],[1422.2099992707372,211.0826675426215],[1422.0771415669005,253.62544820457697],[1422.067358607892,256.783548489213],[1421.991292924271,281.1573136029765],[1421.8728224121733,319.08556634839624],[1421.8485806883546,326.8581222444773],[1421.7767839664593,349.84921868890524],[1421.7059385778266,372.5590315479785],[1421.6677624051226,384.7463427949697],[1421.629730524437,396.9327124459669],[1421.487087587302,442.6336202900857],[1421.4597286699573,451.4040062110871],[1421.4343210770749,459.5663902601227],[1421.344373472908,488.3344163419679],[1421.268306021695,512.7082964917645],[1421.125662008475,558.4090912472457],[1421.1203728494002,560.0990104367957],[1420.9837975598057,604.1099178073928],[1420.9453209231724,616.492382328026],[1420.908084218332,628.4837149940431],[1420.9028801126988,630.1682438421994],[1420.766289665131,674.184610911645],[1420.6244239272783,719.8853950062767],[1420.5488515379257,744.2592500252649],[1420.4895402693073,763.3594911256805],[1420.4002536081243,792.1180357122794],[1420.2143307719962,852.028242927976],[1420.1740488507203,864.989768720232],[1420.0328443072503,910.4919241853058],[1419.8924201146,955.7507510986179],[1419.8898538286448,956.5658658463508],[1419.8586966604344,966.6200008569285],[1419.8167766896659,980.1240683179349],[1419.7222215527436,1010.5909564401954],[1419.627666361921,1041.0577713651583],[1419.5789079752867,1056.7604517666623],[1419.4952887597028,1083.7112826053053],[1419.4217857299955,1101.8956464203075],[1419.407372862508,1112.0279849749058],[1419.3759361554985,1122.1613938044757],[1419.2278422117815,1169.8804683368653],[1419.1737988283276,1187.2981766052544],[1419.1359053795459,1199.4848685804754],[1419.0981536058243,1211.6716085895896],[1419.0434067564202,1229.303081234917],[1418.8144826862845,1303.0719535360113],[1418.7387658338412,1327.445371998474],[1418.5969765535556,1373.141034314409],[1460.4180876105675,1373.5132308686152],[1468.4704059787327,1373.5849022902548],[1484.791620536067,1373.7301187794656],[1576.4481375252362,1374.545800450258],[1600.8215951454476,1374.7627054862678],[1646.5426573609584,1375.169584092684],[1690.3696882319637,1375.5595063064247],[1692.2220178240095,1375.5760415494442],[1700.6903982669464,1375.6514477757737],[1714.8972420959617,1375.7778926780447],[1716.5954710889491,1375.7929629199207],[1738.2092217892641,1375.985344861634],[1747.0623218898545,1376.0641037561],[1808.8692806328763,1376.6141142789274],[1819.3022494560573,1376.7069018827751],[1819.300015003595,1301.0275434292853],[1819.2956665672828,1150.2752953870222],[1819.2906990856281,977.9014430036768],[1819.2904427752947,970.1360352849588]]]}},{"type":"Feature","properties":{"Plat_Link":"https://www.co.washington.mn.us/DocumentCenter/View/56894/County-Auditors-Plat-No-5","OBJECTID":4122,"LAYER":"PLTLBL","LAND_TYPE":"B","PLAT_ID":19125,"PLAT_NAME":"COUNTY AUDITOR'S PLAT NO. 5","SUBTYPE":4,"SEC":"22","TWP":"28","RNG":"20","RECORDED":-2474409600000,"SURVEYOR":"SHEPARD","created_user":"CJNEPER","created_date":1552934748000,"last_edited_user":"SMKRECH","last_edited_date":1786566387000,"Shape_Length":8513.626696966296,"Shape_Area":2501386.709960754},"geometry":{"type":"Polygon","coordinates":[[[972.4767284317059,372.18563998211175],[1014.7286291561904,373.2666094265878],[1034.3039241161896,373.7672387929633],[1035.470485218626,373.7971647270024],[1118.973711808154,375.93331464007497],[1174.1432683063322,377.34463900048286],[1173.4521089181653,453.7277791230008],[1235.0266058326815,455.1775395628065],[1299.1326271964354,456.68680058512837],[1307.4686334906146,456.8831401048228],[1334.5308813164593,457.5203570295125],[1335.539060332405,457.5440563624725],[1377.7097285637283,458.5369272110984],[1421.4343210770749,459.5663902601227],[1421.4597286699573,451.4040062110871],[1421.487087587302,442.6336202900857],[1421.629730524437,396.9327124459669],[1421.6677624051226,384.7463427949697],[1421.7059385778266,372.5590315479785],[1421.7767839664593,349.84921868890524],[1421.8485806883546,326.8581222444773],[1421.8728224121733,319.08556634839624],[1421.991292924271,281.1573136029765],[1422.067358607892,256.783548489213],[1422.0771415669005,253.62544820457697],[1422.2099992707372,211.0826675426215],[1422.3526394997025,165.38174570910633],[1422.3908136580721,153.1949391560629],[1321.855037665402,152.235750942491],[1174.850506428047,150.83325938414782],[1082.8138260279084,149.95516902394593],[1082.0606481649447,229.774606349878],[931.7120534574497,289.67688536271453],[926.3093846614938,305.0456746472046],[761.9006065744325,337.95825009886175],[630.5513907769346,247.9110083291307],[619.556126446987,240.3732704948634],[619.3589366718661,293.3271397985518],[619.3584219688782,293.47622506693006],[619.0700278004515,293.47380725853145],[612.780470583064,293.41976691037416],[599.025295157684,293.3017688030377],[533.575024907419,292.74007391929626],[523.9038936478319,292.6571390721947],[450.53136076166993,292.0274018291384],[388.26646202779375,291.4930293234065],[351.52919150539674,291.1777876857668],[334.75523469550535,291.03384752664715],[294.69108674424933,257.3066598465666],[282.77754073089454,247.27738163340837],[275.32083152612904,241.00013517402112],[258.38191687647486,266.325762196444],[271.001819083991,276.9498599516228],[281.5839536344283,285.85847378056496],[214.04439271776937,365.12925059441477],[213.92715548770502,462.04560437612236],[213.8832687693648,498.3495150562376],[213.86392444442026,514.3441031556576],[213.84785692335572,527.5396965788677],[213.83336302626412,539.5660182833672],[213.82119914598297,549.5891020558774],[213.69907907390734,561.860547865741],[209.8131278680521,952.2637704834342],[205.90497979719657,1344.8845504391938],[347.18739953712793,1347.4309601094574],[451.09243011684157,1349.303687849082],[476.17990451690275,1349.7558465637267],[611.9295939633157,1352.2024953365326],[611.8482860830845,1362.2566600190476],[796.5918942787685,1365.5865351445973],[807.3302837305819,1365.7800837205723],[814.870068856806,1365.9158626217395],[1017.891739498009,1369.5751362750307],[1048.052619856142,1369.8435116186738],[1150.5997298274306,1370.7560747368261],[1187.3607746441266,1371.083232678473],[1257.7361647622893,1371.709497993812],[1279.8998857561965,1371.9067827556282],[1297.5655342658283,1372.0639299917966],[1319.7291829800233,1372.261210989207],[1418.5969765535556,1373.141034314409],[1418.7387658338412,1327.445371998474],[1418.8144826862845,1303.0719535360113],[1419.0434067564202,1229.303081234917],[1419.0981536058243,1211.6716085895896],[1419.1359053795459,1199.4848685804754],[1419.1737988283276,1187.2981766052544],[1419.2278422117815,1169.8804683368653],[1419.3759361554985,1122.1613938044757],[1419.407372862508,1112.0279849749058],[1419.4217857299955,1101.8956464203075],[1419.4952887597028,1083.7112826053053],[1419.5789079752867,1056.7604517666623],[1419.627666361921,1041.0577713651583],[1419.7222215527436,1010.5909564401954],[1419.8167766896659,980.1240683179349],[1419.8586966604344,966.6200008569285],[1419.8898538286448,956.5658658463508],[1419.8924201146,955.7507510986179],[1420.0328443072503,910.4919241853058],[1420.1740488507203,864.989768720232],[1420.2143307719962,852.028242927976],[1420.4002536081243,792.1180357122794],[1420.4895402693073,763.3594911256805],[1420.5488515379257,744.2592500252649],[1420.6244239272783,719.8853950062767],[1420.766289665131,674.184610911645],[1420.9028801126988,630.1682438421994],[1416.0283142270637,630.1259675882757],[1364.8874663650058,629.68151741568],[1358.9205926342984,629.6297810385004],[1352.9544284614385,629.5779107026756],[1300.7141757876961,629.1239577280357],[1218.1919419161277,628.4068729309365],[1126.9391796657,627.6138881063089],[1122.0646825459553,627.5716235665604],[1122.1205504846876,618.6166350618005],[1122.1561499013333,612.8997623668984],[1122.501696776133,557.4994092546403],[1063.739351405471,556.9878711048514],[1022.9621554485639,556.6329516228288],[955.4334392859018,556.0450813500211],[946.5324442051933,525.5425606966019],[929.7192288484075,467.92613351903856],[972.4767284317059,372.18563998211175]]]}},{"type":"Feature","properties":{"Plat_Link":"https://www.co.washington.mn.us/DocumentCenter/View/56195/Wash-Co-Hwy-ROW-Plat-No-45","OBJECTID":4551,"LAYER":"PLTLBL","LAND_TYPE":"A","PLAT_ID":1822,"PLAT_NAME":"WASH CO HWY ROW PLAT #45","SUBTYPE":3,"SEC":"22","TWP":"28","RNG":"20","RECORDED":503884800000,"SURVEYOR":"12279","created_user":"SMKRECH","created_date":1696014784000,"last_edited_user":"SMKRECH","last_edited_date":1787147193000,"Shape_Length":2180.7934753215263,"Shape_Area":49116.57605252926},"geometry":{"type":"Polygon","coordinates":[[[1597.682029684598,56.47176407277584],[1602.4715070485836,66.79287395626307],[1607.7157068633824,76.66621346585453],[1613.3936521157157,86.05229157116264],[1619.4826312619261,94.91356625501066],[1625.95828907541,103.21459466125816],[1654.1192733316566,137.60327566601336],[1659.1159201065893,144.12596730608493],[1663.7759081991971,151.12451555766165],[1666.3898678410915,155.5189234269783],[1669.5697540223482,161.50399415846914],[1672.472086420108,167.76233069971204],[1679.719226379646,167.83134550601244],[1679.7555106007494,167.97657313663512],[1691.9798647579155,216.83829046227038],[1692.0134672604618,259.3527853898704],[1692.0327663877397,283.72743643354625],[1692.0688521123375,329.42998567409813],[1692.1050055545056,375.1325648743659],[1692.114976854471,387.90298015251756],[1716.488420411304,387.8838005810976],[1716.4808918873314,378.41135416179895],[1716.4784650939982,375.36447517666966],[1716.4484465984278,337.2790742777288],[1716.4063605581177,283.9594180043787],[1716.3871541244444,259.5847672717646],[1716.324056937301,179.74854321125895],[1716.3148858330096,168.18195782322437],[1705.8297405609628,155.89260621741414],[1700.7856532589649,147.33745866455138],[1695.4309709549416,139.1646340638399],[1689.7802496118238,131.3963500931859],[1683.8488501659012,124.05372472852468],[1677.6528967698687,117.15671884082258],[1669.0411986167892,107.64749416522682],[1660.7442290824838,97.60006175749004],[1652.7789170735632,87.03492156229913],[1645.161515089334,75.97362986393273],[1637.9075660603703,64.43875531945378],[1631.0318716383772,52.45383290480822],[1629.6069653320592,49.76440350431949],[1624.08667553158,38.83020568173379],[1618.94791194977,27.53340816218406],[1614.2026221205015,15.900272265076637],[1608.1011286694645,0.0],[1573.6783084324325,0.0],[1597.682029684598,56.47176407277584]]]}}]}