{"type":"FeatureCollection","features":[{"type":"Feature","properties":{"highway":"secondary","name":"Saint Croix Trail South","source":"washington-county"},"geometry":{"type":"LineString","coordinates":[[1707.6868786406703,1314.9108963999897],[1702.4578254984808,1257.8789974423125],[1705.5130473825266,1201.6089619072154]]}},{"type":"Feature","properties":{"highway":"service","name":"Private","source":"washington-county","service":"driveway"},"geometry":{"type":"LineString","coordinates":[[1648.666044761194,1316.7397990999743],[1670.1271961751045,1317.3463633200154],[1707.6868786406703,1314.9108963999897]]}},{"type":"Feature","properties":{"highway":"secondary","name":"Saint Croix Trail South","source":"washington-county"},"geometry":{"type":"LineString","coordinates":[[1705.5130473825266,1201.6089619072154],[1703.057289591292,1083.710376985371]]}},{"type":"Feature","properties":{"highway":"service","name":"Marina Access","source":"washington-county","service":"driveway"},"geometry":{"type":"LineString","coordinates":[[1846.8026462920825,964.2581020398065],[1846.508699540631,936.1203104071319]]}},{"type":"Feature","properties":{"highway":"service","name":"Marina Access","source":"washington-county","service":"driveway"},"geometry":{"type":"LineString","coordinates":[[1989.037085429707,954.833471882157],[1988.2785413923557,944.4208538811654],[1987.3600589028792,938.9552585473284],[1986.108579017222,933.6229591378942],[1984.533498320554,928.4639958664775],[1982.6466434112517,923.5171074056998],[1979.9951055800775,921.2688081376255],[1977.1668182992726,919.4961131066084],[1974.2045813003206,918.2258479138836],[1969.5314270360395,917.6198536111042],[1964.8381917137303,917.5319059956819],[1960.1538340049447,917.962547714822],[1936.913377102348,920.76230906602],[1913.7263919115649,924.3466426543891],[1857.8214360908605,933.2524689566344],[1852.1242002978688,934.3640000112355],[1846.508699540631,936.1203104071319]]}},{"type":"Feature","properties":{"highway":"service","name":"Marina Access","source":"washington-county","service":"driveway"},"geometry":{"type":"LineString","coordinates":[[1826.0423113550642,844.8608399890363],[1823.2219677417888,821.6569912061095],[1820.6544480732991,798.3944575944915],[1818.3403566167108,775.0786893926561],[1818.2468070861069,772.5178260235116],[1818.4413879043423,769.9674790045246],[1818.9192332010134,767.4914291389287],[1819.668393000553,765.1515991929919],[1820.6701320414431,763.0065052788705],[1821.8993983063847,761.1097934441641],[1823.3254495205474,759.5088980421424],[1826.0465790657327,757.1266371523961],[1828.968684905325,755.2761406078935],[1832.0394695041468,753.990526993759],[1835.203974263044,753.2928051128983],[1838.405563171429,753.195462198928],[1894.424685525766,753.2616528691724],[1950.4434029491385,752.743133617565],[1978.2951060146443,753.1098973937333],[2006.1377694671974,754.1270070811734],[2011.1757833377924,754.410901770927],[2016.1888100567157,755.1627651844174],[2021.1549210221274,756.3793085049838]]}},{"type":"Feature","properties":{"highway":"secondary","name":"Saint Croix Trail South","source":"washington-county"},"geometry":{"type":"LineString","coordinates":[[1704.0582075008424,504.87187463697046],[1703.162840447505,387.42491690348834]]}},{"type":"Feature","properties":{"highway":"secondary","name":"Saint Croix Trail South","source":"washington-county"},"geometry":{"type":"LineString","coordinates":[[1703.162840447505,387.42491690348834],[1702.8429809938534,338.20158837363124],[1702.0383457429707,288.99049221444875],[1701.752956674376,276.33182705007493]]}},{"type":"Feature","properties":{"highway":"secondary","name":"Saint Croix Trail South","source":"washington-county"},"geometry":{"type":"LineString","coordinates":[[1703.057289591292,1083.710376985371],[1703.1044085097383,1076.539664757438],[1703.4507220465457,1069.384438375011],[1704.2041898437892,1019.5772628597915],[1704.7750706393854,969.765763187781]]}},{"type":"Feature","properties":{"highway":"secondary","name":"Saint Croix Trail South","source":"washington-county"},"geometry":{"type":"LineString","coordinates":[[1704.3185413805186,624.6490171905607],[1704.0582075008424,504.87187463697046]]}},{"type":"Feature","properties":{"highway":"secondary","name":"Saint Croix Trail South","source":"washington-county"},"geometry":{"type":"LineString","coordinates":[[1704.3311408878653,734.7728195656091],[1704.3185413805186,624.6490171905607]]}},{"type":"Feature","properties":{"highway":"secondary","name":"Saint Croix Trail South","source":"washington-county"},"geometry":{"type":"LineString","coordinates":[[1696.1891373473918,180.49338303878903],[1695.3224143494735,177.52264295239002],[1693.0405201631365,170.61223477497697],[1690.4678228044068,163.90761753264815],[1687.6135876149638,157.4329392919317],[1683.8837640465354,150.01433492917567],[1679.8359809205285,142.93365255836397],[1675.4855900424882,136.21774788293988],[1670.8490911336849,129.89209310896695],[1638.016162638669,89.60660270601511],[1632.0005175064434,81.57543111313134],[1626.3834467809065,72.99190194997936],[1621.190421721607,63.89493682142347],[1616.4449911314878,54.325785571709275],[1612.1686745548504,44.32783924601972],[1593.2785840329018,0.0]]}},{"type":"Feature","properties":{"highway":"service","name":"Marina Access","source":"washington-county","service":"driveway"},"geometry":{"type":"LineString","coordinates":[[1826.0423113550642,844.8608399890363],[2032.041480984888,844.7288896776736]]}},{"type":"Feature","properties":{"highway":"secondary","name":"Saint Croix Trail South","source":"washington-county"},"geometry":{"type":"LineString","coordinates":[[1701.752956674376,276.33182705007493],[1701.019189135288,221.59705194830894],[1700.8777061138535,213.22398598492146],[1700.3202195771155,204.88644397258759],[1699.3494592723437,196.62527493573725],[1697.9701797999442,188.48095379024744],[1696.1891373473918,180.49338303878903]]}},{"type":"Feature","properties":{"highway":"service","name":"Private Road","source":"washington-county","service":"driveway"},"geometry":{"type":"LineString","coordinates":[[1603.111923417775,1202.1250544888899],[1600.377429105749,1204.4787320252508],[1597.4556150916032,1206.332570382394],[1594.3924857679522,1207.6573804691434],[1591.236270447087,1208.4323028698564],[1588.0366640162538,1208.6451362641528],[1584.2171987392358,1208.677767074667],[1572.0528533950564,1208.7815063493326],[1567.3311363408575,1208.8017455609515],[1562.6137415336561,1209.0983088994399],[1557.5067536562565,1209.7342808423564],[1552.4253715507803,1210.6983992382884],[1536.0060966970632,1213.8941559121013],[1519.648528675083,1217.671014224179],[1506.1746863701264,1221.234978441149],[1501.2891582839657,1222.9839669782668],[1496.5688773587462,1225.477629834786],[1492.0710492107319,1228.6857463316992],[1487.8501832908369,1232.5694373641163]]}},{"type":"Feature","properties":{"highway":"secondary","name":"Saint Croix Trail South","source":"washington-county"},"geometry":{"type":"LineString","coordinates":[[1704.3431819944526,852.9076230656356],[1704.3311408878653,734.7728195656091]]}},{"type":"Feature","properties":{"highway":"secondary","name":"Saint Croix Trail South","source":"washington-county"},"geometry":{"type":"LineString","coordinates":[[1704.7750706393854,969.765763187781],[1704.3431819944526,852.9076230656356]]}},{"type":"Feature","properties":{"highway":"service","name":"Marina Access","source":"washington-county","service":"driveway"},"geometry":{"type":"LineString","coordinates":[[1846.508699540631,936.1203104071319],[1844.301868642564,933.1088870586827],[1842.2885393745382,929.8399924421683],[1840.4837653925642,926.338067769073],[1838.7656428032788,921.9375993451104],[1837.3290406095912,917.3411445701495],[1836.1850559579325,912.5842073550448],[1832.795348488493,893.8056339463219],[1829.8860222006333,874.8670359319076],[1827.4608141164645,855.7927128374577],[1826.0423113550642,844.8608399890363]]}},{"type":"Feature","properties":{"highway":"residential","name":"34th Street South","source":"washington-county"},"geometry":{"type":"LineString","coordinates":[[1588.8010540106916,733.6732295369729],[1704.3311408878653,734.7728195656091]]}},{"type":"Feature","properties":{"highway":"residential","name":"31st Street South","source":"washington-county"},"geometry":{"type":"LineString","coordinates":[[1705.5130473825266,1201.6089619072154],[1770.3472814857378,1200.6727091697976],[1779.3370053224498,1200.7557699754834],[1788.3177406816394,1201.3076325887814],[1797.2771438018535,1202.327538555488],[1806.2029002567288,1203.81408615876],[1812.4426091163186,1205.3793281530961],[1817.8550595873385,1206.6194820264354]]}},{"type":"Feature","properties":{"highway":"residential","name":"31st Street South","source":"washington-county"},"geometry":{"type":"LineString","coordinates":[[1817.8550595873385,1206.6194820264354],[1819.2972369298805,1206.8475589668378],[1825.0843695545918,1207.5019840793684],[1830.8879441056051,1207.7534147510305],[1836.693798899767,1207.6012374246493],[1852.6764602754847,1206.1065457314253],[1860.2769547541393,1205.3266821000725],[1867.894859754946,1205.0769494762644],[1875.5115061332472,1205.3579598488286],[1883.1082278348622,1206.1690245829523],[1887.000680172583,1207.4233419066295],[1890.8147343359306,1209.085204613395],[1894.5288922672044,1211.1452456815168]]}},{"type":"Feature","properties":{"highway":"residential","name":"30th Street South","source":"washington-county"},"geometry":{"type":"LineString","coordinates":[[1707.6868786406703,1314.9108963999897],[1806.1874243805069,1312.988964532502],[1808.0987157271593,1312.7547759525478],[1809.9612402602215,1312.1041961200535],[1811.7294411921175,1311.0531380735338],[1813.3600688099978,1309.627310470678],[1814.8132383248303,1307.8615887584165],[1816.0534054460004,1305.7991621438414],[1817.05023577268,1303.4904771940783]]}},{"type":"Feature","properties":{"highway":"secondary","name":"Afton Boulevard South","source":"washington-county"},"geometry":{"type":"LineString","coordinates":[[1587.576485740312,1092.0167480027303],[1601.431139991735,1089.1369540262967],[1615.3387259314768,1086.8252360606566],[1629.287472908618,1085.0835503274575],[1643.2655754006119,1083.9133706754074],[1657.2612030144082,1083.3156873350963],[1671.2625105067855,1083.2910060836002],[1703.057289591292,1083.710376985371]]}},{"type":"Feature","properties":{"highway":"residential","name":"Pike Avenue South","source":"washington-county"},"geometry":{"type":"LineString","coordinates":[[1817.05023577268,1303.4904771940783],[1818.0476775323623,1298.2746698865667],[1818.6426846013637,1292.9396141553298],[1818.8284145793295,1287.5466525433585],[1818.5429623976233,1222.373079907149],[1818.3776108105667,1214.4803714603186],[1817.8550595873385,1206.6194820264354]]}},{"type":"Feature","properties":{"highway":"secondary","name":"Afton Boulevard South","source":"washington-county"},"geometry":{"type":"LineString","coordinates":[[1486.2951761340373,1115.7455845894292],[1495.3625529514393,1114.5305078141391],[1504.3935878218035,1112.857222254388],[1513.3765855111415,1110.727894993499],[1587.576485740312,1092.0167480027303]]}},{"type":"Feature","properties":{"highway":"residential","name":"34th Street South","source":"washington-county"},"geometry":{"type":"LineString","coordinates":[[1417.6796883587376,718.6150680528954],[1418.3860186814563,720.5963169289753],[1419.2994285559398,722.4018858587369],[1420.3984636970563,723.989365639165],[1421.657309912669,725.3214695658535],[1423.0463994392194,726.3669092040509],[1424.5331054199487,727.1011292953044],[1426.082508234249,727.5068845013157],[1427.6582156761433,727.5746444538236],[1443.7279128035298,729.0069509474561],[1459.8124271907145,730.0738368611783],[1467.4333063253434,730.4354792451486],[1475.0588612236897,730.3505042139441]]}},{"type":"Feature","properties":{"highway":"residential","name":"32nd Street South","source":"washington-county"},"geometry":{"type":"LineString","coordinates":[[1704.7750706393854,969.765763187781],[1716.8338856149348,969.4345273831859],[1737.856989619846,968.4635280212387],[1758.8874710019445,967.9340668255463],[1787.2155707009952,967.337712614797],[1815.5318948198692,966.0008506579325],[1831.1715538881836,965.2892396515235],[1846.8026462920825,964.2581020398065]]}},{"type":"Feature","properties":{"highway":"residential","name":"32nd Street South","source":"washington-county"},"geometry":{"type":"LineString","coordinates":[[1846.8026462920825,964.2581020398065],[1917.9279832861503,959.799693852663],[1989.037085429707,954.833471882157]]}},{"type":"Feature","properties":{"highway":"residential","name":"Perrot Avenue South","source":"washington-county"},"geometry":{"type":"LineString","coordinates":[[1569.0000541571644,1258.8534599486738],[1572.409110602457,1259.0028230482712],[1575.8004593942314,1258.4807374076918],[1579.1076245704317,1257.297436834313],[1582.265780232905,1255.4761161291972],[1585.2130211748881,1253.052476436831],[1587.8915762896067,1250.0740254633129],[1590.248940957419,1246.5991462441161],[1594.2122749843402,1239.5535506764427],[1597.7460600816994,1232.069643217139],[1600.8258105317946,1224.1992775397375],[1603.430186201993,1215.9969850564376],[1604.062580885482,1213.7587528219447],[1604.4263589523034,1211.4057614756748],[1604.5117139391368,1209.001439332962],[1604.316344666935,1206.6105984505266],[1603.8455172984395,1204.2976875016466],[1603.111923417775,1202.1250544888899]]}},{"type":"Feature","properties":{"highway":"service","name":"Private Drive","source":"washington-county","service":"driveway"},"geometry":{"type":"LineString","coordinates":[[1894.5288922672044,1211.1452456815168],[1898.0075635890244,1213.2836272548884],[1901.2805385727552,1215.9882186558098],[1904.301565387228,1219.2208002479747],[1907.0279527911916,1222.9356911815703],[1909.4211734335404,1227.0803949544206],[1911.4474082970992,1231.5963412709534],[1913.078024595161,1236.4197137420997],[1914.2899803527398,1241.4823517017066],[1929.3187217229279,1346.2533472869545],[1933.104742629861,1369.997207177803],[1935.1057843384915,1376.7313654515892],[1937.5924553339137,1383.1361084468663],[1940.5379702426726,1389.1424500243738],[1943.9106017402955,1394.6856953622773],[1947.6740223175148,1399.7061377633363],[1951.7876955836546,1404.149701747112],[1956.2073128850316,1407.9685254730284],[1960.8852705427562,1411.1214762525633],[1965.7711825624574,1413.5745935598388],[1970.8124233036651,1415.3014548122883],[1975.9546942590387,1416.2834599595517],[1981.1426088400767,1416.510031809099],[1987.74454836722,1417.0415941718966],[1994.3572669316782,1416.8843429964036],[2000.944522196427,1416.039140152745],[2007.4702113518724,1414.510618080385],[2013.8985689489637,1412.3071544012055],[2020.1943628976587,1409.440826009959],[2026.3230875166482,1405.9273428814486],[2032.251152638928,1401.7859619781375],[2037.9460676745512,1397.0393817117438],[2043.37661967054,1391.7136175530031],[2048.513044367719,1385.8378594396636],[2093.72829339467,1325.7640210250393],[2101.80788873689,1317.4853887381032],[2110.142561998102,1309.7242959961295],[2118.715537570475,1302.496363823302],[2127.5095599974156,1295.8161401608959]]}},{"type":"Feature","properties":{"highway":"service","name":"Private Drive","source":"washington-county","service":"driveway"},"geometry":{"type":"LineString","coordinates":[[1894.5288922672044,1211.1452456815168],[1897.6006016040337,1212.9984119357541],[1900.8440890251077,1214.1372642787173],[1904.1761614119168,1214.5325917918235],[1907.5113535993733,1214.1742545515299],[1910.7641203990788,1213.071443698369],[1913.8510306839016,1211.2524457043037],[1916.6929072593339,1208.7639168435708],[1919.2168576394906,1205.6696865186095],[1921.3581436642562,1202.0491200909019],[1923.0618419836392,1197.9950832352042],[1924.2842528522597,1193.6115600122139],[1924.99402105849,1189.0109857609496],[1917.5995621793554,1129.8393221376464],[1909.8913718119147,1070.7477621939033],[1901.869870512979,1011.7395950583741],[1902.2098191179102,1008.3081289334223],[1902.9322702522622,1004.9949823124334],[1904.0189250709955,1001.8840758586302],[1905.4422594730277,999.0542076313868],[1907.1662212413503,996.5770571492612],[1909.1471432033577,994.5153697589412],[1911.3348493012018,992.9213673034683],[1913.6739255455905,991.8354253368452],[1916.1051236659987,991.2850504238158],[1918.566861891013,991.2841833848506],[1927.0371607727138,990.4582093777135],[1935.5265646994812,990.3708046013489],[1944.0025691108312,991.0223037023097],[1952.4327207601164,992.410212315619],[1960.784742010408,994.5292166071013],[1969.026654445217,997.3712036302313],[1977.126901349926,1000.925292388536]]}},{"type":"Feature","properties":{"highway":"residential","name":"Pennington Avenue South","source":"washington-county"},"geometry":{"type":"LineString","coordinates":[[1475.0588612236897,730.3505042139441],[1477.1246941615827,663.6243438431993],[1477.2541910230648,645.9457492325455],[1477.5438987141242,628.2705021724105]]}},{"type":"Feature","properties":{"highway":"service","name":"Coulee Ridge Road South","source":"washington-county","service":"driveway"},"geometry":{"type":"LineString","coordinates":[[1477.5438987141242,628.2705021724105],[1469.5685472488985,627.7640804816037],[1461.6381824022974,626.4829222541302],[1433.090686143958,619.1248703766614],[1428.6144190033665,617.5527351656929],[1424.2702404950978,615.3697669040412],[1420.782042981009,613.0657359231263],[1417.4818685898208,610.2676969654858],[1414.404870503582,607.0054546035826],[1408.363111538405,598.7522629275918],[1402.6444320537266,590.0552894128487],[1399.4149671007763,584.9865857772529],[1395.8660644380725,580.3599875606596],[1392.0280530196615,576.2150340490043],[1382.396606058348,565.616471757181],[1378.1649286270258,561.5886725485325],[1373.691144562792,558.1160774938762],[1369.0118680938613,555.2271067230031],[1364.1653954205685,552.945403936319],[1359.191391258617,551.2896428797394],[1350.437036652118,549.3738824017346],[1341.6236401166534,548.0912763364613],[1332.774310672481,547.4451875286177],[1323.9122515801573,547.4373099384829],[1315.060699490772,548.0676642255858],[1290.878249647969,551.6783935111016],[1281.5092099963804,553.3233899949118],[1272.1022648153594,554.4514794265851],[1262.6718196593574,555.0609341468662],[1253.232316050562,555.1508207786828],[1243.7982093721512,554.7210016669706],[1219.3557085223147,552.0833657765761],[1207.427622930205,550.9841824490577],[1195.4777469441178,550.5186737719923],[1183.5230803010636,550.6875018924475],[1149.8665951367002,552.0729489121586],[1146.4426616124692,552.0448237732053],[1143.0315056008403,551.6360420556739],[1139.4793387386017,550.7918595531955],[1135.9986099839443,549.4882513042539],[1132.6192461826722,547.7364256782457],[1129.3703027162119,545.5514448070899],[1126.743081075023,543.3892721673474],[1124.377869660384,540.6946871299297],[1122.3285811412497,537.5291100302711],[1120.6419272888452,533.9646970350295],[1119.356354202726,530.0826954385266],[1118.5011659477605,525.971591733396],[1118.3266073242994,507.9873488517478],[1117.5753969816142,503.7303928239271],[1116.3980455428245,499.66998706478626],[1114.818867971131,495.88999056164175],[1112.8704782731947,492.46847112011164],[1110.5931159691536,489.4760930193588],[1108.03381504328,486.9746575728059],[1105.2454325612052,485.01582673657686],[1102.2855569907697,483.64005611184984],[1098.2059508590028,482.0664097517729],[1076.4144198046415,477.611117082648],[1054.5638146630372,473.7622664310038],[1032.662660559523,470.5213589053601]]}},{"type":"Feature","properties":{"highway":"residential","name":"Upper 34th Street South","source":"washington-county"},"geometry":{"type":"LineString","coordinates":[[1599.4453377454774,620.0690735690296],[1609.154334795603,621.6959097590297],[1618.8995699873194,622.8254464464262],[1628.66818620509,623.4561932701617],[1638.4472955033998,623.5873179938644],[1692.8514916712884,624.1686942027882],[1704.3185413805186,624.6490171905607]]}},{"type":"Feature","properties":{"highway":"residential","name":"Upper 34th Street South","source":"washington-county"},"geometry":{"type":"LineString","coordinates":[[1704.3185413805186,624.6490171905607],[1712.1673643163522,624.5450068833306],[1721.5826254606945,624.136431992054]]}},{"type":"Feature","properties":{"highway":"residential","name":"35th Street South","source":"washington-county"},"geometry":{"type":"LineString","coordinates":[[1602.1116224955185,495.5955979609862],[1605.395190364914,498.2873791689053],[1608.911743861332,500.3167688380927],[1612.5943006095476,501.6451114732772],[1616.37271641579,502.2471050210297],[1620.1750212875195,502.11128280870616],[1633.9308530458948,501.54738299921155],[1647.6917442961712,501.45368201099336],[1662.2466303806868,501.5343134077266],[1676.7944299012306,502.1461636489257],[1691.3253479794948,503.2888208646327],[1697.7030961649725,503.903836841695],[1704.0582075008424,504.87187463697046]]}},{"type":"Feature","properties":{"highway":"residential","name":"Perrot Avenue South","source":"washington-county"},"geometry":{"type":"LineString","coordinates":[[1602.1116224955185,495.5955979609862],[1600.3872075618128,493.7239116160199],[1598.8976593759144,491.48854368180037],[1597.6811447213404,488.9467709157616],[1596.7688345867791,486.1637211088091],[1596.184105452383,483.2107043294236],[1595.941940276185,480.1633857646957],[1595.7549532101839,462.98325664922595]]}},{"type":"Feature","properties":{"highway":"residential","name":"35th Street South","source":"washington-county"},"geometry":{"type":"LineString","coordinates":[[1704.0582075008424,504.87187463697046],[1704.3116511491244,504.917579931207],[1709.6097656834754,505.69658915326],[1714.9377194904955,505.7143467916176],[1728.2469128691591,505.58233414404094],[1741.5439609176829,504.74179843161255],[1754.80981644243,503.1939438050613],[1765.1476368234726,502.0323691861704],[1775.5062890024856,501.34667674731463],[1785.8747049248195,501.1375990640372],[1796.24180609436,501.40535951405764]]}},{"type":"Feature","properties":{"highway":"residential","name":"36th Street South","source":"washington-county"},"geometry":{"type":"LineString","coordinates":[[1703.162840447505,387.42491690348834],[1735.722089367162,387.6765705971047]]}},{"type":"Feature","properties":{"highway":"residential","name":"36th Street South","source":"washington-county"},"geometry":{"type":"LineString","coordinates":[[1275.326464799582,237.8064632480964],[1279.192973276542,240.63066616933793],[1282.8772172489553,243.9008778622374],[1286.3533180073136,247.59412792138755],[1289.596859007026,251.68447448406368],[1292.5850573841599,256.14318645652384],[1295.154012155661,260.0018523046747],[1297.345576651569,264.29694038722664],[1299.122848630126,268.9561275560409],[1300.4559021903551,273.9009598288685],[1301.3222916267696,279.04817346856],[1301.707429324044,284.31109703239053],[1301.604831321456,289.60111079830676],[1301.0162264133105,294.8291389979422],[1299.9515269540134,299.9071497088298],[1298.4286618781625,304.7496371716261],[1296.4732747335802,309.2750615691766],[1293.290841598704,317.60274897236377],[1290.5105000037001,326.2098850607872],[1289.1973095517023,332.5962268654257],[1288.3752233536798,339.14188503473997],[1288.0536077003344,345.7722709113732],[1288.2361258890014,352.4118304681033],[1288.9206965499325,358.98490526527166],[1290.0995174393756,365.41659457143396],[1291.8584199604811,372.37160366401076],[1294.076180490898,379.06092728395015],[1296.7330125947483,385.42488828860223],[1299.8052130054566,391.40671227127314],[1303.2653731137398,396.95303402934223],[1307.082623519178,402.0143736489117],[1312.0493358529638,406.4720848808065],[1317.2543027868378,410.3558956068009],[1322.6641654675477,413.64091407414526],[1328.244252047094,416.30608627106994],[1333.9587998643983,418.33433084748685],[1339.7491275772918,419.579288427718],[1345.5927408997668,420.16428804397583],[1351.4517178446404,420.0855332594365],[1357.2880367375328,419.34353516437113],[1363.0638229192118,417.9431090457365],[1368.7415944988606,415.893343154341],[1375.5664728948032,412.4602966224775],[1382.2748772914638,408.5978162679821],[1388.8531462051906,404.3137681791559],[1395.287883091427,399.6168769914657],[1401.9239780134521,394.8217441132292],[1408.7283957512118,390.52030966617167],[1414.3485391286667,387.8214078564197],[1420.0944064112846,385.71429630648345],[1425.9345272966893,384.21051548141986],[1431.8369151655934,383.31830146629363],[1437.7692423051922,383.04254083894193],[1459.7957446282962,383.58484430238605],[1473.30397911591,383.99308937974274],[1474.4599698956008,384.0225018346682]]}},{"type":"Feature","properties":{"highway":"residential","name":"37th Street South","source":"washington-county"},"geometry":{"type":"LineString","coordinates":[[1380.2344375570538,93.06836245208979],[1371.358492679312,93.7557196971029],[1362.469989889767,93.79046674631536],[1353.5931573885027,93.17250888049603],[1344.7521915770485,91.90353062283248],[1336.0763662698446,89.83267127443105],[1327.4718965632492,87.24289168324322],[1318.9544448581873,84.13890622276813],[1310.5395152215497,80.52636531554163],[1302.8187334602117,77.0864395648241],[1295.0087006393005,74.06897018942982],[1287.1210796849919,71.4784629913047],[1280.882553005009,69.25793728418648],[1274.763637948432,66.45802556723356],[1268.7914599494543,63.091140285134315],[1265.0312811429612,60.86252875253558],[1261.169422346924,59.00805626064539],[1257.22464119317,57.53673013020307],[1255.7702447950724,57.000392995774746],[1254.271770994179,56.819691945798695],[1252.7728019674541,56.99988254159689],[1251.3169342864421,57.53572406619787],[1249.946510931186,58.4116319520399],[1248.7013897451689,59.6021310435608],[1247.6177841844037,61.072596532292664],[1246.7272100655246,62.780261009931564],[1246.7075099833892,64.84701137337834],[1246.9276698395843,66.88999883830547],[1247.3817936143023,68.85451295319945],[1248.0577198508545,70.68794477917254],[1248.9373473547748,72.34119573421776],[1249.9971199531574,73.76999242696911],[1251.208657325944,74.93607227131724],[1252.5395150211407,75.80820813868195],[1265.017973942391,84.10863156523556],[1277.656083134818,91.91788668558002],[1284.6337712966488,96.68976034130901],[1291.4324018686311,101.9471613029018],[1298.0349501136807,107.67692453972995],[1304.4248824545066,113.86470220331103],[1310.5861978846951,120.49499955121428],[1316.318085890147,126.4748081387952],[1322.3407535047154,131.86019796412438],[1328.6231923966552,136.6234416225925],[1335.1330570362625,140.74001493584365],[1343.4157422311255,145.55381993204355],[1351.884328973014,149.6810632739216],[1356.6378042225842,151.99068228062242],[1361.245857827831,154.82231516949832],[1365.679618855298,158.15822107437998],[1369.9113085002755,161.97749974858016],[1373.9144141422585,166.25622251443565],[1375.5043975362787,168.42866181395948],[1376.8195371797192,170.9387623667717],[1377.8243182872538,173.7187395170331],[1378.4916073665954,176.69352070149034],[1378.8033849141211,179.78277277760208],[1378.7512319748057,182.90307140909135],[1378.5929741343134,188.53998098615557],[1378.710422047705,194.17796124424785],[1379.2161477723857,200.30593476817012],[1380.2534213156323,206.29865723662078],[1381.8065176501404,212.0652873562649],[1383.851892789069,217.5184111976996],[1386.3585407604696,222.5753672486171],[1389.2884636542876,227.1594994207844],[1392.597247663769,231.20131902955472],[1399.3068180623814,238.32806420512497],[1406.2220150275389,245.05500203557312],[1413.3308420164394,251.37046252842993],[1420.6209667035146,257.26348953694105],[1426.0018804479623,260.98802520148456],[1431.5900706398534,264.0518296509981],[1437.3447030490497,266.43251459114254],[1443.2237273743376,268.11268352903426],[1449.184184479469,269.08005889877677],[1455.1825202642358,269.32757175620645],[1461.1749038747512,268.8534134346992],[1467.1175479475642,267.66104876901954],[1472.6586415616912,266.8124337568879],[1482.3539638339425,265.677125508897],[1492.0695658077602,264.9784975806251],[1501.795509339834,264.71726453397423],[1527.9082357654697,265.27341939043254],[1547.7400429581758,265.30843143351376],[1567.56786430371,264.6909470790997],[1578.8162388472701,264.7664814889431],[1590.0615744455135,265.1197161860764],[1610.3835409688763,266.16914210096],[1630.6825328939594,267.86612343229353],[1650.9481243676273,270.2097888533026],[1668.5188232276123,272.31669960636646],[1686.072535676707,274.68225999269634],[1693.8929151715129,275.8711800612509],[1701.752956674376,276.33182705007493]]}},{"type":"Feature","properties":{"highway":"residential","name":"Pennington Avenue South","source":"washington-county"},"geometry":{"type":"LineString","coordinates":[[1477.5438987141242,628.2705021724105],[1478.4572840183391,596.7799876406789]]}},{"type":"Feature","properties":{"highway":"residential","name":"Pennington Avenue South","source":"washington-county"},"geometry":{"type":"LineString","coordinates":[[1458.0532209351077,452.01765383407474],[1460.9312398750917,450.341999377124],[1463.5876513525145,448.0524538718164],[1465.956694475317,445.20569631736726],[1467.9797220590408,441.87219986412674],[1469.6066524709458,438.1344872219488],[1469.7869457160705,437.54435439035296],[1470.1019600433647,436.3509617578238],[1471.255473067402,430.5955631285906],[1471.9372581159696,424.69430801458657],[1472.1384948069463,418.72353084385395],[1472.2543857604614,410.4465428618714],[1472.6419253548956,402.18522307276726],[1473.3002871260396,393.95721183903515],[1474.4599698956008,384.0225018346682]]}},{"type":"Feature","properties":{"highway":"residential","name":"36th Street South","source":"washington-county"},"geometry":{"type":"LineString","coordinates":[[1474.4599698956008,384.0225018346682],[1496.2147357109352,384.3976285988465],[1517.9715353588108,384.44548183493316],[1536.6461083649192,384.21292786486447],[1555.3170532601653,384.7142176460475],[1573.969799978775,385.94896008912474],[1596.5087592477794,386.9524581069127],[1619.0590764674125,387.2315871696919],[1638.6951233329019,386.7082924824208],[1658.3335633113165,386.8494289070368],[1703.162840447505,387.42491690348834]]}},{"type":"Feature","properties":{"highway":"residential","name":"River Road South","source":"washington-county"},"geometry":{"type":"LineString","coordinates":[[1696.1891373473918,180.49338303878903],[1700.2426325302804,179.20586596801877],[1704.1822397088981,177.34292471129447],[1707.966761728283,174.9240405568853],[1711.556623055134,171.97450845967978],[1714.914283609076,168.52517252229154],[1733.1399362769444,147.40510762203485],[1740.8141045383527,138.62417498230934],[1748.1657284486573,129.31272564455867],[1755.1762389368378,119.49427817389369],[1761.8279282271396,109.19363174494356],[1768.1039945628145,98.43680352531374],[1773.9885846451507,87.2509629605338],[1779.4668336886098,75.66436315700412],[1785.3610759004368,62.59707996156067],[1791.5475811506622,49.79951589833945],[1798.0200842620106,37.284634064882994],[1804.7720302224043,25.065111249685287],[1812.6717216675752,9.687990640290082],[1817.343457531167,0.0]]}},{"type":"Feature","properties":{"highway":"residential","name":"Pennington Avenue South","source":"washington-county"},"geometry":{"type":"LineString","coordinates":[[1486.2951761340373,1115.7455845894292],[1485.4371495684609,1109.8004046864808],[1484.8854720816016,1103.7829815512523],[1484.64300427516,1097.724507865496],[1484.5842896911781,1091.8919287351891],[1484.1057343636057,1086.098842942156],[1483.212265788985,1080.4049131441861],[1481.9130846993648,1074.8687808727846],[1475.1613068603328,1046.5329688452184],[1473.7584929791046,1039.2431974401698],[1472.813346212206,1031.8078270908445],[1472.3330787482555,1024.2835829639807],[1472.32135623059,1016.7278683455661],[1472.7782697453513,1009.1983267208561],[1473.9440337650594,998.6384718036279],[1474.7844986567507,988.0184386372566],[1475.2980927220196,977.3580666817725],[1475.4838548723492,966.6772707989439],[1476.0248724160483,947.1002319455147],[1476.0011565943132,927.5098849888891],[1475.4127412604284,907.9384699761868],[1474.178700825607,889.864017453976],[1473.4761272874312,871.731924334541],[1473.306223068328,853.5731066185981],[1475.0588612236897,730.3505042139441]]}},{"type":"Feature","properties":{"highway":"residential","name":"32nd Street South","source":"washington-county"},"geometry":{"type":"LineString","coordinates":[[1598.4058595629758,978.2056494029239],[1598.6534562419984,977.9624494668096],[1601.2453955199453,975.695018527098],[1603.9659861942055,973.7494757510722],[1606.795043516031,972.1402555434033],[1611.4456551048206,970.7150460230187],[1616.161623244232,969.8167889295146],[1620.9128177053644,969.4512231014669],[1690.5204277358716,969.7528005326167],[1704.7750706393854,969.765763187781]]}},{"type":"Feature","properties":{"highway":"residential","name":"Pike Avenue South","source":"washington-county"},"geometry":{"type":"LineString","coordinates":[[1817.8550595873385,1206.6194820264354],[1817.3296548326034,1199.6836672155187],[1817.1446002136217,1192.712535660714],[1817.2336023314274,1183.9090624637902],[1816.78982976533,1175.1282732402906],[1815.9033638033434,1155.9190290533006],[1815.3380904060905,1136.684927499853],[1815.094324858277,1117.4365981277078],[1814.7202913907822,1106.4073982853442],[1812.5302620826405,1084.6622875668108]]}},{"type":"Feature","properties":{"highway":"residential","name":"Afton Boulevard South","source":"washington-county"},"geometry":{"type":"LineString","coordinates":[[1703.057289591292,1083.710376985371],[1767.9935629315441,1084.3889369945973],[1812.5302620826405,1084.6622875668108]]}},{"type":"Feature","properties":{"highway":"residential","name":"Upper 34th Street South","source":"washington-county"},"geometry":{"type":"LineString","coordinates":[[1179.9154671561555,761.5176087534055],[1171.3958155139699,757.6715404493734],[1166.6460850316216,757.4641676060855],[1161.9118789903005,756.8934032814577],[1157.20722778223,755.9609390571713],[1149.4332865302567,753.6681625610217],[1145.9955239571282,752.3466242915019],[1142.7382766773808,750.314770532772],[1139.7351168036112,747.6184953870252],[1137.053877568047,744.3187004793435],[1134.7551211931277,740.4899193765596],[1128.759156467684,729.2147531434894],[1126.8936811315361,725.3559580398723],[1125.3665910550044,721.2126178424805],[1124.199387422821,716.8430685456842],[1123.4085045412648,712.3088311133906],[1123.0867227660492,708.3650444298983],[1123.089153248642,704.3945436133072],[1123.4157644034713,700.4499041261151],[1124.3469040889177,689.5738568119705],[1124.907753139094,678.6485724411905],[1125.2115966950078,663.552685960196],[1125.8402358000749,648.4758505634964],[1126.7930959971272,633.4318984663114],[1127.428146942926,629.1810707841069],[1128.5453550838865,625.1305970819667],[1130.1150450747227,621.3880692226812],[1132.095522162621,618.0528992665932],[1134.434179660282,615.2136787725613],[1137.0688963009743,612.9458255311474],[1139.9296863704221,611.3095802273601],[1161.6759442301118,598.2299577854574],[1166.6723124692799,595.8766061263159],[1171.7844441809575,594.0853140745312],[1176.980417821731,592.867266735062],[1207.0279805177706,587.5063417684287],[1214.5638555132318,586.6806440697983],[1222.1186512598651,586.369289662689],[1229.6746391861234,586.573009156622],[1237.2140879253275,587.2913245176896],[1244.7193049305351,588.5225501889363],[1280.5119788379525,596.405346580781],[1280.5166570043657,596.4064897615463],[1284.6140988430125,597.3808855274692],[1288.6511644484126,598.7641794709489],[1345.2451265653362,618.0187212433666],[1350.020371973107,620.5469085592777],[1354.5800335882232,623.7659181170166],[1358.873870298732,627.6402811836451],[1362.8545702731353,632.1273080334067],[1366.4782722867676,637.1775583438575],[1369.705049027456,642.7353859711438],[1372.4993470240734,648.7395521122962],[1375.8014853302157,655.18453736417],[1379.4679884725483,661.2266385313123],[1383.4742485450697,666.825304784812],[1387.793377656606,671.9429614180699],[1392.3963883825345,676.545261987485],[1397.2523883046815,680.6013188315555],[1405.3133737203898,687.5411101710051],[1408.1128893031273,689.8544069360942],[1410.6104366419022,692.7722064284608],[1412.7408866057522,696.2184203686193],[1414.448683274968,700.103180934675],[1415.6892926659784,704.3251842884347],[1416.4303639991558,708.7743323398754],[1417.6796883587376,718.6150680528954]]}},{"type":"Feature","properties":{"highway":"residential","name":"31st Street South","source":"washington-county"},"geometry":{"type":"LineString","coordinates":[[1603.111923417775,1202.1250544888899],[1621.4664715896943,1201.3962550219148],[1705.5130473825266,1201.6089619072154]]}},{"type":"Feature","properties":{"highway":"residential","name":"Perrot Avenue South","source":"washington-county"},"geometry":{"type":"LineString","coordinates":[[1603.111923417775,1202.1250544888899],[1601.425314099528,1201.846417363733],[1599.7931388385477,1201.189015230164],[1598.258035806648,1200.170021793805],[1596.8601073526079,1198.8160568373278],[1595.635872407176,1197.1624908149242],[1594.6173124796478,1195.252520851791],[1593.8310361864278,1193.1360422931612],[1592.9563976952923,1111.9862778438255],[1592.3995389502961,1106.6319923568517],[1591.300173137046,1101.447848437354],[1589.6812319523888,1096.5419879863039],[1587.576485740312,1092.0167480027303]]}},{"type":"Feature","properties":{"highway":"residential","name":"33rd Street South","source":"washington-county"},"geometry":{"type":"LineString","coordinates":[[1704.3431819944526,852.9076230656356],[1711.632909570646,852.3290328616276],[1714.794949750125,852.0418134387583],[1717.963197963778,852.0369865465909],[1786.9113916577771,851.7199189178646]]}},{"type":"Feature","properties":{"highway":"residential","name":"33rd Street South","source":"washington-county"},"geometry":{"type":"LineString","coordinates":[[1631.5954523321125,857.7205545920879],[1643.790993380302,855.7391553902999],[1656.0227554453886,854.2756111435592],[1668.2796273594722,853.3312511444092],[1680.5504751264816,852.9069331241772],[1692.8241520434967,853.0030424846336],[1704.3431819944526,852.9076230656356]]}},{"type":"Feature","properties":{"highway":"residential","name":"Perrot Avenue South","source":"washington-county"},"geometry":{"type":"LineString","coordinates":[[1587.576485740312,1092.0167480027303],[1587.4487190936925,1091.683496995829],[1585.8687995924265,1086.7587729385123],[1584.7877001190209,1081.5730082029477],[1584.278387354978,1073.5480461400002],[1584.052282375109,1065.4967020628974],[1584.1099414590863,1057.4387465277687],[1584.690236292954,1041.1537639405578],[1585.455848171725,1024.8834695406258],[1585.9285953154904,1017.2233467781916],[1586.7561850458733,1009.6221717428416],[1587.9350778029184,1002.112465698272],[1589.4602309400216,994.7263586213812],[1590.3184161715908,991.1867779782042],[1591.8788302977919,987.4201128175482],[1593.7683719614288,983.9642173619941],[1595.9560201567947,980.8758284365758],[1598.4058595629758,978.2056494029239]]}},{"type":"Feature","properties":{"highway":"secondary","name":"Afton Boulevard South","source":"washington-county"},"geometry":{"type":"LineString","coordinates":[[145.958379344258,457.10765035264194],[146.59133173833834,457.63687856215984],[188.98110569629353,493.32660374511033],[208.38810528616887,509.90118427108973],[227.6657617261517,526.7712286468595],[240.01231816085055,537.6432764716446],[252.07335310446797,549.1312673101202],[263.8333839373081,561.2204543333501],[275.277314718056,573.8953190110624],[286.3904555780464,587.1395910484716],[305.485391807626,611.2761011580005],[324.47193785442505,635.5810597361997],[351.2467837854638,670.3879610495642],[377.79639474645955,705.5343311913311],[448.0899631725042,797.2161272736266],[513.9345574270701,885.0482724569738],[520.8147153828759,893.9254263071343],[528.0597727178247,902.2082255445421],[535.5813189612236,909.8515192177147],[543.3757955144974,916.9335478208959],[551.4221181826433,923.4351541595533],[559.6985217568581,929.3387511335313],[568.1826188705745,934.6283693034202],[576.8514605519013,939.2897000862285],[585.6815982733388,943.3101344434544],[594.649147366581,946.6787969991565],[603.7298516040319,949.3865754352883],[612.899148793018,951.4261451512575],[622.1322371916613,952.7919890675694],[631.4041425652686,953.4804125465453],[699.5215545698302,954.2217767667025],[701.1676017011632,954.2182104894891],[712.5043722358532,954.5001473799348],[723.8270529254805,955.3254840783775],[735.1224907413707,956.6932619428262],[746.0242024202598,958.5402026791126],[756.8738363016164,960.9120942736045],[767.6586323443917,963.8061474738643],[778.365906804509,967.2189589897171],[788.9830671685049,971.1465154914185],[811.8520705309929,980.2282757246867],[880.6308036232949,1007.8093729354441],[949.3322812611586,1035.7648121817037],[971.3325809813687,1044.802568285726],[984.496279966319,1049.7245505871251],[997.7657670758199,1054.0519056469202],[1011.1274930392392,1057.7802143180743],[1024.5678144757403,1060.905669205822],[1039.7880251746392,1063.7200986165553],[1055.069346146367,1065.790503051132],[1218.313015758351,1086.9738420899957],[1330.8964910379145,1101.3078838316724],[1443.4941250457778,1115.4188450239599],[1454.180438678828,1116.4337485516444],[1464.8882299146499,1116.826776318252],[1475.5992328571738,1116.5972578134388],[1486.2951761340373,1115.7455845894292]]}},{"type":"Feature","properties":{"highway":"secondary","name":"Saint Croix Trail South","source":"washington-county"},"geometry":{"type":"LineString","coordinates":[[1732.5356081459904,1444.521308590658],[1727.8904157893267,1428.998605016619],[1723.6740664377576,1413.2344472873956],[1719.892825717805,1397.2522504460067],[1716.5523131322116,1381.0757534792647],[1713.6574936926481,1364.7289840737358],[1711.2126705286792,1348.2362229134887],[1709.2214784706011,1331.6219676267356],[1707.6868786406703,1314.9108963999897]]}}]}