{"type":"FeatureCollection","features":[{"type":"Feature","properties":{"OBJECTID":182,"NAME":"AFTON SQUARE PARK","SUBTYPE":3,"created_user":null,"created_date":null,"last_edited_user":"RYOLSON","last_edited_date":1744204851000,"Shape_Length":516.372727752195,"Shape_Area":16664.115038303225},"geometry":{"type":"Polygon","coordinates":[[[1600.9059903992456,630.1968964338303],[1600.97820889164,721.6020538955927],[1692.3792159630102,722.4719504388049],[1692.3070954164723,631.0667941113934],[1600.9059903992456,630.1968964338303]]]}},{"type":"Feature","properties":{"OBJECTID":256,"NAME":"STEAMBOAT PARK","SUBTYPE":3,"created_user":"NDSCHIL","created_date":1612384366000,"last_edited_user":"RYOLSON","last_edited_date":1744204851000,"Shape_Length":3570.726647571291,"Shape_Area":254910.3668697574},"geometry":{"type":"Polygon","coordinates":[[[1807.8072941794526,284.82934367470443],[1807.8819680358865,379.2812793860212],[1769.5463200981612,378.91643363330513],[1716.4808918873314,378.41135416179895],[1716.5803804028546,395.1697464706376],[1743.9144638358848,395.4299608236179],[1744.0006400542334,395.43075698427856],[1762.1946600712836,395.6038914434612],[1762.1982322970289,400.1741244569421],[1762.2391873952583,451.97039206605405],[1767.3817965559429,452.39687546435744],[1772.467934571323,453.53978099673986],[1777.4473253804026,455.3878113180399],[1782.2707482148544,457.92269910126925],[1786.8905241822358,461.1193876173347],[1791.26098760491,464.9462784193456],[1795.3389374471153,469.3655437063426],[1799.0840643787524,474.33350024838],[1802.4593492208514,479.8010412119329],[1805.4314288800815,485.7141215680167],[1807.9709261179669,492.0142923500389],[1753.1298142462038,491.49226496275514],[1743.9902432024246,491.4052369771525],[1716.5698974892148,491.1442975513637],[1716.5843846857897,509.4252923578024],[1758.034659628349,509.8198639713228],[1808.0991302317707,510.29629937931895],[1808.1853047123877,510.29716708604246],[1808.2141806128202,546.8591421265155],[1778.3377898948966,546.5752240354195],[1786.526724731666,607.5890939924866],[1716.6613805664238,606.924163389951],[1716.6807162459008,631.2987749036402],[1716.6926996783586,646.5341766150668],[1791.8496863693,647.2485101297498],[1797.9913451582543,693.0091319484636],[1802.085852615768,723.5161309633404],[1771.3065825680387,723.2231774386019],[1762.6531663562637,723.1407489255071],[1716.752843772003,722.7039310289547],[1716.7696791309863,744.0316828303039],[1762.6700613469002,744.4686421640217],[1808.3704372716602,744.903625744395],[1819.2839277090388,745.0074598072097],[1819.2839927024907,748.3864520946518],[1831.4707264168537,748.8565600821748],[1831.6122066339594,748.8620300944895],[1994.9838094681036,755.1647654473782],[2020.0625722005498,756.1322597563267],[2042.3257002303726,756.9911739062518],[2041.4548105534632,755.8991824043915],[2038.207062186615,753.5413117362186],[2033.4803054428194,750.6144955046475],[2028.2235416026087,747.4984978111461],[2025.4132401827956,744.4137570820749],[2021.9510460552992,740.0845854915679],[2018.2235533010098,734.2294306149706],[2017.2857501144754,731.6335544297472],[2014.6215019304655,724.2594152474776],[2012.6408177544363,715.2179448725656],[2010.3228957276442,708.5705363852903],[2007.258010504942,699.5122442403808],[2003.9739714674652,690.7618208955973],[2001.406844981655,684.2280841646716],[1997.846539296268,678.4265720574185],[1994.3042595005827,671.6523873144761],[1990.2431996743544,665.8005224820226],[1984.4034071192145,659.9665881060064],[1977.0588376096566,648.1995714884251],[1974.4837629074464,644.1611004164442],[1972.286319531966,640.7150191459805],[1970.6788998174015,638.3962977901101],[1966.879145323357,630.9017941243947],[1963.8870838264702,623.566257703118],[1962.0835235193954,615.5515921320766],[1961.544816807378,613.6232685782015],[1959.4891695936094,606.2660778742284],[1958.00597572868,596.9419982871041],[1956.8525817250484,587.2530619967729],[1956.2359110598918,578.3926110621542],[1956.8375623167376,571.8824935154989],[1957.9357628005673,567.7580132186413],[1960.050981118402,562.48336877767],[1962.376944407646,558.8245094213635],[1964.3482568580075,555.8528339089826],[1964.801025993831,553.8749418212101],[1964.4467130912817,551.7939894776791],[1963.6261543241562,550.356658661738],[1961.3543593824725,545.5430828109384],[1961.9394565213588,540.1453056177124],[1965.650493131252,533.2427774453536],[1971.465989582939,525.5408123042434],[1973.7410867488943,522.6255797594786],[1978.134417383466,516.9963612426072],[1980.9159484392148,514.1833735955879],[1981.2988721387228,513.7961923060939],[1987.391716547194,508.8432654356584],[1993.6180841083988,503.30533196683973],[1995.1220474734437,500.8442263714969],[1995.8128348790342,499.08553475141525],[1996.6126128005562,497.0489793838933],[1997.1241771945497,492.5967073570937],[1999.3085259846994,488.68345258105546],[2001.8047250414966,485.378612363711],[2002.8111200886779,485.95229877438396],[2003.6722145461827,485.8882616860792],[2004.8332920158282,485.2651149984449],[2005.1331373816356,484.67836560867727],[2005.1827429964906,484.0941172018647],[2005.17667359201,483.4825730137527],[2005.0178382656886,481.4829946849495],[2004.5028442313778,480.04272676445544],[2004.5966187824379,478.2908202037215],[2006.6104503842653,474.01806754246354],[2008.8423966264236,469.29844517074525],[2011.1633415888646,465.13382834009826],[2012.13862336491,462.5945068821311],[2012.7810174237238,460.14207528624684],[2012.8180693410104,458.27945170458406],[2011.9993251168635,457.0090661449358],[2011.6232111509307,455.56754386331886],[2011.5229882629937,448.3140830248594],[2010.7022157361498,441.3178018750623],[2009.2570144369383,435.7735396521166],[2007.503976412525,432.7890129517764],[2004.4807501921314,427.8996339412406],[2002.5704403119744,425.8620558138937],[1999.152610739111,423.2001544414088],[1996.3271889434545,421.39407287351787],[1994.8068318000296,419.4636588487774],[1993.6181345115765,414.5557174673304],[1992.4186886260868,408.5640735430643],[1992.4477134994231,407.48748056963086],[1992.519951796101,404.81080591958016],[1993.6953342618071,400.0738381687552],[1996.1113925545942,394.29615033604205],[1997.078511704225,390.95105549134314],[1997.4690592806437,388.33440581988543],[1997.056417041691,385.97606538888067],[1996.4042769184452,384.70392878819257],[1995.5981646367582,383.2174666132778],[1994.3652819267008,380.94412825535983],[1992.7678123720689,376.8464258611202],[1991.524261194223,372.02277801930904],[1990.8209372969577,368.38846724294126],[1990.251956565422,364.3083947803825],[1989.0894851814373,362.04082648456097],[1984.8806165673304,355.3011242542416],[1982.090340091905,348.6860058363527],[1979.463749206392,341.73597156908363],[1976.7565926583484,335.12000682298094],[1974.5758985624416,331.05583107378334],[1972.436284151685,325.574069079943],[1971.7121872786665,322.66269983444363],[1968.4534598588943,316.4414436677471],[1965.5812012066017,309.9661086201668],[1964.08932894608,305.311754158698],[1963.7486334627029,301.81277490220964],[1964.1851602368406,295.47116476483643],[1964.8038145468454,290.62882829643786],[1966.5319207204739,285.56385077908635],[1967.9764029679354,282.7143306238577],[1970.260835971334,280.46767698507756],[1973.1013762790826,278.21567452326417],[1974.5274821516941,276.3113113772124],[1976.4621826487128,275.2081957636401],[1976.8459389585187,274.67608554661274],[1977.297472346807,272.58697839360684],[1976.8095690209302,271.03518935199827],[1975.8507865010179,269.68302656989545],[1973.8948634395492,268.64641015511006],[1972.8457438630285,268.1205219132826],[1972.3684326960356,267.0041470294818],[1972.6608656276949,264.6808302337304],[1974.975573013944,262.65106361731887],[1977.3624993118574,256.98294973839074],[1978.1702896110364,254.51165714673698],[1978.5047074470203,251.93000294361264],[1979.0099173152703,249.09001044929028],[1978.6956329641398,245.47902584727854],[1975.975176234264,242.52176897134632],[1971.4498371218797,239.87256779149175],[1961.7097271766397,234.14667035266757],[1950.4529181867838,225.37326498981565],[1940.8705489615677,215.86249187309295],[1935.5467999312677,206.67958772089332],[1934.189891704009,200.36307318508625],[1934.7653375203372,193.26554678287357],[1935.9947590354132,188.5304681127891],[1937.4430503837066,184.82680850103498],[1939.2772464047302,180.82085229922086],[1942.5304367999197,176.80933343898505],[1944.1983679008554,174.3519280264154],[1945.2161312648095,170.5636089798063],[1944.4771676068776,168.41631473693997],[1942.964579617721,166.44386785756797],[1941.1111500628176,165.28960812371224],[1938.6536153508932,163.57870939653367],[1936.2653063599137,161.44914726167917],[1907.6333059031167,160.35347618348897],[1831.4663973717834,157.43872382398695],[1819.2797345842118,156.9723287206143],[1807.8319238308468,156.86338198091835],[1806.662012408604,156.85225127264857],[1734.7419629305368,156.16767168045044],[1727.4498404686456,156.0982622941956],[1716.305251456739,155.99226912576705],[1716.3148858330096,168.18195782322437],[1716.324056937301,179.74854321125895],[1716.3871541244444,259.5847672717646],[1716.4063605581177,283.9594180043787],[1777.3419728604495,284.53939301148057],[1807.8072941794526,284.82934367470443]]]}},{"type":"Feature","properties":{"OBJECTID":320,"NAME":"CARVER PARK","SUBTYPE":3,"created_user":"RYOLSON","created_date":1695823320000,"last_edited_user":"RYOLSON","last_edited_date":1695828601000,"Shape_Length":524.964963949148,"Shape_Area":17217.71799255935},"geometry":{"type":"Polygon","coordinates":[[[1716.4063605581177,283.9594180043787],[1716.4484465984278,337.2790742777288],[1716.4784650939982,375.36447517666966],[1716.4808918873314,378.41135416179895],[1769.5463200981612,378.91643363330513],[1807.8819680358865,379.2812793860212],[1807.8072941794526,284.82934367470443],[1777.3419728604495,284.53939301148057],[1716.4063605581177,283.9594180043787]]]}}]}