{"type":"FeatureCollection","features":[{"type":"Feature","properties":{"OBJECTID":348,"PIN":"2202820410036","LAND_TYPE":null,"Shape_Length":215.21539959683952,"Shape_Area":2777.029916771804},"geometry":{"type":"Polygon","coordinates":[[[1545.7911088856636,282.3355845734477],[1545.8272444174509,328.03813465777785],[1576.2942758012214,328.328049431555],[1576.2581445477554,282.6255702059716],[1545.7911088856636,282.3355845734477]]]}},{"type":"Feature","properties":{"OBJECTID":349,"PIN":"2202820410037","LAND_TYPE":null,"Shape_Length":301.12714760085163,"Shape_Area":5554.059942355171},"geometry":{"type":"Polygon","coordinates":[[[1484.8571747672395,281.7555533256382],[1484.8932483002427,327.45810356363654],[1530.5936927039875,327.89316080044955],[1545.8272444174509,328.03813465777785],[1545.7911088856636,282.3355845734477],[1484.8571747672395,281.7555533256382]]]}},{"type":"Feature","properties":{"OBJECTID":955,"PIN":"2202820410011","LAND_TYPE":null,"Shape_Length":111.52401026234055,"Shape_Area":717.3077963870948},"geometry":{"type":"Polygon","coordinates":[[[1726.0689462766168,422.5701701194048],[1719.6437452621758,421.40690860990435],[1716.5144087512745,420.840453482233],[1716.5150729551679,421.57399845309556],[1716.5339256830048,445.4417613297701],[1731.76733895106,445.58682292420417],[1731.748734587396,421.91260812059045],[1726.0689462766168,422.5701701194048]]]}},{"type":"Feature","properties":{"OBJECTID":956,"PIN":"2202820410010","LAND_TYPE":null,"Shape_Length":241.2794944394429,"Shape_Area":2553.881352654693},"geometry":{"type":"Polygon","coordinates":[[[1743.9144638358848,395.4299608236179],[1743.9181200243183,400.0001940727234],[1743.9326192086446,418.4604332810268],[1742.001678292465,418.8790482627228],[1738.5615474974038,420.6669075815007],[1737.4302269290783,421.2548435712233],[1734.6035641438211,421.5821370454505],[1731.748734587396,421.91260812059045],[1731.76733895106,445.58682292420417],[1743.9541122956434,445.7027004510164],[1753.0938903704518,445.7897290326655],[1753.0987089116825,451.8833485804498],[1762.2391873952583,451.97039206605405],[1762.2222807692015,430.6430871747434],[1762.2097019425128,414.6891102232039],[1762.1982322970289,400.1741244569421],[1762.1946600712836,395.6038914434612],[1744.0006400542334,395.43075698427856],[1743.9144638358848,395.4299608236179]]]}},{"type":"Feature","properties":{"OBJECTID":2417,"PIN":"2202820440002","LAND_TYPE":null,"Shape_Length":1042.5431697873137,"Shape_Area":29169.53946644863},"geometry":{"type":"Polygon","coordinates":[[[1928.9039597083465,155.4017985071987],[1922.5374737813836,154.86654696892947],[1913.5961921903654,155.7171213524416],[1909.9433626509272,156.37592798564583],[1907.5776052774745,156.21259908750653],[1904.90870427544,155.49153856560588],[1901.9805071006995,154.47067975997925],[1898.325499418017,154.570382126607],[1892.4379241881543,155.53838153742254],[1886.2900039697997,155.99132686574012],[1882.9321237396216,155.0149846188724],[1876.638892942341,151.03917064052075],[1864.5154546068516,140.50605487637222],[1853.4230352362501,129.71083697117865],[1845.4340297754388,120.79591540712863],[1840.9816939597367,114.66321868728846],[1839.3771649206174,112.33657427038997],[1819.2798297933186,112.12883654236794],[1766.399351477041,111.58234116714448],[1763.323974743369,111.55048950854689],[1761.1987908214796,109.69533266220242],[1667.0096044776728,27.4777768580243],[1631.0318716383772,52.45383290480822],[1622.713313966815,58.22864716872573],[1623.0795656106784,58.88558348454535],[1624.1778956279159,60.85596685949713],[1625.0602013508324,62.43901294656098],[1625.5554306396516,63.32745865918696],[1626.1190366873052,64.29667630419135],[1626.9491937789717,65.72427021991462],[1628.0296610929654,67.58241460751742],[1628.489823538519,68.37370489072055],[1629.2622225499363,69.64802326634526],[1629.8048148851958,70.54345146473497],[1631.093675426615,72.66993460897356],[1631.5154328679782,73.36575734894723],[1632.5078509574523,74.93785396125168],[1632.7440532649052,75.31209508515894],[1634.2513971628505,77.70001571346074],[1634.6314116348512,78.3019880997017],[1635.765919141064,80.02892620209605],[1635.8548628504504,80.1642571631819],[1637.5014835447655,82.67074591014534],[1637.8365581989638,83.18076827097684],[1638.869494621933,84.69231665693223],[1639.3018452809192,85.32503795344383],[1640.8430164732854,87.58056779578328],[1641.1299548475654,88.00039904844016],[1642.0537899475894,89.30099159292877],[1642.847596601583,90.41856750939041],[1644.2748656339245,92.42771131824702],[1644.5103995903046,92.75939295627177],[1645.3180285456474,93.85353531315923],[1646.490916500392,95.44272217527032],[1647.7956871778588,97.21068864222616],[1647.9769038016093,97.45605100598186],[1648.6610084479325,98.34846031945199],[1650.2303905668668,100.3958725836128],[1651.4044930520467,101.9275887189433],[1651.528194583021,102.08888553828001],[1652.0818106693332,102.78456262033433],[1654.0645346016972,105.2759650265798],[1655.0998683123034,106.57699422072619],[1655.1632116511464,106.6564801512286],[1655.5793749387958,107.16042579244822],[1657.9920760873356,110.08137051016092],[1658.8805408321205,111.15713473688811],[1659.1576174808433,111.47040509432554],[1662.0148004720686,114.80749911256135],[1662.604395302711,115.49620231054723],[1662.805097976816,115.72210512589663],[1666.124540815421,119.45800544694066],[1666.5304252429632,119.90572279226035],[1666.8824174748152,120.2941975183785],[1668.2084181801765,121.75725007522851],[1670.3179631193634,124.03295164834708],[1672.4765114112524,126.39184748008847],[1673.3028699084534,127.29495569504797],[1674.5994370202534,128.78238918446004],[1676.208140877483,130.6280052801594],[1676.686457173084,131.20422247704118],[1678.7285444083973,133.66453385353088],[1679.0320786054363,134.03025765437633],[1680.7195913200849,136.1660639513284],[1681.7731284921756,137.49951698444784],[1682.6730357513297,138.69690148718655],[1684.4297348155524,141.03401160426438],[1684.588807914639,141.25662204343826],[1686.4475799208158,143.85818140860647],[1687.0002009479795,144.631616005674],[1688.261793941143,146.49065535049886],[1689.4830430638976,148.29020524583757],[1690.0367100166623,149.14988698717207],[1691.7677827501902,151.83805557526648],[1691.8768484732136,152.00758388917893],[1694.1803459796356,155.7816982679069],[1705.8297405609628,155.89260621741414],[1727.4498404686456,156.0982622941956],[1734.7419629305368,156.16767168045044],[1806.662012408604,156.85225127264857],[1807.8319238308468,156.86338198091835],[1819.2797345842118,156.9723287206143],[1831.4663973717834,157.43872382398695],[1907.6333059031167,160.35347618348897],[1936.2653063599137,161.44914726167917],[1935.6762957953033,160.92386548034847],[1931.704227146518,156.72432067524642],[1928.9039597083465,155.4017985071987]]]}},{"type":"Feature","properties":{"OBJECTID":2418,"PIN":"2202820440017","LAND_TYPE":null,"Shape_Length":2116.4555076761885,"Shape_Area":148245.29687757936},"geometry":{"type":"Polygon","coordinates":[[[1604.8160192526411,19.502292102202773],[1606.9963695940678,25.02678304258734],[1607.0549909416004,25.175466052256525],[1607.0963654409861,25.274547015316784],[1607.204346785904,25.533572463318706],[1609.2784725625534,30.509901664219797],[1609.359528808971,30.704382888041437],[1609.4015374965384,30.80502072442323],[1609.487907830393,31.001707557588816],[1611.610717420699,35.834089142270386],[1611.661552384321,35.949878772720695],[1611.8543871581205,36.38897356390953],[1611.9895882001147,36.681508977897465],[1613.9503900660202,40.92401462420821],[1614.14483347669,41.3448745040223],[1614.4129776929622,41.92527320608497],[1614.6006316934945,42.31182866636664],[1616.377699523815,45.972602017223835],[1616.7273276660708,46.692977745085955],[1617.0763918388402,47.41200874000788],[1617.3201212284039,47.890685042366385],[1618.8920821236097,50.978365464136004],[1619.4083299434278,51.99249021988362],[1619.8434291789308,52.84705643542111],[1620.1467856330564,53.41588349547237],[1621.4927614057087,55.9398185396567],[1622.1868525315658,57.2413594359532],[1622.713313966815,58.22864716872573],[1631.0318716383772,52.45383290480822],[1667.0096044776728,27.4777768580243],[1706.5909632961775,0.0],[1597.3322604520472,0.0],[1604.8160192526411,19.502292102202773]]]}},{"type":"Feature","properties":{"OBJECTID":2654,"PIN":"2202820410030","LAND_TYPE":null,"Shape_Length":387.03916451895293,"Shape_Area":8331.110840171666},"geometry":{"type":"Polygon","coordinates":[[[1600.6317438016995,282.8574649700895],[1600.6678429239546,328.5600146809593],[1631.1348711106111,328.8500487571582],[1661.601826949278,329.1400154000148],[1692.0688521123375,329.42998567409813],[1692.0327663877397,283.72743643354625],[1600.6317438016995,282.8574649700895]]]}},{"type":"Feature","properties":{"OBJECTID":3350,"PIN":"2202820120003","LAND_TYPE":null,"Shape_Length":779.3903531847412,"Shape_Area":10471.672731514478},"geometry":{"type":"Polygon","coordinates":[[[1418.7387658338412,1327.445371998474],[1297.6018594024354,1366.2379621574655],[1298.2624028043356,1260.3292478071526],[1258.070673993905,1263.9465127848089],[1257.9545588809997,1301.3316129464656],[1257.7361647622893,1371.709497993812],[1279.8998857561965,1371.9067827556282],[1297.5655342658283,1372.0639299917966],[1319.7291829800233,1372.261210989207],[1418.7387658338412,1327.445371998474]]]}},{"type":"Feature","properties":{"OBJECTID":3351,"PIN":"2202820120004","LAND_TYPE":null,"Shape_Length":660.3776782931491,"Shape_Area":26837.178710237356},"geometry":{"type":"Polygon","coordinates":[[[1391.2406687138719,1228.3772191023454],[1316.7298834731337,1258.667253954336],[1298.2624028043356,1260.3292478071526],[1297.6018594024354,1366.2379621574655],[1297.5655342658283,1372.0639299917966],[1319.7291829800233,1372.261210989207],[1418.7387658338412,1327.445371998474],[1418.8144826862845,1303.0719535360113],[1419.0434067564202,1229.303081234917],[1391.2406687138719,1228.3772191023454]]]}},{"type":"Feature","properties":{"OBJECTID":3497,"PIN":"2202820110007","LAND_TYPE":null,"Shape_Length":388.4496815475718,"Shape_Area":8394.069766322731},"geometry":{"type":"Polygon","coordinates":[[[1808.5561287400778,980.0366281224415],[1762.531199888792,980.046928267926],[1762.5544051260804,1025.7470604088157],[1762.569920897833,1056.2138239424676],[1762.5776075130561,1071.4471515659243],[1808.6283337071072,1071.4367851484567],[1808.5561287400778,980.0366281224415]]]}},{"type":"Feature","properties":{"OBJECTID":4252,"PIN":"2202820140017","LAND_TYPE":null,"Shape_Length":194.28504239860402,"Shape_Area":2107.442881934804},"geometry":{"type":"Polygon","coordinates":[[[1762.6906386787305,770.5890953848138],[1762.7089750969317,793.7076468300074],[1784.5075636365218,793.8089323621243],[1787.0823665869539,793.8208599342033],[1796.157511142781,793.8630320178345],[1808.4092434943886,793.9199713589624],[1808.3909300898085,770.8014192767441],[1793.5051201378228,770.7322484506294],[1762.6906386787305,770.5890953848138]]]}},{"type":"Feature","properties":{"OBJECTID":4253,"PIN":"2202820140015","LAND_TYPE":null,"Shape_Length":194.84864372276803,"Shape_Area":2116.6572449880628},"geometry":{"type":"Polygon","coordinates":[[[1716.790483983932,770.3758564060554],[1716.8087734057917,793.4943363461643],[1762.7089750969317,793.7076468300074],[1762.6906386787305,770.5890953848138],[1716.790483983932,770.3758564060554]]]}},{"type":"Feature","properties":{"OBJECTID":4254,"PIN":"2202820140018","LAND_TYPE":null,"Shape_Length":202.4653809590253,"Shape_Area":2370.9235412863277},"geometry":{"type":"Polygon","coordinates":[[[1762.6700613469002,744.4686421640217],[1762.6906386787305,770.5890953848138],[1793.5051201378228,770.7322484506294],[1808.3909300898085,770.8014192767441],[1808.3704372716602,744.903625744395],[1790.5238682190538,744.7336974395439],[1762.6700613469002,744.4686421640217]]]}},{"type":"Feature","properties":{"OBJECTID":4255,"PIN":"2202820140016","LAND_TYPE":null,"Shape_Length":203.66069464646438,"Shape_Area":2401.72830202779},"geometry":{"type":"Polygon","coordinates":[[[1716.7696791309863,744.0316828303039],[1716.790483983932,770.3758564060554],[1762.6906386787305,770.5890953848138],[1762.6700613469002,744.4686421640217],[1716.7696791309863,744.0316828303039]]]}},{"type":"Feature","properties":{"OBJECTID":5064,"PIN":"2202820440013","LAND_TYPE":null,"Shape_Length":386.12025629955,"Shape_Area":9277.171726611134},"geometry":{"type":"Polygon","coordinates":[[[1736.6846168597694,27.753840715624392],[1791.8685389936436,50.744467238895595],[1794.4435590213398,51.81743441801518],[1818.7360865688836,0.0],[1748.217333885708,0.0],[1736.6846168597694,27.753840715624392]]]}}]}