{"type":"FeatureCollection","features":[{"type":"Feature","id":"way/59941994","properties":{"name":"Valley Branch","source":"NHD","waterway":"stream","osm_type":"way","osm_id":59941994},"geometry":{"type":"LineString","coordinates":[[2140.170034004026,1860.030530327931],[2141.329327965679,1857.5564795807004],[2142.88202819624,1852.6729320585728],[2143.365999860456,1846.0201828125864],[2140.2564297242207,1828.4933386621997],[2139.91556659661,1823.2491270583123],[2141.6768408605712,1811.3899253774434],[2146.1458713917527,1799.493709503673],[2147.4974862665986,1793.09883750882],[2147.628186222166,1785.73416812066],[2145.028693495842,1769.3084765616804],[2144.5103473938652,1762.5752213262022],[2145.1076738316333,1754.8896803632379],[2147.2813710048213,1748.0971504477784],[2151.1716781613068,1742.875644478947],[2154.7698877885123,1740.5415859352797],[2161.012083915528,1738.403627216816],[2174.9220780194155,1735.3091564774513],[2179.9470786876045,1733.723307219334],[2186.6664718864486,1730.2980816103518],[2190.0295280582504,1727.3635304672644],[2192.067637857457,1723.9698865227401],[2192.409626283159,1720.171671897173],[2190.510382824694,1713.2457724725828],[2185.1600592868635,1703.9331463063136],[2184.7695044468273,1702.4212989741936],[2184.928644324129,1699.089144720696],[2186.3352027523215,1695.7048732861876],[2188.9405966035556,1692.7126975283027],[2190.6806841890793,1691.484418948181],[2207.7390472195693,1683.1998267043382],[2218.017641993996,1677.3183047119528],[2228.3378059099196,1670.6815262511373],[2237.3481169465813,1663.8412007754669],[2245.0821380399866,1656.0753538366407],[2248.8209383830545,1651.4533560927957],[2256.018194489123,1640.8200144730508],[2266.025438890094,1621.7407600954175],[2274.602222090063,1600.4025197317824],[2280.6311380889383,1581.2234397521242],[2284.8081405884586,1563.7388722663745],[2288.260357278574,1542.8641717601568],[2290.334261239099,1523.6963956253603],[2291.323302660312,1502.8815453359857],[2290.789743732137,1490.2717704176903],[2283.2108834956307,1444.6165663311258],[2279.6350579499267,1415.8908743914217],[2277.264541890938,1382.3584749707952],[2276.532872354146,1344.2649540212005],[2277.4965796112665,1329.7597406441346],[2278.7362587886164,1321.0984299257398],[2280.6570816540625,1311.6391786299646],[2283.400878171029,1301.4823567075655],[2287.1015849816613,1290.728312834166],[2291.893109247845,1279.488504911773],[2297.9172538723797,1267.874413581565],[2305.307989626832,1255.9752817340195],[2314.1992575398763,1243.8914622385055],[2324.4501005879138,1231.2115518376231],[2386.3709440788953,1156.3888643812388],[2412.220875385683,1124.33455188293],[2424.533440513944,1108.5390115566552],[2437.8649275756325,1089.7581115560606],[2470.6316412259475,1046.281416052021]]}},{"type":"Feature","id":"way/59952350","properties":{"natural":"water","source":"NHD","osm_type":"way","osm_id":59952350},"geometry":{"type":"Polygon","coordinates":[[[517.4967121957452,645.0961509384215],[498.74817207519663,624.7652732087299],[479.1673093085992,621.6396141564474],[462.0865206531598,626.0074046887457],[457.8273022232461,637.0165921365842],[458.2663952712319,647.815241837874],[463.4893195470795,690.8073646286502],[476.7464349801303,715.9678781321272],[488.92872737068683,728.7840934908018],[514.4573226024513,733.9241099972278],[529.1776583585306,735.7047558343038],[548.6292887263699,727.1662122132257],[559.7623073878349,720.5843246746808],[565.9128289917135,704.7254568012431],[564.6945007335162,693.0361669976264],[557.4995747914072,684.431284815073],[548.4594753974816,668.5345712769777],[517.4967121957452,645.0961509384215]]]}},{"type":"Feature","id":"way/59954626","properties":{"name":"Kelle's Coulee","source":"NHD","waterway":"stream","osm_type":"way","osm_id":59954626},"geometry":{"type":"LineString","coordinates":[[241.26308684223204,0.0],[239.47207267355407,9.288351824507117],[238.39625660993624,19.783343439921737],[242.63677340286085,39.07821051124483],[258.44064903684193,76.3528199698776],[263.4000422829413,95.47172278165817],[262.8294415891287,115.69907415192574],[260.22088764433283,136.24359284434468],[260.79692743188934,155.7739076046273],[269.51986095675966,172.80249607469887],[283.6398884402588,188.12247710302472],[290.2532126129372,196.00355726666749],[298.1053119680728,213.9076323211193],[299.4860894376179,223.98651163466275],[301.38392932817806,255.05079492740333],[307.2613661965006,273.19443239830434],[319.6350698165479,288.93234127480537],[327.41881523263874,296.005406701006],[335.8519091356429,302.3024751879275],[344.6268264040118,307.65616440586746],[362.58889676828403,314.4654761701822],[382.7292340916465,315.24823715910316],[413.37213814852294,312.38003541808575],[442.9908877980779,305.3992658238858],[462.1821817663149,306.81311916559935],[480.67446235351963,316.27903034631163],[499.9644360365928,316.0936035756022],[529.2966958843754,310.04564348980784],[558.8140192176215,302.63192090019584],[578.5394995447132,298.8041951591149],[604.1892745905789,294.0248811179772],[619.414645517536,293.16314342059195],[623.6680937287747,290.9742796709761],[627.0445511556463,285.85055434703827],[629.3052574017202,284.85643731057644],[631.350163793948,284.90598924364895],[635.5219361364143,286.9604136124253],[639.5643686305848,290.2142455102876],[641.0915386982961,292.06209716480225],[642.1856850303011,296.5638198321685],[641.7647490185918,303.85000656638294],[642.2116935524973,305.0952889928594],[643.606133240799,306.34294454660267],[647.4568875486148,307.3079300876707],[650.8531920707319,306.872095676139],[654.6234949943027,305.28190612141043],[659.6069535561255,301.6618865933269],[662.4983485145494,301.0581634808332],[665.4348899566103,301.3432428371161],[669.4508148803725,302.56415363028646],[673.8881216183654,305.7745636263862],[675.6551131343585,309.58924753870815],[675.7596602297272,311.9778588023037],[674.7571805107873,315.0079906312749],[672.7691786561045,317.458002474159],[669.6205547185382,319.8828859385103],[660.2358165395563,324.82489295862615],[659.0159965405473,326.3659299882129],[659.3916792557575,327.68879522103816],[663.2845279232715,330.75342125818133],[668.2759242785978,336.5535209001973],[671.019049103139,338.3933217069134],[677.8834485845873,340.3656615484506],[687.891049937869,345.2119213156402],[691.6484765230562,345.5990520035848],[695.6765073813149,345.1315026534721],[699.1801528908545,345.96234406903386],[703.4298158799647,348.41691852360964],[708.9919180428842,353.3186884513125],[715.674898024241,358.34547786973417],[717.940957878076,361.4949135631323],[719.7267427365296,370.37517944537103],[730.5510899325018,392.6196314310655],[733.5469015404233,400.70312975440174],[735.371843091154,403.4293340193108],[737.6886656489223,405.223655520007],[741.2307995100855,406.4323096200824],[746.0936090502073,406.81114949379116],[752.6160775697208,406.57209639716893],[756.6925135772908,405.6825807131827],[761.8859965801239,403.30733340699226],[765.1208506117109,401.12710183672607],[768.065865914512,398.03523494210094],[771.2589876877028,393.6220721695572],[773.158216004842,391.9383598770946],[775.7188880167087,390.96726899873465],[777.9142266787239,390.83951014466584],[788.1136904375744,391.56512084789574],[792.7852148482925,392.65446318872273],[797.7145143526723,394.84421239513904],[809.3592664011521,401.66102592647076],[821.4990672978456,406.2907198285684],[825.4861846070271,406.37857866473496],[833.0877891492564,404.0428152466193],[836.8696765147615,404.10794384311885],[839.7326801894815,405.34825678542256],[845.0536666809348,408.7498733345419],[847.4952658836846,411.14441571291536],[848.7047734942753,413.6802452467382],[848.3412685833173,416.91192655079067],[846.9999425983406,419.65234905667603],[839.5213964457507,426.39852330088615],[839.3524335434195,427.6422584541142],[840.3868569699116,430.72196414135396],[841.3485760865151,431.3353757876903],[843.5597499740543,431.18546241894364],[845.5950786066824,431.87935765087605],[850.9844231493189,436.33647007495165],[857.7010154153104,440.4859148589894],[865.1668907824205,448.05871927458793],[868.8573529858259,453.0225289128721],[869.9930517054163,453.525300770998],[871.5097432630719,453.24032980948687],[875.2065918681328,449.4727968843654],[881.0474401980755,447.1326166689396],[886.5267605604022,444.1361148869619],[888.7069136522477,443.76396615896374],[890.1892571931821,444.567555421032],[890.8331950777792,445.94666000828147],[889.2440416273312,449.88617275841534],[889.4593275764491,452.16398403421044],[890.4659262842615,453.7550743855536],[892.688759501325,455.22706381510943],[895.6009684947785,455.7343592867255],[903.3973862400162,454.3989492263645],[913.093990973779,454.1125965891406],[914.0978938775952,453.65970067307353],[914.8512593586929,452.3730214582756],[914.1531596305431,447.46124039776623],[915.8589231737424,441.1447895625606],[917.0610384302563,431.0723481392488],[918.2233958778088,427.30949262622744],[921.1673129456467,424.6731455884874],[926.3044117969694,422.7533402843401],[929.116713495052,419.09466988872737],[931.1974628778989,417.4559013545513],[933.8210309970891,416.5961199281737],[941.2690751577611,415.65977711137384],[943.9820486861863,413.800453601405],[944.7203421290033,412.23602437600493],[945.6328358041355,407.38389312289655],[951.9432882604306,391.22587307728827],[952.4020488788956,387.8167030327022],[951.8518903155345,383.7273325724527],[952.0786983278813,381.4839737415314],[955.926523138769,374.2843144275248],[958.1847726532724,371.1685637002811],[959.8465896285488,369.7175808697939],[976.7971602823236,358.00799400452524],[978.8726591407903,355.3472360512242],[984.6214183806442,345.84186562988907],[987.6195619579521,343.6389233386144],[990.6217091335566,342.957871270366],[994.1030527195544,343.2333868779242],[999.8362381183542,345.99188776221126],[1003.9624421119806,347.2799426605925],[1004.5519772290136,348.3145525204018],[1004.8866444804589,353.29206378478557],[1010.2053074286669,363.7477745106444],[1013.7329072306165,373.699012959376],[1016.1112345809233,376.11567476578057],[1021.7760537368013,377.80759445298463],[1030.8811153397546,377.31994803249836],[1034.7545726327808,375.552508585155],[1037.9046482694102,372.60570306517184],[1041.0698362001567,366.8484611501917],[1044.3186317255604,362.3578162677586],[1048.4809976471588,358.78042440861464],[1051.2866354955477,357.75452942121774],[1060.844296929543,356.2905307384208],[1066.7792763655307,354.25069354102015],[1076.5234155682265,353.96470958180726],[1083.0114246675512,354.8700899435207],[1088.4467257093056,356.77254136279225],[1097.137410321564,360.8384499074891],[1104.2099510937114,361.6453798227012],[1109.252594851132,365.7796667171642],[1110.6090843312559,366.3941362630576],[1113.215245316329,366.17868228815496],[1116.7879500141134,364.6993406796828],[1120.625587044924,364.5870426800102],[1122.7211345523247,363.3593926485628],[1125.39814353548,360.16702041216195],[1128.031306349032,355.6081778379157],[1129.4254722147016,350.80174971651286],[1130.2349411707837,343.09446735400707],[1134.9690922892187,335.20846869796515],[1137.3758849502192,332.70413744077086],[1141.5483478212263,331.3596612736583],[1145.9071495922399,328.182749488391],[1150.8240271480172,322.9299736768007],[1151.6192306444282,320.75474203098565],[1151.441299443366,316.2775149419904],[1151.8176254168502,314.25672146491706],[1159.8031451257411,297.8921703537926],[1164.0276169008575,285.6058688359335],[1165.530618056655,278.4224892221391],[1165.030000046303,273.5445178169757],[1163.7260988484486,270.9084071377292],[1156.898753042915,263.7923594340682],[1154.7274511524593,260.7096646204591],[1154.1369834109792,256.9867567298934],[1155.4181499305414,253.14649121370167],[1157.1618434046395,250.59601936955005],[1163.8799957878073,244.98132606316358],[1171.5444365987787,236.79189195297658],[1176.337303542532,233.72720988467336],[1188.2030082085985,228.35914518591017],[1195.0763088254025,223.83352932613343],[1199.0191739539732,219.7113449461758],[1202.526639186137,212.97751294262707],[1203.4992912391317,206.3259811270982],[1203.2370202951133,203.93695185612887],[1202.4989494794281,202.3354001743719],[1200.6706071359804,200.97541230823845],[1191.8814797440427,198.27546826656908],[1187.0108273313963,194.7747535239905],[1182.9958928597043,190.13207170553505],[1181.2278751724516,186.81713170651346],[1180.5809076650767,183.57174539752305],[1181.3942591812229,180.49676802475005],[1183.7224269747385,177.89227345772088],[1188.4344566899817,175.57166749611497],[1192.9376268842025,174.62799058761448],[1203.6700771022006,173.9448489639908],[1215.8678627175977,168.45550141483545],[1223.000312666176,167.5519918585196],[1225.5884600833524,168.22522460483015],[1227.803737680486,169.57511524204165],[1236.6242537908838,178.44046393968165],[1243.411603947403,185.75644651520997],[1246.1239274573163,190.2958038682118],[1248.7135498974822,193.43515960965306],[1249.9225655641058,196.11547513771802],[1250.3216622956097,200.53773629199713],[1249.315746423672,204.7786079607904],[1247.5171654350124,207.16228311974555],[1242.2008918443462,211.08091470226645],[1237.867256667174,216.67950183805078],[1236.2881818377064,219.6747234389186],[1235.586966875475,222.127903602086],[1235.8620453303447,225.6611536918208],[1237.9885031523881,230.7988510420546],[1241.0655801669345,234.73928948957473],[1242.1278187948628,239.2077075606212],[1243.5057589412318,240.68873181845993],[1247.3289948277525,243.10923344176263],[1248.3048208515975,244.3670416790992],[1248.4993883128627,245.45619048457593],[1247.7426693775342,247.99809399992228],[1250.6946398842847,251.4605421666056],[1252.2962130420492,254.99724132660776],[1252.7088890485466,257.23114345408976],[1252.5872000680538,261.5187481176108],[1253.4558709429693,264.50922081433237],[1256.3245973234298,269.61552867572755],[1263.301739248971,279.80915595404804],[1264.47267557116,284.97770299296826],[1263.5467106348951,291.87373739667237],[1263.7947819197434,293.6406508209184],[1265.1110127120628,294.55498058348894],[1270.1646786046913,294.43482705950737],[1271.5890789318946,296.26034522615373],[1271.9926353327464,298.96078644506633],[1271.5256871677702,302.414347153157],[1269.0860951940995,308.39553614798933],[1268.492213961843,315.11469660606235],[1266.0104049812653,322.1510944599286],[1265.5514787352295,328.5928913131356],[1260.9189974876936,336.7900996785611],[1259.415122434555,344.27338814083487],[1254.8791527638678,354.83698492124677],[1254.4272293042159,358.59051852300763],[1254.8206690801308,362.14629522990435],[1256.5291989783873,367.0496328063309],[1263.0765418058145,378.5196340261027],[1267.681540428137,383.90818028338253],[1269.035644451913,388.4662324152887],[1271.3561720588477,391.81596201937646],[1271.6127977824071,393.32740037795156],[1271.0802911641658,397.702805288136],[1271.7381797674461,399.75960973184556],[1272.7065438791178,400.83966502174735],[1278.7373385163955,404.465662474744],[1282.5032838525367,407.61920514144003],[1288.6348813890945,414.9779663924128],[1292.5731232022517,421.6978267868981],[1294.594828245754,427.601765983738],[1295.4569707241608,433.0805563516915],[1294.7936277767876,451.29694330785424],[1295.8815056068124,454.98783650342375],[1297.8316252037766,458.05889557581395],[1300.3931221889798,459.8207335602492],[1302.696785680193,460.53769112285227],[1305.3419297640794,460.5001547783613],[1307.3096453280305,459.84987910091877],[1312.4442127546063,455.9086095299572],[1318.2827628438827,448.4588614497334],[1321.9240867500775,444.89139486290514],[1325.7677714168094,442.4464281089604],[1328.3023843459669,442.4086125828326],[1330.281024635653,443.624618540518],[1331.9158576858463,446.4838009579107],[1335.7609167524497,464.66752853244543],[1338.5370330675505,468.8960536038503],[1341.6085053990828,471.8922963812947],[1346.8363710057456,474.5498113790527],[1354.331979859795,476.5578540991992],[1361.847212407156,477.0996206458658],[1370.0529369916185,476.27684493456036],[1374.0608288526419,474.44331041164696],[1375.860139308672,471.7708479864523],[1376.4401144311414,467.3844666434452],[1376.0135552899446,461.42913534864783],[1376.7613867016044,459.2760239960626],[1378.7310305113788,457.89260710868984],[1383.904925497307,457.0396906873211],[1387.4506896029343,453.79416036233306],[1390.6775458880002,451.7253085002303],[1394.8570655450458,450.69205663725734],[1398.029939098109,451.1447210153565],[1401.5783052879851,452.9314048970118],[1407.2127987123094,457.0896978797391],[1410.138455467939,458.4748427243903],[1411.9222217681236,458.7239136537537],[1414.8691794637125,458.0095895435661],[1415.944878032431,457.2903539147228],[1416.6501247028355,456.32575648184866],[1417.106590919022,453.8830610131845],[1418.0496107940562,452.5747211398557],[1423.9755540172919,450.9795348793268],[1427.5281868902966,448.1339545827359],[1431.986879179196,443.02460097149014],[1433.9449234699714,440.0526395039633],[1434.4861765293754,438.3988793231547],[1434.338452831551,434.5215867413208],[1431.5391501640552,427.1158972615376],[1431.2313804904697,424.04911267664284],[1432.1569241766701,417.37527126353234],[1432.2934575293912,410.4882930777967],[1433.9227253465797,406.43793278653175],[1435.8704625381506,404.38795938063413],[1438.999136076367,403.6407980751246],[1444.3791386763914,405.4989724382758],[1447.5623005068628,408.0512151764706],[1450.425308133592,412.2466913079843],[1451.7022142605856,413.08319611940533],[1453.9602284520515,413.1446800176054],[1458.3238690457074,411.1677221804857],[1460.4798249772284,411.00676760450006],[1462.4040577776032,411.8894129116088],[1464.0571760110906,413.7822283701971],[1466.9727509589866,416.00051810685545],[1469.843787784339,417.1411568727344]]}},{"type":"Feature","id":"way/246085345","properties":{"natural":"water","water":"pond","osm_type":"way","osm_id":246085345},"geometry":{"type":"Polygon","coordinates":[[[1943.5438173465081,736.2903750073165],[1949.6986552284216,734.6740774074569],[1957.9456756474683,730.1752145662904],[1962.5678697905387,725.9997936338186],[1964.1766953827464,723.7602141322568],[1966.2739114928409,719.0225201025605],[1967.4394220020622,711.3940595975146],[1967.3590125507326,703.1956813847646],[1964.9614144230727,693.5024658124894],[1954.8439920101664,668.5473061483353],[1951.8197387921973,659.9188255239278],[1945.0848529605428,636.628031401895],[1942.784887934511,625.8464454431087],[1941.139964071277,615.1666114861146],[1938.2774114008062,587.620603098534],[1935.962996977847,579.2495510457084],[1934.3682148139924,576.2903431858867],[1931.0451949594426,573.0043094689026],[1919.3099857714842,565.1521024489775],[1910.8326425731648,561.3189310319722],[1906.3904562490643,560.2071742620319],[1902.1035075435066,560.0845066402107],[1898.2865078381146,561.3627965068445],[1896.6644538646797,562.6470154626295],[1887.550979384163,575.0973866377026],[1883.6875000733417,578.9749756427482],[1874.1833295705728,587.0030828109011],[1869.3798165761982,593.9885575752705],[1867.3417228399194,600.23721327167],[1863.1656350995763,620.5102883651853],[1856.4581656043883,645.5199252152815],[1855.619239466614,652.1272916020826],[1855.8161883930443,661.0813668444753],[1857.6817194169853,669.0512709598988],[1869.9346092455671,707.4090249948204],[1875.3804230884998,719.8542539002374],[1878.2172571920091,724.8163494579494],[1880.9707155505312,728.489621726796],[1886.3448020382202,732.3921398976818],[1891.1082091823337,734.382331693545],[1896.4178568498464,735.829679868184],[1904.6657422053977,736.8406255375594],[1935.8279747542692,737.0693068560213],[1943.5438173465081,736.2903750073165]]]}},{"type":"Feature","id":"way/474016813","properties":{"boat":"yes","canoe":"yes","intermittent":"no","name":"Saint Croix River","name:en":"Saint Croix River","name:fr":"Rivi\u00e8re Sainte-Croix","name:oj":"Jiibayaatigo-ziibi","name:win":"N\u0105\u0105h\u0173 n\u012f\u012f\u0161\u0105n\u0105k","rapids":"no","ship":"yes","source":"NHD","tidal":"no","waterway":"river","osm_type":"way","osm_id":474016813},"geometry":{"type":"LineString","coordinates":[[3305.0,1579.801009485664],[3228.0517562926398,1523.3118263399228],[2965.0125464983284,1365.9979710951447],[2728.959673527628,1234.0879421159625],[2652.7460850198404,1185.7500460306183],[2586.805606015434,1139.1304231630638],[2470.6316412259475,1046.281416052021],[2447.402822913544,1012.9574079187587],[2420.445141916978,960.5495978621766],[2405.3398781952565,907.3194832364097],[2389.6663932402735,814.1190012861043],[2367.1692797338474,621.8662831643596],[2337.7155327437213,375.11778858024627],[2329.9627155602793,283.5280126594007],[2327.746191906568,174.30199399404228],[2331.451384576969,59.482534610666335],[2340.8693528982903,0.0]]}},{"type":"Feature","id":"way/1346299182","properties":{"intermittent":"yes","waterway":"stream","osm_type":"way","osm_id":1346299182},"geometry":{"type":"LineString","coordinates":[[1256.0802633517887,1577.8432018849999],[1258.4991923358757,1576.5831111399457],[1272.6615370811196,1567.4886807380244],[1277.8670593709685,1563.2365244841203],[1281.8803248141194,1559.0701352013275],[1289.9382271186914,1547.7936598695815],[1300.797991915315,1530.7146902764216],[1306.5968303245609,1519.9544498044997],[1309.252108194807,1512.8407487757504],[1310.2952694545966,1506.3671419257298],[1310.0924140389543,1502.4230502787977],[1309.110947635956,1497.354955627583],[1307.385441176244,1493.0403063418344],[1302.693270468153,1485.0742891989648],[1301.7093036465812,1480.9615311464295],[1301.0661409128807,1473.3060106169432],[1299.8947054630844,1468.4262688290328],[1298.4124619105714,1464.6676879320294],[1293.5555196240894,1456.3013378176838],[1292.7641238117358,1454.0220065470785],[1292.3832644262584,1451.7326369443908],[1292.576476545888,1447.2674733772874],[1293.6129702754552,1443.3488308535889],[1295.6126110818004,1439.421591048129],[1297.7098992435494,1437.4052899712697],[1302.3356005999376,1434.5513286218047],[1308.4189790145028,1429.74605600629],[1311.1525910259224,1428.9311511963606],[1315.7235434402246,1428.9097559303045],[1318.330063043628,1428.394455280155],[1322.481824973307,1425.6503573134542],[1325.5390514119645,1421.8369750529528],[1328.3303957058233,1417.05644930806],[1334.1191923096776,1410.1953359134495],[1335.6596550859977,1406.7779054073617],[1336.7538235072861,1401.9485134640709],[1339.7517472980544,1396.66864459496],[1341.762456645316,1394.5632626023144],[1343.857885942154,1393.2690323516726],[1352.9240944582853,1392.0041447421536],[1355.3434032196528,1390.6330052139238],[1357.6205091403099,1386.2843830967322],[1358.5759984525503,1380.1549229668453],[1360.7789778796723,1376.9836221933365],[1368.4463661076152,1373.2823065388948],[1373.2066716358531,1370.3065538480878],[1381.348787247378,1363.1961494404823],[1392.1627004664042,1354.7819434562698],[1406.4199855539482,1348.8762324620038],[1417.8636797672953,1341.1635659784079],[1425.8285382772447,1338.451767615974],[1428.6443024726468,1336.4373972099274],[1439.0111386905774,1326.9556672666222],[1448.9667026434909,1320.7721333010122],[1454.3307549052988,1319.3976711817086],[1459.1372191365808,1319.9102116478607],[1471.289489385148,1324.9633151767775],[1482.320699906908,1327.0252662617713],[1499.8147233127384,1333.1589371645823],[1513.3280812287703,1336.9715470289811],[1524.520583458012,1337.7342878533527],[1540.649160011555,1337.7547181043774],[1558.289209677314,1336.4128305781633],[1564.073338687478,1337.3946013106033],[1570.2391165053123,1340.332506770268],[1578.6935935753863,1346.520204816945],[1592.0153403420118,1354.0871886564419],[1601.815637996362,1361.8225878989324],[1608.9096960579045,1368.9509477503598],[1612.3206610430498,1371.7260567173362],[1616.7427366281045,1374.2705731997266],[1621.9480157130747,1376.1950915306807],[1627.692774616473,1377.1212722100317],[1637.158756631019,1376.9576035002246],[1647.3015647227294,1377.5844630673528],[1664.9001225148677,1379.9308231715113],[1674.8844711426063,1380.7683680839837],[1694.9600000110804,1380.866364724934]]}},{"type":"Feature","id":"way/1346299183","properties":{"intermittent":"yes","waterway":"stream","osm_type":"way","osm_id":1346299183},"geometry":{"type":"LineString","coordinates":[[1234.7073269119137,1591.195753512904],[1241.5894682725193,1585.7593007395044],[1248.8948189907824,1581.5125788133591]]}},{"type":"Feature","id":"way/1346299184","properties":{"intermittent":"yes","layer":"-1","tunnel":"culvert","waterway":"stream","osm_type":"way","osm_id":1346299184},"geometry":{"type":"LineString","coordinates":[[1248.8948189907824,1581.5125788133591],[1256.0802633517887,1577.8432018849999]]}},{"type":"Feature","id":"way/1346299185","properties":{"intermittent":"yes","layer":"-1","tunnel":"culvert","waterway":"stream","osm_type":"way","osm_id":1346299185},"geometry":{"type":"LineString","coordinates":[[1694.9600000110804,1380.866364724934],[1735.7820701432065,1378.1205559214577]]}},{"type":"Feature","id":"way/1346299188","properties":{"intermittent":"yes","waterway":"stream","osm_type":"way","osm_id":1346299188},"geometry":{"type":"LineString","coordinates":[[1562.5425586063648,1715.5727048376575],[1572.0205341379624,1722.607367951423],[1580.3503467794508,1730.9609275171533],[1583.9657268301235,1733.980955968611],[1591.753156568855,1738.4783963924274],[1598.921931409568,1741.0968449031934]]}},{"type":"Feature","id":"way/1346299189","properties":{"intermittent":"yes","layer":"-1","tunnel":"culvert","waterway":"stream","osm_type":"way","osm_id":1346299189},"geometry":{"type":"LineString","coordinates":[[1598.921931409568,1741.0968449031934],[1612.9789093128056,1744.9666587291285]]}},{"type":"Feature","id":"way/1351151115","properties":{"intermittent":"yes","waterway":"stream","osm_type":"way","osm_id":1351151115},"geometry":{"type":"LineString","coordinates":[[1612.9789093128056,1744.9666587291285],[1616.1581643996178,1745.741602822207],[1625.3204089387436,1746.7879532426596],[1633.3517922762549,1745.6206902340055],[1637.70740026969,1743.3772263154387],[1639.5036014405196,1741.7823629993945],[1644.3364651694428,1735.2189153488725],[1659.6944900049712,1710.0098935766146],[1681.56408488343,1670.4659237340093],[1699.4105170320254,1641.764417907223],[1706.049617679324,1629.918132117018],[1711.7919824973214,1616.8808331778273],[1723.2489707905333,1580.5418016482145],[1727.277046321251,1570.9436087422073],[1732.1801177322632,1561.825430626981],[1738.1704705302836,1553.5099877445027],[1745.4524951864732,1546.319980673492],[1754.222596904845,1540.6114161238074]]}},{"type":"Feature","id":"way/1351151116","properties":{"intermittent":"yes","layer":"-1","tunnel":"culvert","waterway":"stream","osm_type":"way","osm_id":1351151116},"geometry":{"type":"LineString","coordinates":[[1754.222596904845,1540.6114161238074],[1782.1593359094113,1526.3895109957084]]}},{"type":"Feature","id":"way/1354580936","properties":{"layer":"-1","name":"Kelle's Coulee","tunnel":"culvert","waterway":"stream","osm_type":"way","osm_id":1354580936},"geometry":{"type":"LineString","coordinates":[[1694.1976589447004,421.19073491357267],[1713.4125405158265,422.4195547280833]]}},{"type":"Feature","id":"way/1354580941","properties":{"layer":"-1","name":"Kelle's Coulee","tunnel":"culvert","waterway":"stream","osm_type":"way","osm_id":1354580941},"geometry":{"type":"LineString","coordinates":[[1469.843787784339,417.1411568727344],[1473.3163567991578,417.72795104328543]]}},{"type":"Feature","id":"way/1354580942","properties":{"name":"Kelle's Coulee","source":"NHD","waterway":"stream","osm_type":"way","osm_id":1354580942},"geometry":{"type":"LineString","coordinates":[[1473.3163567991578,417.72795104328543],[1475.02105843334,418.02126563247293],[1479.3370569157996,419.1434983294457],[1482.2829864544328,418.8291123248637],[1494.3664060428855,414.7063512625173],[1505.0565389309777,411.96851175278425],[1516.3174282317632,408.3768344586715],[1530.9328153613606,408.2266027070582],[1537.0971320491517,409.0760448034853],[1544.2285299838986,411.47214760258794],[1554.035304627556,417.3301164479926],[1565.8012236294453,425.78159521892667],[1571.463479940372,431.35089980252087],[1575.6911698156036,438.97150024585426],[1577.8565215650597,441.2211784068495],[1580.7508610916557,442.4952321490273],[1590.5901110069826,445.0096521116793],[1593.3228229947272,444.7058602133766],[1596.097400877392,443.50238315202296],[1605.6060837227851,436.6958252405748],[1612.0476770522073,431.2363853091374],[1615.376169316878,429.5789347048849],[1617.7770358701819,429.3631405783817],[1620.6024669167819,429.82610069960356],[1630.685481733526,432.7189226280898],[1637.6188960357103,435.3145583458245],[1642.0472853911342,435.72624873928726],[1644.2437803107896,435.1655538752675],[1646.9875285109156,433.6843014964834],[1651.0485784178018,429.71822803653777],[1654.6861949877348,427.61727626342326],[1657.9643089710735,427.0927918367088],[1670.5791580181103,428.0261953752488],[1676.5185508903232,427.34218412451446],[1688.7942146308487,422.23163515143096],[1692.4447639575228,421.2082744669169],[1694.1976589447004,421.19073491357267]]}},{"type":"Feature","id":"way/1354580945","properties":{"name":"Kelle's Coulee","waterway":"stream","osm_type":"way","osm_id":1354580945},"geometry":{"type":"LineString","coordinates":[[1713.4125405158265,422.4195547280833],[1716.847061331151,422.4620574004948],[1728.9358732730616,422.2833090387285],[1738.9739853750216,421.2881675651297],[1750.1848813791876,418.718758947216],[1761.8093073882628,415.050725328736],[1766.1198934458662,415.22890494950116],[1770.00784040679,416.96116013266146],[1773.6146984898369,417.51515127997845],[1778.9482618549955,416.0408992106095],[1785.817518420983,416.04821689706296],[1789.4174081441597,413.3140492942184],[1791.5831461947528,412.45338979084045],[1793.0977427822072,412.9684510594234],[1795.4292539042071,415.06312842387706],[1797.6390258553438,415.4467536471784],[1803.8261339982273,413.6748813977465],[1813.445891024894,412.64540701080114],[1828.462157419417,410.23077424708754],[1832.3228114519734,410.3633538093418],[1838.9203031332,411.6030531739816],[1858.7204133903724,418.34375515021384],[1862.5808823862462,418.5430041430518],[1869.2406674381346,417.17237884085625],[1874.5870191156282,416.82021053880453],[1878.2078021142515,418.0630321018398],[1889.583020451595,427.76932690199465],[1899.4341309912852,434.6277210172266],[1903.3244947959902,438.370722822845],[1906.996089386812,444.17933794204146],[1908.9739298775676,445.65101907774806],[1912.6419436386786,446.9384223530069],[1920.771944573673,447.88241599686444],[1927.6373212827602,449.3117778636515],[1935.4791063441662,451.7213474996388],[1946.1035259074997,455.8047535819933],[1950.2000861016568,456.2824101764709],[1953.565814571688,455.4805988408625],[1964.9115008930676,449.801518894732],[1970.312765884737,446.6613174006343],[1974.1024840599275,443.8277903171256],[1976.1260252210777,443.0001332042739],[1987.8897606523242,443.3097706036642],[1992.8529519002186,441.5791928404942],[1999.021703667997,440.76279972773045],[2006.3346126904362,437.3056714879349],[2337.7155327437213,375.11778858024627]]}},{"type":"Feature","id":"way/1355298724","properties":{"intermittent":"yes","waterway":"stream","osm_type":"way","osm_id":1355298724},"geometry":{"type":"LineString","coordinates":[[1736.5218538685585,420.0041167056188],[1736.6634704929893,420.1933419564739],[1738.9739853750216,421.2881675651297]]}},{"type":"Feature","id":"way/1355298725","properties":{"intermittent":"yes","layer":"-1","tunnel":"culvert","waterway":"stream","osm_type":"way","osm_id":1355298725},"geometry":{"type":"LineString","coordinates":[[1730.3263963593054,410.14531598892063],[1736.5218538685585,420.0041167056188]]}},{"type":"Feature","id":"way/1355298726","properties":{"intermittent":"yes","waterway":"stream","osm_type":"way","osm_id":1355298726},"geometry":{"type":"LineString","coordinates":[[1728.207195135008,402.4635990327224],[1728.3547773097525,403.3748997282237],[1730.3263963593054,410.14531598892063]]}},{"type":"Feature","id":"way/1355298727","properties":{"intermittent":"yes","layer":"-1","tunnel":"culvert","waterway":"stream","osm_type":"way","osm_id":1355298727},"geometry":{"type":"LineString","coordinates":[[1724.2022808257025,373.59272188693285],[1728.207195135008,402.4635990327224]]}},{"type":"Feature","id":"way/1355298728","properties":{"intermittent":"yes","natural":"water","water":"pond","osm_type":"way","osm_id":1355298728},"geometry":{"type":"Polygon","coordinates":[[[1719.44475969224,366.32608304545283],[1719.3053356569726,371.2246073698625],[1719.870353725215,372.52582479454577],[1720.8867337018019,373.33946981839836],[1722.1648597181775,373.70947024878114],[1724.2022808257025,373.59272188693285],[1725.9177299640141,372.81970535591245],[1726.7727542748326,371.96662842296064],[1727.6714454698958,369.5473543582484],[1728.8341630073264,339.25728478468955],[1728.6419188324944,331.42520113289356],[1728.964045093162,314.3076958237216],[1728.1851593405008,310.3065139055252],[1726.0423487923108,305.5351914418861],[1723.2665047080955,301.27317354641855],[1721.3269872209057,300.2015628647059],[1719.9114410944749,301.0198165802285],[1719.3608415126218,303.1845237724483],[1719.5783565334277,316.3376979222521],[1721.709825924714,325.35247665364295],[1722.0022047217935,328.21927931159735],[1720.8324296851642,349.3447276465595],[1719.44475969224,366.32608304545283]]]}},{"type":"Feature","id":"way/1385686397","properties":{"intermittent":"yes","waterway":"stream","osm_type":"way","osm_id":1385686397},"geometry":{"type":"LineString","coordinates":[[1905.861653543776,1515.514029671438],[1908.343679346901,1514.3321145419031],[1920.572200974857,1505.5227091414854],[1927.4041968212114,1501.3643472036347],[1936.6594605529099,1497.3236391907558],[1946.7651877293247,1494.0739612085745],[1955.8178467918187,1491.9767425116152],[1968.2394066769048,1490.6218430101871],[1980.3959661412518,1490.9214344574139],[1988.4762402910856,1492.243081310764],[1995.9361960267415,1495.2404566193],[1999.3641341394396,1497.4937138380483],[2002.5458361711353,1500.301735330373],[2005.449603537505,1503.7088691098616],[2008.0436773871188,1507.7816802663729],[2010.2963896278525,1512.5534082325175],[2015.4323687973665,1528.2638729205355],[2018.5700819554622,1535.626322585158],[2023.5313956679893,1542.9826270658523],[2029.438314182742,1548.0642394749448]]}},{"type":"Feature","id":"way/1385686398","properties":{"intermittent":"yes","layer":"-1","tunnel":"culvert","waterway":"stream","osm_type":"way","osm_id":1385686398},"geometry":{"type":"LineString","coordinates":[[1882.8414561509271,1524.3720872262493],[1905.861653543776,1515.514029671438]]}},{"type":"Feature","id":"way/1385686399","properties":{"intermittent":"yes","waterway":"stream","osm_type":"way","osm_id":1385686399},"geometry":{"type":"LineString","coordinates":[[1782.1593359094113,1526.3895109957084],[1784.514697761857,1525.3294030800462],[1793.5506644493435,1523.5318437730893],[1800.900137024466,1523.5960166174918],[1809.0201458809315,1524.817566305399],[1822.4932973062387,1528.6862676050514],[1828.1032699100324,1529.7677873959765],[1841.0232631352847,1530.9023162173107],[1848.0492407350685,1530.8990203952417],[1862.475581783161,1529.649294404313],[1869.5760548579856,1528.368730369024],[1876.4172778917127,1526.6209121840075],[1882.8414561509271,1524.3720872262493]]}},{"type":"Feature","id":"way/1385686400","properties":{"intermittent":"yes","layer":"-1","tunnel":"culvert","waterway":"stream","osm_type":"way","osm_id":1385686400},"geometry":{"type":"LineString","coordinates":[[1868.6826628176495,1502.5165356267244],[1873.3736794298748,1519.4254165003076]]}},{"type":"Feature","id":"way/1385686401","properties":{"intermittent":"yes","waterway":"stream","osm_type":"way","osm_id":1385686401},"geometry":{"type":"LineString","coordinates":[[1862.8704266699497,1430.0392669010907],[1863.2341569174314,1432.7507531680167],[1866.660571769462,1491.2247135573998],[1867.627772997541,1498.4923663921654],[1868.6826628176495,1502.5165356267244]]}},{"type":"Feature","id":"way/1385686402","properties":{"intermittent":"yes","layer":"-1","tunnel":"culvert","waterway":"stream","osm_type":"way","osm_id":1385686402},"geometry":{"type":"LineString","coordinates":[[1860.1914377381909,1413.4912956906483],[1862.8704266699497,1430.0392669010907]]}},{"type":"Feature","id":"way/1385686403","properties":{"intermittent":"yes","waterway":"stream","osm_type":"way","osm_id":1385686403},"geometry":{"type":"LineString","coordinates":[[1847.5342970832135,1393.8171354262158],[1849.1268531930982,1394.6101377159357],[1853.8992812244105,1398.9331429721788],[1856.714239200286,1403.1175728850067],[1858.9034966607578,1408.0557044614106],[1860.1914377381909,1413.4912956906483]]}},{"type":"Feature","id":"way/1385686404","properties":{"intermittent":"yes","waterway":"stream","osm_type":"way","osm_id":1385686404},"geometry":{"type":"LineString","coordinates":[[1873.3736794298748,1519.4254165003076],[1874.1819380102097,1521.227195191197],[1876.133371007687,1523.5874897511676],[1878.2935313066118,1524.6597468564287],[1880.400829067803,1524.8431714996696],[1882.8414561509271,1524.3720872262493]]}},{"type":"Feature","id":"way/1385686405","properties":{"intermittent":"yes","natural":"water","water":"basin","osm_type":"way","osm_id":1385686405},"geometry":{"type":"Polygon","coordinates":[[[1858.1078197112074,1430.8706852886826],[1854.6856476580142,1432.3055849755183],[1853.4972058956046,1433.8909168150276],[1853.0920398525777,1437.766736984253],[1856.1412384266732,1463.4136716881767],[1860.5988168801414,1493.7300302004442],[1861.788634232711,1497.4879548009485],[1863.48671186727,1500.125278159976],[1865.7637695109588,1501.7643862916157],[1868.6826628176495,1502.5165356267244],[1874.2411364456057,1502.2093778979033],[1876.0187082561897,1501.7142850579694],[1879.0544458168442,1500.1228331672028],[1881.2553346134373,1497.8070685546845],[1882.0012092341785,1496.398285375908],[1882.6888765218318,1493.1564210392535],[1882.591197130445,1491.323233263567],[1874.3959676299128,1436.035682670772],[1872.9603105192073,1432.6881122887135],[1870.8025150613976,1430.727173289284],[1868.0259582809522,1429.8754294104874],[1864.710364224913,1429.8442720137537],[1862.8704266699497,1430.0392669010907],[1858.1078197112074,1430.8706852886826]]]}},{"type":"Feature","id":"way/1385686406","properties":{"intermittent":"yes","natural":"water","water":"basin","osm_type":"way","osm_id":1385686406},"geometry":{"type":"Polygon","coordinates":[[[1850.6976412010845,1409.344411501661],[1852.8858006717637,1411.7608792064711],[1854.1310862817918,1412.5196212707087],[1856.7182458601892,1413.3486313913018],[1860.1914377381909,1413.4912956906483],[1863.6344293460133,1413.1228834930807],[1865.4361575543298,1412.461223339662],[1867.1056876424118,1411.0549290385097],[1868.4702710683923,1408.5591671140864],[1869.3727382555953,1404.7069064164534],[1869.6853696461185,1400.0199079122394],[1869.2797556930454,1395.275429292582],[1867.995998517552,1391.2173176789656],[1866.973822132859,1389.6926791435108],[1865.6820353759103,1388.6116590024903],[1864.0966854434228,1388.0741705019027],[1858.1042171714362,1388.2690815562382],[1853.917516572168,1389.2353588491678],[1850.3450891242828,1390.7587250592187],[1848.0188511377783,1392.7075776429847],[1847.5342970832135,1393.8171354262158],[1847.1908817304065,1398.2152276076376],[1848.321574198606,1403.4171115607023],[1850.6976412010845,1409.344411501661]]]}},{"type":"Feature","id":"way/1385686407","properties":{"intermittent":"yes","waterway":"stream","osm_type":"way","osm_id":1385686407},"geometry":{"type":"LineString","coordinates":[[1735.7820701432065,1378.1205559214577],[1739.8722420217819,1377.8204608112574],[1770.8632208788767,1375.9816936952993],[1788.5870745023713,1375.7515279473737],[1802.810272583214,1376.778389650397],[1807.4411976966658,1377.9572379477322]]}},{"type":"Feature","id":"way/1385686408","properties":{"intermittent":"yes","layer":"-1","tunnel":"culvert","waterway":"stream","osm_type":"way","osm_id":1385686408},"geometry":{"type":"LineString","coordinates":[[1807.4411976966658,1377.9572379477322],[1847.5342970832135,1393.8171354262158]]}},{"type":"Feature","id":"way/1385686417","properties":{"intermittent":"yes","natural":"water","water":"basin","osm_type":"way","osm_id":1385686417},"geometry":{"type":"Polygon","coordinates":[[[2000.5073146100622,1428.3233703095466],[1997.718412561051,1429.1156140035018],[1995.3545723525458,1430.3644674597308],[1993.4633115738397,1432.0145161245018],[1992.1001324462704,1433.9770412752405],[1991.3126424776274,1436.1633028257638],[1991.1483584273956,1438.5178864663467],[1991.6707063591457,1440.9409867310897],[1992.9193385021645,1443.3660597093403],[1994.9418618122581,1445.7043661000207],[1997.8016117548104,1447.8894269298762],[2001.466527125216,1450.0988942971453],[2010.5317557025119,1455.0224419692531],[2020.7572625736939,1460.0158108184114],[2030.755782283377,1464.2865171497688],[2039.1557255897205,1467.0865459870547],[2042.3276279370766,1467.6950512407348],[2044.8223088042578,1467.6796296853572],[2046.8213091325015,1467.051883785054],[2048.3637379705324,1465.945223226212],[2049.465202543477,1464.4263420030475],[2050.1570077989018,1462.5953028891236],[2050.4467451364617,1460.5632127681747],[2050.3736741899047,1458.4079390009865],[2049.216929777176,1454.139072100632],[2046.8511919956654,1450.289039351046],[2041.627350447292,1443.65406413842],[2032.0949046681053,1433.4637092463672],[2027.3995406538015,1429.88505827263],[2023.259657804505,1428.1519549591467],[2020.7035288829939,1427.5340258376673],[2014.3895052982261,1426.9614202342927],[2006.1462832552497,1427.4722224688157],[2000.5073146100622,1428.3233703095466]]]}},{"type":"Feature","id":"relation/272005","properties":{"intermittent":"no","name":"Saint Croix River","natural":"water","tidal":"no","type":"multipolygon","water":"river","osm_type":"relation","osm_id":272005},"geometry":{"type":"Polygon","coordinates":[[[2105.3044230996165,1492.6058281240985],[2103.161595728656,1496.7545994026586],[2100.1905953469104,1500.6345008052886],[2096.2811150383786,1504.1674716407433],[2091.3543946003774,1507.2866466781124],[2085.487952064257,1510.5143456971273],[2078.988424085721,1514.3068622443825],[2072.0852030262467,1518.4981946498156],[2064.9997555447626,1522.9334273850545],[2057.977229958633,1527.457708550617],[2051.239150905516,1531.8939035283402],[2045.014814905997,1536.1093325046822],[2039.5415327347,1539.926902167499],[2035.0407651743153,1543.19169272203],[2031.7497913355473,1545.7377185616642],[2029.438314182742,1548.0642394749448],[2026.4395274030976,1553.4770908178762],[2025.278988747974,1559.30596519541],[2026.9255126282806,1569.2526733307168],[2033.5965723378467,1574.9140186132863],[2040.5078082466498,1576.443613210693],[2050.0147669199505,1575.6252581169829],[2062.223356714938,1571.2595211528242],[2069.378312299319,1567.3687980175018],[2076.8193190735183,1562.8012368883938],[2084.1341496981913,1558.1889053173363],[2091.307045866328,1553.520651188679],[2098.3380378122674,1548.785365481861],[2105.227095068025,1543.9941562805325],[2111.9584593094187,1539.135871399194],[2118.532130387146,1534.2105103405192],[2124.94810814003,1529.2180726239458],[2131.190603799594,1524.1585145499557],[2137.267541874491,1519.0207486841828],[2143.155878357298,1513.571430111304],[2148.8245538772317,1507.6216264199466],[2154.2340061429422,1501.2045544851571],[2159.3367172215367,1494.3756265277043],[2164.085199153633,1487.1791461091489],[2168.447752224398,1479.6594600202516],[2172.3689627562417,1471.87195858825],[2175.809205304773,1463.872075425461],[2178.728914995794,1455.6930270623416],[2181.0805712157744,1447.390225501731],[2183.3385986927315,1438.6872569965199],[2185.9692255837144,1429.4187723407522],[2188.948313216679,1419.751335198991],[2192.243736632867,1409.8848131932318],[2195.8234314039,1399.9968568282202],[2199.6553020093706,1390.2762251086533],[2203.715146740724,1380.9116986952722],[2207.9630353338434,1372.0697976900265],[2212.3668396180146,1363.9503894597292],[2216.910250191111,1356.7422761777416],[2221.553212253959,1350.6564119020477],[2226.2719483900582,1345.7260572733358],[2235.7480601393618,1339.0425335383043],[2244.953448781045,1336.06856084615],[2253.4951170040877,1336.1698626466095],[2260.995861494681,1338.7122040297836],[2268.4157852262724,1341.9319578101858],[2276.532872354146,1344.2649540212005],[2284.724378810264,1345.3762165075168],[2292.359576306946,1344.9640698432922],[2296.0768516368116,1345.3520345259458],[2296.711237460375,1344.331793420948],[2297.6767943221494,1343.4568798262626],[2298.79990418948,1342.7045967793092],[2300.127842086542,1342.1084009250626],[2301.6920325378887,1341.723922423087],[2303.5001242754515,1341.640051648952],[2305.5599194388487,1341.8901362791657],[2307.8949476598646,1342.5297847855836],[2314.172873223375,1344.7577656349167],[2316.215556465788,1345.485477569513],[2319.512514863047,1346.561028282158],[2323.1568616554723,1347.6264334945008],[2327.1802055051085,1348.6706726644188],[2331.637900149799,1349.6605738820508],[2336.5852686348953,1350.57407401409],[2342.0539813145297,1351.377936041914],[2348.099392226839,1352.038988813758],[2383.402936366445,1355.2362388838083],[2398.430034819292,1356.7332180822268],[2413.180355287448,1358.3960921643302],[2420.290830478596,1359.304565826431],[2427.353720210551,1360.2906753560528],[2434.526821443753,1361.38818596676],[2441.731126863626,1362.6190951718017],[2448.895616484806,1363.972096494399],[2455.933326574217,1365.4913818566129],[2462.789026202052,1367.1656881477684],[2469.367888119712,1369.0280760787427],[2475.598830578674,1371.089455015026],[2481.4107719323365,1373.3607340967283],[2486.7326306745526,1375.8528222767636],[2491.48552409478,1378.5432806769386],[2495.6775021528592,1381.3765873508528],[2499.3718763338984,1384.2973749879748],[2502.6003492592718,1387.2612968133762],[2505.4025491354987,1390.2129197483882],[2507.8338931176113,1393.0968550248072],[2509.9418417376583,1395.879909047857],[2511.7581597667304,1398.495518530719],[2514.7137644591858,1403.04721825663],[2523.784875694313,1417.036156850867],[2527.644714744587,1422.8789955619723],[2531.898241090763,1429.089524101466],[2536.4984597737202,1435.5343080051243],[2541.429922798241,1442.091109755449],[2546.669319302484,1448.6265611546114],[2552.1854445628705,1455.007271837443],[2557.9550200121594,1461.088764956221],[2564.9215370307793,1468.2400504117832],[2573.737320201879,1477.496066405438],[2583.930096044962,1488.3556056898087],[2629.312051428191,1537.0835127839819],[2639.504637926526,1547.943142035976],[2648.3122777207172,1557.2103487290442],[2655.2786203428986,1564.3506255419925],[2662.4110711852554,1571.3691836064681],[2682.4240922731115,1590.599180023186],[2729.9145770950126,1635.7456792984158],[2748.4864390477887,1653.6054430203512],[2780.4151245742105,1685.377866475843],[2795.914418269589,1700.973992860876],[2803.494345773186,1708.7604792788625],[2810.632977049856,1716.2680036928505],[2817.1097866924247,1723.318198892288],[2822.696451557451,1729.699348796159],[2837.0069060550304,1746.880729848519],[2849.4268380809226,1762.6126313973218],[2861.9874383524875,1778.822630723007],[2874.225241590175,1794.7095834417269],[2886.010020496149,1808.8845349419862],[2913.145721095847,1843.3766767298803],[2920.340415906394,1852.4174802806228],[2961.470042474859,1852.5352951465175],[2964.194500262791,902.4100573081523],[2951.072897499136,902.3724477281794],[2932.842317836592,899.8652317989618],[2917.196892472799,898.9095602976158],[2907.039808552712,897.5252669667825],[2898.702071228472,897.6902870656922],[2891.2491219103686,897.6689980737865],[2876.3546010000864,890.8724314076826],[2867.559283913579,888.1479425597936],[2859.4292781138793,887.4471331732348],[2830.2750464188284,892.0963600473478],[2764.4946440603235,908.1169535648078],[2717.0248296727077,920.8129667118192],[2698.7129262583912,927.5152403395623],[2673.6097029368975,937.5754210408777],[2653.932341554668,946.973365996033],[2645.787145734532,951.6826867396012],[2640.3632766010123,951.6674066623673],[2641.7383659378975,945.5837515136227],[2649.2083827573806,939.528378777206],[2667.535429184034,927.4272131863981],[2692.642510868085,916.0117668695748],[2725.8949597221217,899.8982981713489],[2748.288233713538,887.8088717749342],[2767.294832819607,878.4093129569665],[2784.94140595285,866.9730696519837],[2800.5608890556614,854.8645964004099],[2816.1842856558505,841.4009195454419],[2831.1328017525957,829.290612347424],[2841.3381298916065,813.7786978473887],[2842.728783890314,802.3074455149472],[2841.3958360411925,793.5167242679745],[2837.3586221795413,783.3852675091475],[2832.359938504116,775.4061503279954],[2826.285759376711,765.2577943280339],[2816.8204017374082,748.2124497154728],[2812.7812563288026,738.7364130383357],[2806.033986044349,729.2637895373628],[2801.3215310126543,717.7751853652298],[2799.3018101098132,711.6930277198553],[2794.5836183874635,702.2150739682838],[2792.579448403965,693.4335667490959],[2788.549789965444,680.591659957543],[2781.134930729517,667.0625201854855],[2773.7200399921276,653.5333893718198],[2771.0289272033842,644.7499407893047],[2761.5963673118385,627.1604532897472],[2755.5200133174076,617.6897880854085],[2747.41643570218,607.5357590429485],[2743.382824152417,596.0380154782906],[2743.4038743840065,588.6064059408382],[2743.4287318749703,579.8306638486683],[2741.4359356600326,566.9945597136393],[2736.7366738422425,550.7626627478749],[2732.7068115546135,537.9207945410162],[2730.7139801367885,525.0846946891397],[2727.362849869125,509.54535655491054],[2725.3661950520473,498.0533914612606],[2723.3635230889777,485.89489292539656],[2719.3259565270273,475.75240799970925],[2713.9458933413844,462.89562584646046],[2706.532505310024,448.70006629358977],[2701.819693118043,437.2004329441115],[2696.4354634627816,422.99951184820384],[2695.7869705794146,412.1889925766736],[2693.7921100216918,400.03052747249603],[2689.758268688689,388.53282207250595],[2689.8078335960163,370.9813435599208],[2689.1536143808626,362.1925784256309],[2688.520346887468,345.98331532720476],[2688.1537206257344,344.3159872787073],[1971.1146281480324,342.3314018622041],[1971.516899381415,343.28783337119967],[1989.5006272300961,390.90370632801205],[1999.4983379236655,413.53688272088766],[2010.1549084127764,434.84994160570204],[2011.7809261836228,440.84190414100885],[2012.61677434569,447.0538914119825],[2012.4731698431424,459.2174334572628],[2011.429347985366,465.61315784975886],[2008.224522086617,476.93523390963674],[2003.6196855206508,489.1755227316171],[1997.965390706784,501.17968353349715],[1989.0799093740643,513.886028076522],[1969.5638696051901,536.4835422402248],[1963.8635356767336,545.1216981839389],[1958.8155325417174,554.8724885974079],[1955.6419941951171,563.4397399500012],[1953.438564237149,575.308879985474],[1952.2882877967786,588.9693611115217],[1952.6107091023587,598.1903858566657],[1953.917770471715,608.2583332564682],[1956.3360943446169,619.0624609319493],[1958.6934667453752,626.1339293681085],[1961.7622325185803,632.9073943914846],[1965.6902638741885,640.1719697369263],[1972.710202725546,651.4884697711095],[1990.4256778021809,675.4422894120216],[2000.2366671096534,691.0765431504697],[2004.407834131387,698.9083433821797],[2009.068725989142,709.5630666669458],[2011.9031497195829,718.2799284271896],[2014.2827626170474,728.7507168026641],[2015.6071272103,732.4090533750132],[2019.5532130802167,738.7961317189038],[2026.1973839510465,745.9570475863293],[2030.460041877057,749.1568204164505],[2040.9398872003076,756.839187967591],[2041.9797300750506,757.697383325547],[2043.6244506512885,759.6791967973113],[2045.115287847293,763.0824949042872],[2045.4877841502894,765.4607541412115],[2045.2574590274016,768.8593644862995],[2044.641690132732,771.7348198881373],[2043.1649795321864,774.7412340333685],[2041.3050043694675,776.4246790455654],[2039.0685701657785,777.185084104538],[2036.2897555236705,777.0664323857054],[2034.846321427205,776.5515064923093],[2032.5318087402848,774.0902015035972],[2030.1909432852408,769.7070344220847],[2028.449422924372,768.4803471164778],[2026.7217882047407,767.953541113995],[2008.7153042831342,766.9714493779466],[1979.4723619380966,766.5254481118172],[1940.7308202203712,766.2871374413371],[1923.6400766654406,765.3410900663584],[1914.8767583148438,765.1729812948033],[1863.6281403354951,765.2790304040536],[1835.8838133319514,765.3820462543517],[1833.347231793392,766.1972583597526],[1832.4770825734013,766.8169997297227],[1831.336104813905,768.3247020216659],[1830.755389874801,769.9449979308993],[1830.23365324497,773.1206590784714],[1830.0809362932923,779.9964828221127],[1831.9353004461154,800.9189999653026],[1833.6714255975094,815.8980891704559],[1834.3444020315073,818.1327324127778],[1835.5315203164355,820.0132834995165],[1837.2882556263357,821.4621316837147],[1839.6622181130224,822.3905366323888],[1842.7088536677766,822.7319965865463],[1872.512072148209,823.189994734712],[1930.8015397426789,823.5363035248592],[2000.0741992436815,823.5352785196155],[2030.1707369249198,823.5504619944841],[2031.8372207373613,823.3328250283375],[2033.5372507207212,822.3932194551453],[2034.4966476892587,820.8961671646684],[2035.978845429956,812.9686468597502],[2036.4311990244896,812.1145145455375],[2037.657643004146,811.1291863052174],[2039.545860715618,810.6677653705701],[2042.7577156305779,811.2208341164514],[2044.9804339582915,812.593248181045],[2046.16129100736,813.8517387798056],[2047.9653787971474,818.1890153475106],[2049.0195144213503,822.4909234046936],[2049.63687266974,827.7247658353299],[2049.875401547004,841.6000835197046],[2049.9228378749103,858.9629880497232],[2049.563316334621,863.4165657898411],[2048.7254622159526,866.6691092634574],[2047.5823931545601,868.9321540519595],[2046.291375587578,870.439409754239],[2044.3536258848035,871.70051450748],[2041.7875965718995,871.7379604326561],[2038.9723116719979,870.5305630657822],[2037.3340012991684,869.1041988274083],[2035.3204446266172,866.3104530237615],[2033.5724776952993,864.5616412293166],[2031.255184873531,863.1334304157645],[2028.178509055986,862.2363678310066],[2024.1919297593995,862.0588916298002],[1989.1145030942862,864.6629530740902],[1920.4439937638817,866.965206974186],[1870.7824770151637,867.3087677909061],[1847.0642883546534,867.7225237768143],[1843.1691894394462,868.7562460983172],[1841.4767660414218,869.8181173186749],[1840.0910561263445,871.325159384869],[1839.2574955770979,873.0225344803184],[1838.8895369525999,874.7989232391119],[1839.1513037857949,880.2095257267356],[1842.6413200658862,906.4685902986676],[1843.4425485501997,907.9815198387951],[1845.216064904409,909.0527226207778],[1848.609652449959,909.5395319461823],[1915.0617649793276,907.008340398781],[1979.1803112077178,903.2495565935969],[1986.143063540454,903.5239524496719],[1991.1604324574,904.9705869583413],[1993.8555051957956,906.8330456344411],[2003.3845456342679,918.5896370140836],[2017.0521988020046,935.5563318841159],[2017.9480019535404,937.113975240849],[2020.644279383705,944.3308048378676],[2022.415709253226,949.0567881856114],[2023.5168699871865,950.5816651480272],[2025.5338808089728,952.0979254860431],[2030.8637074780418,954.7562815127894],[2032.6360610168194,956.238552373834],[2034.2261937868316,957.953608777374],[2036.9314869926893,961.8489917907864],[2038.5224641308305,963.2530101360753],[2040.80048602866,964.5922480784357],[2044.9964742772863,966.1255574468523],[2051.909697282361,967.1663852836937],[2059.988801495405,969.1546319341287],[2068.208283369255,971.7764632357284],[2072.3801512261853,973.465245557949],[2075.5961186776985,975.3735946957022],[2078.392013594159,977.8806647248566],[2079.5013542043744,979.2944875610992],[2080.3657077486278,980.796510912478],[2081.1307428072323,983.9756655255333],[2080.936836835579,985.5969953741878],[2079.8169466927648,988.0489446613938],[2076.755019421398,990.4511598302051],[2073.491129220871,991.6419853987172],[2069.352779066947,992.1416926085949],[2066.9845654809615,992.0352556621656],[2049.0155630192603,989.1202485458925],[2037.9885753991548,988.2570680007339],[2030.0937979354057,988.16892522946],[2008.2625153571717,988.7427386594936],[2004.1796446656808,989.1648783776909],[2000.9720583878225,989.9782006200403],[1998.7959658810287,991.8052113577724],[1998.0584458164521,993.0140477456152],[1997.150937642029,995.7665211167186],[1996.9418065240025,997.1878568371758],[1997.1564456502674,1005.3643868472427],[1997.667756590643,1026.3944007568061],[1998.3072394764167,1035.1164079001173],[1999.4529234448564,1037.6856126161292],[2001.13778341125,1039.4009184511378],[2004.4423334007734,1040.6651726197451],[2010.4885237773997,1041.1592775005847],[2015.9331909540342,1042.2071835044771],[2019.0876732619363,1043.493254410103],[2021.2693303046399,1045.4209807151929],[2022.5883884851355,1048.1017475388944],[2023.424225795432,1051.3810657272115],[2023.6435062788078,1054.9364222195],[2023.1206685080542,1058.489759738557],[2020.7239072016673,1063.0822103954852],[2018.452642109245,1065.0755850542337],[2015.7649747332325,1066.3235502708703],[1981.9915576711646,1071.7527823718265],[1971.6988354408531,1073.8354935115203],[1967.9294958838145,1075.1138706356287],[1965.793608622509,1076.6855032891035],[1964.3647347170627,1079.5587626816705],[1964.4580039335415,1085.9242575326934],[1970.6256603703368,1137.673851470463],[1976.7794991136761,1194.4778438098729],[1978.3231199900038,1198.7699624560773],[1981.2365006388864,1201.599460305646],[1985.0611157168169,1203.198375591077],[2012.2585705015808,1208.993209933862],[2020.2444580894662,1210.3146377289668],[2027.2714836763334,1210.0560409445316],[2035.0214022956206,1208.155343032442],[2039.9936651554308,1205.780527128838],[2097.650846450182,1158.8816571608186],[2111.0567783807055,1147.1320460140705],[2113.449745964783,1143.9393050018698],[2115.078047226707,1140.333454302512],[2115.6889571778593,1136.347128010355],[2115.544789798383,1134.213877310045],[2114.1991308192373,1129.7334203589708],[2103.684332645673,1103.321684752591],[2094.573248416127,1080.3463677503169],[2090.8749818021315,1072.937921452336],[2088.3230247484753,1070.7425529882312],[2086.1465008826926,1069.836811193265],[2077.9067242128076,1068.9145200690255],[2072.2441853758064,1066.710669733584],[2067.6998784903553,1062.654733880423],[2065.758934812271,1059.3168526664376],[2064.9526818092563,1053.8825361868367],[2066.4838283357676,1048.2657475927845],[2070.4616061323322,1042.9444573810324],[2074.5755275607225,1039.811940241605],[2077.0264616350178,1038.530027711764],[2082.430998501077,1036.9229193581268],[2091.353599700029,1036.4473941428587],[2103.5706539205858,1038.0359801473096],[2112.626493620395,1040.8045673044398],[2136.154167597939,1052.0775500452146],[2174.389376915933,1069.3340777475387],[2187.262463642459,1076.3678512005135],[2192.2585531264776,1079.7474871724844],[2195.8656333983527,1082.945572577417],[2204.933070270985,1092.9460390536115],[2216.4107429814176,1107.8409442529082],[2236.0014311062405,1129.50114449393],[2243.4261978878058,1139.6526642572135],[2249.5009370047483,1149.8004721710458],[2256.2485785714234,1159.2725149169564],[2260.2938805150916,1166.715341873467],[2265.672858793696,1182.9376674294472],[2270.385476268886,1191.7264861790463],[2269.5436766578932,1199.244705739431],[2267.2273799394607,1206.1034483779222],[2263.8707058408763,1212.337238933891],[2259.00658398401,1218.4113535070792],[2256.459873577289,1220.0817346014082],[2251.997147547605,1220.8803619872779],[2247.3973694609595,1219.845690883696],[2242.2186169592314,1216.9098523845896],[2240.1986503973603,1216.5154859256],[2237.6383576447843,1217.3860157215968],[2235.754591023957,1219.1359913060442],[2226.1450847620727,1231.1957243895158],[2223.3186206063256,1234.1206238036975],[2218.4155902438797,1237.1397888092324],[2214.829676204012,1237.7631162554026],[2211.0899939344963,1236.8863578140736],[2209.1982706443523,1235.7925100913271],[2189.896185276273,1221.2427022587508],[2160.919528701983,1199.301395939663],[2135.021208062244,1180.401306017302],[2130.385192919697,1178.1668881969526],[2124.4663680806407,1177.3397590182722],[2119.0618778365897,1178.9690490681678],[2113.099048676784,1182.685238798149],[2103.816013750911,1190.9024611990899],[2092.369314471958,1202.2019852716476],[2078.981424407277,1216.0734329381958],[2051.1518886723206,1248.1570142116398],[2027.4297831152799,1276.6304801376536],[2002.8923777493765,1308.8787521868944],[1974.87614026136,1346.0499100759625],[1974.1517414631671,1348.2585619026795],[1974.4407320785685,1352.3139957552776],[1975.2963206779677,1354.1270238105208],[1977.5310959636117,1356.810267617926],[1981.572926212626,1359.7872412577271],[1985.751763978391,1361.7314868737012],[1989.2528490000986,1363.2406581873074],[2010.5217756308848,1371.5854876367375],[2014.2534812385566,1372.4732164228335],[2018.2238937275833,1372.6728615993634],[2023.8003925687517,1371.5882779350504],[2026.7102795547107,1369.8632498038933],[2053.131588679331,1335.74284221977],[2101.23588375299,1274.143472631462],[2109.4898249513935,1264.012748020701],[2111.3655580425984,1262.2960393726826],[2115.381737775926,1260.2186005068943],[2119.598986539175,1259.6747050676495],[2123.7970726404455,1260.3638178203255],[2127.7716152310604,1261.9632290871814],[2147.206757755368,1274.058208014816],[2165.0167902800604,1285.6933350004256],[2167.4178150159423,1288.1882543396205],[2168.8536564028473,1291.424804794602],[2168.6572988199187,1293.9348165504634],[2167.1024337555864,1296.6743827434257],[2153.3973935822723,1311.0558038074523],[2143.6739000717644,1321.6045745080337],[2136.093933866825,1330.670672930777],[2128.4475793495076,1340.9252221100032],[2114.821989314514,1360.9612363446504],[2099.382365514408,1383.2918088948354],[2097.3106472771033,1387.4074500203133],[2095.954080220952,1392.7136692740023],[2095.5001270677312,1399.9441480915993],[2096.822129472159,1415.9552983697504],[2099.886878890218,1435.5592999644578],[2106.7639798081364,1469.8371205320582],[2107.654456925462,1479.081937734969],[2106.705792410765,1488.2328577563167],[2105.3044230996165,1492.6058281240985]]]}}]}