{"type": "FeatureCollection", "features": [{"type": "Feature", "id": 348, "geometry": {"type": "Polygon", "coordinates": [[[-92.78487046694353, 44.89562205608667], [-92.78486847537854, 44.89603347024286], [-92.78525434760715, 44.89603158662787], [-92.78525633647719, 44.895620171821825], [-92.78487046694353, 44.89562205608667]]]}, "properties": {"OBJECTID": 348, "PIN": "2202820410036", "LAND_TYPE": null, "Shape_Length": 215.21539959683952, "Shape_Area": 2777.029916771804}}, {"type": "Feature", "id": 349, "geometry": {"type": "Polygon", "coordinates": [[[-92.78525633647719, 44.895620171821825], [-92.78525434760715, 44.89603158662787], [-92.7854472841706, 44.89603064418403], [-92.78602609116605, 44.89602781367053], [-92.78602807374787, 44.8956163988375], [-92.78525633647719, 44.895620171821825]]]}, "properties": {"OBJECTID": 349, "PIN": "2202820410037", "LAND_TYPE": null, "Shape_Length": 301.12714760085163, "Shape_Area": 5554.059942355171}}, {"type": "Feature", "id": 955, "geometry": {"type": "Polygon", "coordinates": [[[-92.78289648737864, 44.89687219522329], [-92.78289544982448, 44.89708531065967], [-92.78308838818457, 44.897084371414785], [-92.78308943472187, 44.8968695136565], [-92.78308946795954, 44.896862910281754], [-92.78304981542458, 44.89686793424287], [-92.78296840021206, 44.8968782513385], [-92.78289648737864, 44.89687219522329]]]}, "properties": {"OBJECTID": 955, "PIN": "2202820410011", "LAND_TYPE": null, "Shape_Length": 111.52401026234055, "Shape_Area": 717.3077963870948}}, {"type": "Feature", "id": 956, "geometry": {"type": "Polygon", "coordinates": [[[-92.78274221340668, 44.89663350983314], [-92.78251177936663, 44.89663462980869], [-92.78251157904232, 44.89667577107777], [-92.78251094123847, 44.8968064350746], [-92.78251024055255, 44.896950052876726], [-92.78250930271138, 44.89714204140328], [-92.782625071297, 44.89714147823872], [-92.78262533899496, 44.89708662343888], [-92.78274109859741, 44.89708606027377], [-92.78289544982448, 44.89708531065967], [-92.78289648737864, 44.89687219522329], [-92.78286034186654, 44.89686915157496], [-92.78282455298563, 44.896866137198415], [-92.78281024461978, 44.89686081733574], [-92.78276673561732, 44.896844640113855], [-92.78274229425506, 44.89684082521093], [-92.78274310363713, 44.89667464601222], [-92.78274330485975, 44.89663350474234], [-92.78274221340668, 44.89663350983314]]]}, "properties": {"OBJECTID": 956, "PIN": "2202820410010", "LAND_TYPE": null, "Shape_Length": 241.2794944394429, "Shape_Area": 2553.881352654693}}, {"type": "Feature", "id": 2417, "geometry": {"type": "Polygon", "coordinates": [[[-92.78037311794891, 44.89448012111168], [-92.78032266946086, 44.8945178287799], [-92.78031519188444, 44.89452254303216], [-92.78067784176463, 44.89451337671304], [-92.7816425632095, 44.89448898643141], [-92.78179691802984, 44.89448508291631], [-92.78194190342174, 44.89448437908716], [-92.78195672023402, 44.89448430717697], [-92.7828675804911, 44.89447987992608], [-92.78295993448883, 44.8944794306463], [-92.7832337508689, 44.89447809935271], [-92.78338128927284, 44.894477380886926], [-92.78341058962248, 44.89444346152668], [-92.78341197662127, 44.89444193804731], [-92.78343399073562, 44.894417780648425], [-92.78344103173083, 44.89441005506416], [-92.7834565591105, 44.89439388478929], [-92.78347259942822, 44.89437717995512], [-92.78347962425374, 44.89437023074267], [-92.78350325264067, 44.89434685605497], [-92.78350527474836, 44.894344855928104], [-92.78352760147642, 44.89432385936475], [-92.78353903882663, 44.894313102075344], [-92.7835524264193, 44.89430112357927], [-92.78357387010347, 44.89428193748905], [-92.78357772657097, 44.89427865251713], [-92.783603671713, 44.894256553726244], [-92.7836097488159, 44.8942513780795], [-92.78363018459031, 44.89423480238833], [-92.78364665520104, 44.89422144357541], [-92.78365715111681, 44.89421333359337], [-92.78368456769928, 44.89419215052353], [-92.78371136085094, 44.8941717151889], [-92.7837282033642, 44.89415857654784], [-92.78373267427938, 44.89415508792824], [-92.7837378297108, 44.894151067297024], [-92.7837799948336, 44.89411751620691], [-92.78378254425238, 44.894115487435116], [-92.78379003440523, 44.89410930184427], [-92.7838263317326, 44.894079329719936], [-92.78382985133187, 44.89407651629261], [-92.78384113956173, 44.89406685352742], [-92.78387179367249, 44.894040616922595], [-92.78387708115626, 44.89403609036248], [-92.78387788604675, 44.894035376345805], [-92.78389104187409, 44.89402368925331], [-92.78391623602454, 44.894001309084956], [-92.78392327073153, 44.893995059843945], [-92.78392484278328, 44.89399361080903], [-92.78393976380015, 44.89397985038487], [-92.78395970819608, 44.89396145711612], [-92.7839684020914, 44.893953440008765], [-92.78397070537179, 44.89395123559043], [-92.78398728917026, 44.89393535155739], [-92.7840021967124, 44.89392107374252], [-92.78401246176114, 44.89391124358332], [-92.78401545584599, 44.89390826341624], [-92.78403359911978, 44.89389021122432], [-92.78404368989537, 44.89388016978159], [-92.78405543357108, 44.893868483930284], [-92.78405908162944, 44.89386471146741], [-92.78407867568241, 44.893844444020914], [-92.78408417247364, 44.89383875859612], [-92.78409730494478, 44.89382517632158], [-92.78410156565417, 44.8938205931066], [-92.78412250358681, 44.89379806903706], [-92.78412363456577, 44.893796852912736], [-92.7841380606109, 44.89378133411991], [-92.78414289354714, 44.89377592424207], [-92.7841620635953, 44.89375446418511], [-92.7841650675616, 44.89375110090816], [-92.78417768889136, 44.89373697259729], [-92.78418305363023, 44.893730718872895], [-92.78419944788418, 44.893711607049056], [-92.7842063496405, 44.893703559360546], [-92.78421617451477, 44.89369210638928], [-92.78422202883546, 44.89368499418014], [-92.78423577485594, 44.893668292958374], [-92.78424633634873, 44.893655461575136], [-92.78425350670133, 44.893646750131495], [-92.78425980838306, 44.89363876416305], [-92.78427103552747, 44.89362453463967], [-92.78428501151666, 44.893606823460146], [-92.78428967197635, 44.89360091845963], [-92.78418451698583, 44.8935487343675], [-92.783729724212, 44.89332303719435], [-92.78253409261997, 44.894060897027536], [-92.78250711531368, 44.89407754595232], [-92.78246816615959, 44.89407775850258], [-92.7817984433692, 44.894081400494], [-92.78154391381827, 44.89408278397976], [-92.78152351397648, 44.89410368962914], [-92.78146691831695, 44.89415878846141], [-92.78136543743592, 44.89423884719597], [-92.7812245887859, 44.894335757036444], [-92.78107069120806, 44.89443028221973], [-92.7809908543355, 44.89446591979692], [-92.7809482948523, 44.8944746272982], [-92.7808704495447, 44.89447040050427], [-92.78079591902053, 44.89446154345448], [-92.78074963332553, 44.894460557075085], [-92.78071251403965, 44.894469675674635], [-92.78067868887594, 44.89447610177595], [-92.78064872197639, 44.89447751452537], [-92.78060248299377, 44.89447149506701], [-92.78048927460671, 44.894463620578534], [-92.78040862745377, 44.894468283925335], [-92.78037311794891, 44.89448012111168]]]}, "properties": {"OBJECTID": 2417, "PIN": "2202820440002", "LAND_TYPE": null, "Shape_Length": 1042.5431697873137, "Shape_Area": 29169.53946644863}}, {"type": "Feature", "id": 2418, "geometry": {"type": "Polygon", "coordinates": [[[-92.7819400906215, 44.89176008152292], [-92.78207210883228, 44.8919876431213], [-92.78233614974543, 44.892442764253275], [-92.78248986855853, 44.89270772271829], [-92.78294859325837, 44.892935381116814], [-92.783729724212, 44.89332303719435], [-92.78418451698583, 44.8935487343675], [-92.78428967197635, 44.89360091845963], [-92.78429637251007, 44.89359204345717], [-92.78430520654257, 44.89358034354688], [-92.78432233741503, 44.89355765519624], [-92.78432619837413, 44.89355254185223], [-92.78433173738617, 44.89354485942586], [-92.78433830946078, 44.893535742588845], [-92.78435832123037, 44.89350798478315], [-92.78436142401135, 44.893503681552026], [-92.78436586887537, 44.89349721715899], [-92.78437032092593, 44.89349074067392], [-92.78439294948795, 44.8934578287654], [-92.7843953390066, 44.89345435346737], [-92.78439875440131, 44.89344913511063], [-92.78440123105653, 44.89344535116532], [-92.78442620601807, 44.8934072068698], [-92.78442792808848, 44.893404576688624], [-92.78443038498078, 44.89340062855293], [-92.78443103266609, 44.89339958742616], [-92.78445807914267, 44.89335613691388], [-92.78445917957889, 44.89335436839706], [-92.7844597149748, 44.893353463456094], [-92.78446074803739, 44.893351714667226], [-92.78448718276124, 44.89330696716291], [-92.78448855898026, 44.89330463798804], [-92.78448908629134, 44.893303747046794], [-92.78448983368966, 44.89330240999849], [-92.78451763205612, 44.89325273045552], [-92.7847023768825, 44.89291321180674], [-92.78472926795054, 44.892865215182944], [-92.78473251805524, 44.89285973585221], [-92.7847575011016, 44.89281760735462], [-92.78478313901981, 44.89277667397112], [-92.78478706196265, 44.892770410596405], [-92.78481001661311, 44.89273564128128], [-92.7848179388556, 44.892723640819234], [-92.78483787606501, 44.89269494394138], [-92.78485012100064, 44.89267731775227], [-92.78486671018901, 44.892654590861774], [-92.7848835949231, 44.89263145921565], [-92.78489651269686, 44.892614593498166], [-92.78491834714816, 44.892586084302295], [-92.78492727191052, 44.8925749645793], [-92.78495436330286, 44.89254121019609], [-92.78495898154172, 44.89253571492463], [-92.78499163081072, 44.892496854717194], [-92.78500216894733, 44.89248513421943], [-92.78501069036612, 44.89247565701443], [-92.78501901685048, 44.89246717640379], [-92.78502770984748, 44.892458323500236], [-92.78503094737576, 44.89245502696906], [-92.7850367145599, 44.89244963478552], [-92.78504590612188, 44.89244104089252], [-92.78505236770371, 44.892434998947124], [-92.785055240516, 44.89243252845695], [-92.7850649153716, 44.89242420757544], [-92.78507491541735, 44.892415607951065], [-92.78508471783373, 44.892407843277645], [-92.7850948607116, 44.892399809407415], [-92.78509855368574, 44.89239688389216], [-92.78510529015205, 44.89239196581867], [-92.78511588578081, 44.892384231052745], [-92.78512324388133, 44.892378859227264], [-92.78512661166532, 44.89237659301807], [-92.78513763938375, 44.892369170720954], [-92.7851489446816, 44.89236156323135], [-92.7851601008591, 44.89235464432239], [-92.7851715444975, 44.89234754722136], [-92.78517561386575, 44.89234502390647], [-92.78518324235914, 44.89234066840377], [-92.78519508305291, 44.892333907318864], [-92.78520320741634, 44.89232926861847], [-92.78520704052765, 44.89232725632987], [-92.78521925851382, 44.89232084398923], [-92.78523167862095, 44.89231432473303], [-92.7852440421342, 44.8923083725064], [-92.78525661675154, 44.8923023184555], [-92.78526098256384, 44.89230021579751], [-92.78526940876121, 44.892296505598765], [-92.78528231845013, 44.89229081938456], [-92.78529106804102, 44.89228696535927], [-92.78529532785208, 44.892285255994594], [-92.7853085519514, 44.89227994843607], [-92.78532188744178, 44.892274596329194], [-92.78533529030582, 44.89226971642916], [-92.78534880725589, 44.89226479516285], [-92.78535338866386, 44.89226312779978], [-92.78536250207242, 44.89226013609213], [-92.78537629121202, 44.89225560939188], [-92.78538551870662, 44.89225257949997], [-92.78539015850507, 44.89225121633489], [-92.78540419378305, 44.89224709247409], [-92.78541822726443, 44.89224296797656], [-92.78579803496656, 44.89213774195969], [-92.78580778617898, 44.89213484061426], [-92.785817539188, 44.89213193926865], [-92.78582570128066, 44.89212951013147], [-92.78582725536612, 44.89212898255618], [-92.78583679277948, 44.89212574073648], [-92.78584633019287, 44.89212250018942], [-92.78585275943534, 44.89212031542929], [-92.7858557894528, 44.89211915081783], [-92.78586508971092, 44.892115578069706], [-92.78587439176572, 44.892112005321394], [-92.78587914475187, 44.89211017949037], [-92.78588356356475, 44.892108274745695], [-92.78589260420978, 44.89210437870578], [-92.78590164485477, 44.89210048393837], [-92.78590479165322, 44.892099127770116], [-92.78591049954854, 44.89209638424996], [-92.78591925812258, 44.89209217510044], [-92.78592801579828, 44.892087965950566], [-92.78592963725735, 44.89208718699688], [-92.78593652553897, 44.89208351115], [-92.7859449795841, 44.892078999073014], [-92.78595362137712, 44.8920743870809], [-92.78596156967076, 44.89206969044718], [-92.78596969942409, 44.892064886261394], [-92.78597668472374, 44.89206075856878], [-92.78597777977006, 44.892060043254794], [-92.78598556546864, 44.89205495905202], [-92.7859933511672, 44.89204987548521], [-92.78599877070332, 44.89204633646201], [-92.78600102457636, 44.89204471109509], [-92.7860084455589, 44.8920393596027], [-92.7860158674398, 44.892034007473434], [-92.78601982541693, 44.892031153852834], [-92.78602311055593, 44.89202853824591], [-92.78603015065282, 44.89202293155533], [-92.7860371907497, 44.892017325500575], [-92.78603979676234, 44.89201524956104], [-92.78604397842, 44.89201156798191], [-92.78605061966488, 44.89200572073007], [-92.78605726001146, 44.891999874114106], [-92.78605863712879, 44.89199866113372], [-92.78606357157466, 44.89199384803238], [-92.7860697977979, 44.89198777485635], [-92.7860762989056, 44.89198143184558], [-92.786081836121, 44.891975425490365], [-92.7860876311529, 44.89196914039074], [-92.78609273987192, 44.89196360051652], [-92.7860933740825, 44.891962832379974], [-92.78609872355003, 44.89195635126732], [-92.78610407481418, 44.89194987015387], [-92.78610791870527, 44.891945214239705], [-92.7861092949243, 44.891943339400434], [-92.78611418804765, 44.891936677547456], [-92.78611908027268, 44.89193001569376], [-92.78612179857474, 44.891926315653535], [-92.78612376319028, 44.89192328192584], [-92.78612818649472, 44.891916456515226], [-92.78613260979917, 44.891909630467424], [-92.78613434444598, 44.8919069524876], [-92.78613674025284, 44.891902716595354], [-92.78614068206032, 44.89189574417342], [-92.78614462386778, 44.89188877111422], [-92.78614552847127, 44.89188717056253], [-92.78614818748451, 44.891881698775435], [-92.78615163971016, 44.89187459525206], [-92.78615532100619, 44.89186701951716], [-92.78615807613916, 44.89186028510546], [-92.78616102979981, 44.89185306957256], [-92.78616369779621, 44.891846549626976], [-92.78616637926734, 44.89183853477041], [-92.78616882627817, 44.891831223774346], [-92.78617063997673, 44.891825809258215], [-92.78617114123666, 44.891823893685284], [-92.78617307530946, 44.89181650631898], [-92.78617501028057, 44.89180911767895], [-92.7861761277848, 44.89180485059569], [-92.7861767269611, 44.89180170612746], [-92.78617814450261, 44.89179425957283], [-92.78617956204413, 44.89178681238079], [-92.78618015044064, 44.891783723915076], [-92.7861806759551, 44.8917793422773], [-92.78618157427037, 44.89177185435353], [-92.78618247168734, 44.891764367701604], [-92.78618269806279, 44.89176248267399], [-92.78618297833715, 44.891756863229375], [-92.78618335293463, 44.891749353664956], [-92.78618376166808, 44.89174117714826], [-92.78618362692079, 44.891734330714726], [-92.78618347959709, 44.89172681605614], [-92.78618334125653, 44.89171986015942], [-92.78618262170598, 44.89171180455531], [-92.78618143772646, 44.89169858389249], [-92.78615641695085, 44.89149770377574], [-92.78615597138645, 44.891491965297185], [-92.78615566416262, 44.89148800875691], [-92.78615535693879, 44.891484051579894], [-92.78615525093758, 44.89148270239759], [-92.78615529136178, 44.89148009185702], [-92.78615535244722, 44.89147612895184], [-92.78615541353267, 44.891472166046384], [-92.78615548360125, 44.89146768001414], [-92.7861558564021, 44.89146425232636], [-92.7861562857968, 44.891460300875416], [-92.78615671519151, 44.891456348787734], [-92.78615711224685, 44.89145270090245], [-92.78615796923964, 44.89144847897766], [-92.78615876514698, 44.89144455616392], [-92.78615956195264, 44.89144063398638], [-92.78616013058623, 44.89143783188529], [-92.78616046116625, 44.891436725809484], [-92.78616161999297, 44.8914328494527], [-92.786162779718, 44.89142897309566], [-92.78616393944301, 44.89142509673836], [-92.78616452514459, 44.89142313660351], [-92.78616527433954, 44.89142125283755], [-92.78616679249237, 44.891417439484044], [-92.78616830974688, 44.891413625493925], [-92.78616982610308, 44.891409812139905], [-92.78617027705735, 44.89140868060725], [-92.78617159129261, 44.891406056062344], [-92.78617345889009, 44.891402322258806], [-92.7861753282842, 44.8913985878186], [-92.78617736206999, 44.89139452562823], [-92.7861793778895, 44.89139120930739], [-92.78618159044004, 44.89138757160048], [-92.78618380299058, 44.891383933256925], [-92.78618574694485, 44.89138073594383], [-92.7861885990959, 44.8913767844871], [-92.78619114492139, 44.89137325815066], [-92.78619369074693, 44.89136973245043], [-92.78619539664764, 44.891367369467424], [-92.78619634077701, 44.89136625002569], [-92.7861992090977, 44.891362850970246], [-92.7862020774184, 44.89135945255097], [-92.78620494573913, 44.89135605476792], [-92.7862062680592, 44.89135448602178], [-92.78620797845151, 44.891352733353656], [-92.78621115669098, 44.891349476852795], [-92.78621433493046, 44.89134622098818], [-92.78621751227162, 44.89134296512342], [-92.78621831446718, 44.89134214161108], [-92.78622091059835, 44.89133982635756], [-92.78622438348523, 44.891336726412476], [-92.78622785727045, 44.89133362646722], [-92.78623148287093, 44.891330390330374], [-92.78623507164048, 44.8913275907696], [-92.78623882570005, 44.891324660744914], [-92.78624258065794, 44.89132173072007], [-92.78624571577829, 44.89131928436558], [-92.78625039510261, 44.89131608577605], [-92.7862544150635, 44.89131333840006], [-92.78625843322777, 44.891310591023945], [-92.78626095030718, 44.89130887144767], [-92.78626254302019, 44.891307917471075], [-92.78626680822116, 44.89130536610859], [-92.78627107432042, 44.891302814745984], [-92.78627533952141, 44.89130026211042], [-92.7862771199823, 44.891299196762105], [-92.78627973677474, 44.89129783102885], [-92.78628422924946, 44.89129548522594], [-92.78628872352083, 44.89129313878655], [-92.78629321599557, 44.891290793619866], [-92.78629415383672, 44.89129030422145], [-92.7862978737603, 44.891288619010716], [-92.78630257554249, 44.89128648958647], [-92.78630727822302, 44.89128435952572], [-92.7863119791069, 44.89128223137416], [-92.78643809897953, 44.891229196207775], [-92.786445408571, 44.891225924426124], [-92.78645271995909, 44.89122265264428], [-92.7864600304489, 44.89121938022584], [-92.78646134109088, 44.89121879281972], [-92.7864671199531, 44.891215876154085], [-92.78647416364323, 44.891212321169334], [-92.7864812082317, 44.89120876554799], [-92.78648373788754, 44.8912074889099], [-92.78648806597057, 44.89120503618649], [-92.78649482219984, 44.89120120818126], [-92.78650157753077, 44.891197380812145], [-92.78650521660599, 44.8911953194804], [-92.78650819002958, 44.891193434434136], [-92.78651463634004, 44.891189345500024], [-92.78652108354885, 44.891185257838416], [-92.78652571256751, 44.89118232144236], [-92.78652743553623, 44.89118110080783], [-92.78653355306331, 44.89117676494569], [-92.78653967148871, 44.891172429083234], [-92.78654516289005, 44.891168536798354], [-92.78655152206393, 44.891163499611174], [-92.78655729284132, 44.89115892891226], [-92.78656350828477, 44.89115400500526], [-92.7865684939346, 44.891149585134904], [-92.78657389909766, 44.89114479423687], [-92.78657930336243, 44.89114000397491], [-92.78658069125952, 44.89113877315688], [-92.78658442286121, 44.89113506033752], [-92.78658944534197, 44.89113006387766], [-92.7865944669244, 44.89112506678095], [-92.78659665971202, 44.89112288643783], [-92.78659926482635, 44.89111996403963], [-92.78660388935343, 44.891114777291634], [-92.78660851477882, 44.89110959054312], [-92.78661136243826, 44.89110639448756], [-92.7866129803041, 44.89110433760746], [-92.78661719340278, 44.891098975845], [-92.78662140650147, 44.89109361408204], [-92.78662475721747, 44.89108934949133], [-92.78662553066694, 44.89108822177086], [-92.7866293197608, 44.891082702813335], [-92.78663310795636, 44.8910771832189], [-92.78663680093048, 44.89107180172516], [-92.78664023518984, 44.891066001472254], [-92.78664358680415, 44.89106034122924], [-92.78664693931677, 44.89105468162213], [-92.7866474567464, 44.89105380655631], [-92.78664991184206, 44.89104891827934], [-92.78665281609538, 44.89104313520725], [-92.78665669322413, 44.89103541807942], [-92.78676608287292, 44.890797877555926], [-92.78676351728447, 44.89079789155704], [-92.78663138408932, 44.89079861516015], [-92.78635922959253, 44.89080010564249], [-92.78533679678054, 44.89080570036038], [-92.7848816330025, 44.89080818746721], [-92.78477206279234, 44.89080878633302], [-92.78451098272639, 44.89081021190084], [-92.78432922479831, 44.89081120407058], [-92.78385658788966, 44.89131549327961], [-92.78373848727757, 44.89142218644727], [-92.78353082283505, 44.891504357406234], [-92.78286797485151, 44.89085926350422], [-92.78286754276185, 44.89081917197563], [-92.7827752812906, 44.890819674742744], [-92.781810745797, 44.890824922613135], [-92.78140716148593, 44.89096577614064], [-92.78140353229219, 44.89095796354054], [-92.78129690047133, 44.8910135866081], [-92.78109374377487, 44.89108560803031], [-92.78098911340048, 44.891093990201], [-92.78084785961026, 44.89110923478943], [-92.78070180522316, 44.89111923789493], [-92.7806930268862, 44.89116281228804], [-92.78067119872311, 44.89117289939036], [-92.78065291531213, 44.891181349007745], [-92.78059841093058, 44.891182717289446], [-92.78001165114993, 44.89119733499061], [-92.78008816245932, 44.891262759165464], [-92.78016018398891, 44.89132710518991], [-92.78019252603407, 44.89135155599846], [-92.78072512728457, 44.89133820160705], [-92.78080280101392, 44.891336253561064], [-92.78145100106843, 44.891320017508235], [-92.78155262927316, 44.89153892317944], [-92.78180807241071, 44.89153252029696], [-92.7819400906215, 44.89176008152292]]]}, "properties": {"OBJECTID": 2418, "PIN": "2202820440017", "LAND_TYPE": null, "Shape_Length": 2116.4555076761885, "Shape_Area": 148245.29687757936}}, {"type": "Feature", "id": 2654, "geometry": {"type": "Polygon", "coordinates": [[[-92.78340416397324, 44.89562920369244], [-92.7834021625268, 44.89604061843386], [-92.7837880347554, 44.896038739273614], [-92.7841739060857, 44.89603685884058], [-92.7845597783143, 44.896034976498434], [-92.78456177167593, 44.89562356171665], [-92.78340416397324, 44.89562920369244]]]}, "properties": {"OBJECTID": 2654, "PIN": "2202820410030", "LAND_TYPE": null, "Shape_Length": 387.03916451895293, "Shape_Area": 8331.110840171666}}, {"type": "Feature", "id": 3350, "geometry": {"type": "Polygon", "coordinates": [[[-92.788083333778, 44.90543705482365], [-92.78836408694869, 44.90543579949779], [-92.78858786267584, 44.905434799309084], [-92.78886861674485, 44.90543354271069], [-92.78886816938385, 44.90479999474318], [-92.78886793043199, 44.90446345072237], [-92.78835895038189, 44.90442994573383], [-92.78836381925075, 44.90538335319335], [-92.78683067174184, 44.90503128792344], [-92.788083333778, 44.90543705482365]]]}, "properties": {"OBJECTID": 3350, "PIN": "2202820120003", "LAND_TYPE": null, "Shape_Length": 779.3903531847412, "Shape_Area": 10471.672731514478}}, {"type": "Feature", "id": 3351, "geometry": {"type": "Polygon", "coordinates": [[[-92.78683007795544, 44.90414780227524], [-92.78683052351982, 44.90481187624958], [-92.78683067174184, 44.90503128792344], [-92.788083333778, 44.90543705482365], [-92.78836408694869, 44.90543579949779], [-92.78836381925075, 44.90538335319335], [-92.78835895038189, 44.90442994573383], [-92.7881250820825, 44.904414550700736], [-92.78718227773395, 44.904140124445725], [-92.78683007795544, 44.90414780227524]]]}, "properties": {"OBJECTID": 3351, "PIN": "2202820120004", "LAND_TYPE": null, "Shape_Length": 660.3776782931491, "Shape_Area": 26837.178710237356}}, {"type": "Feature", "id": 3497, "geometry": {"type": "Polygon", "coordinates": [[[-92.78190069590303, 44.9027173700009], [-92.78248399177996, 44.90271857575607], [-92.7824846062276, 44.90258144527897], [-92.78248583691953, 44.902307183343446], [-92.78248768205913, 44.90189579053216], [-92.78190472125381, 44.901894586032284], [-92.78190069590303, 44.9027173700009]]]}, "properties": {"OBJECTID": 3497, "PIN": "2202820110007", "LAND_TYPE": null, "Shape_Length": 388.4496815475718, "Shape_Area": 8394.069766322731}}, {"type": "Feature", "id": 4252, "geometry": {"type": "Polygon", "coordinates": [[[-92.78210247727877, 44.90001078799438], [-92.78191393437538, 44.900011050791434], [-92.78191291568584, 44.90021916401448], [-92.78206809605791, 44.90021894766904], [-92.78218304178672, 44.900218787318934], [-92.78221565422479, 44.900218742140915], [-92.78249175502063, 44.90021835653697], [-92.78249277191352, 44.900010243310994], [-92.78210247727877, 44.90001078799438]]]}, "properties": {"OBJECTID": 4252, "PIN": "2202820140017", "LAND_TYPE": null, "Shape_Length": 194.28504239860402, "Shape_Area": 2107.442881934804}}, {"type": "Feature", "id": 4253, "geometry": {"type": "Polygon", "coordinates": [[[-92.78249277191352, 44.900010243310994], [-92.78249175502063, 44.90021835653697], [-92.78307312670621, 44.90021754206006], [-92.78307414090416, 44.90000942946742], [-92.78249277191352, 44.900010243310994]]]}, "properties": {"OBJECTID": 4253, "PIN": "2202820140015", "LAND_TYPE": null, "Shape_Length": 194.84864372276803, "Shape_Area": 2116.6572449880628}}, {"type": "Feature", "id": 4254, "geometry": {"type": "Polygon", "coordinates": [[[-92.78214112100567, 44.899776820545554], [-92.78191507523577, 44.8997779188252], [-92.78191393437538, 44.900011050791434], [-92.78210247727877, 44.90001078799438], [-92.78249277191352, 44.900010243310994], [-92.78249391906215, 44.89977510694933], [-92.78214112100567, 44.899776820545554]]]}, "properties": {"OBJECTID": 4254, "PIN": "2202820140018", "LAND_TYPE": null, "Shape_Length": 202.4653809590253, "Shape_Area": 2370.9235412863277}}, {"type": "Feature", "id": 4255, "geometry": {"type": "Polygon", "coordinates": [[[-92.78249391906215, 44.89977510694933], [-92.78249277191352, 44.900010243310994], [-92.78307414090416, 44.90000942946742], [-92.78307529613761, 44.89977227916544], [-92.78249391906215, 44.89977510694933]]]}, "properties": {"OBJECTID": 4255, "PIN": "2202820140016", "LAND_TYPE": null, "Shape_Length": 203.66069464646438, "Shape_Area": 2401.72830202779}}, {"type": "Feature", "id": 5064, "geometry": {"type": "Polygon", "coordinates": [[[-92.78180276606233, 44.89293730365301], [-92.78177013655626, 44.89294820629679], [-92.78173560980831, 44.89295974278333], [-92.78180229624344, 44.893061567068415], [-92.78211503213319, 44.89353907596835], [-92.78214767960556, 44.893529479296795], [-92.78284732797303, 44.89332384795063], [-92.78248986855853, 44.89270772271829], [-92.78180276606233, 44.89293730365301]]]}, "properties": {"OBJECTID": 5064, "PIN": "2202820440013", "LAND_TYPE": null, "Shape_Length": 386.12025629955, "Shape_Area": 9277.171726611134}}]}