{"type": "FeatureCollection", "features": [{"type": "Feature", "id": 182, "geometry": {"type": "Polygon", "coordinates": [[[-92.7833889510039, 44.898755954828275], [-92.78338494811099, 44.89957878434983], [-92.78454263486542, 44.89957314339789], [-92.78454662248697, 44.8987503137956], [-92.7833889510039, 44.898755954828275]]]}, "properties": {"OBJECTID": 182, "NAME": "AFTON SQUARE PARK", "SUBTYPE": 3, "created_user": null, "created_date": null, "last_edited_user": "RYOLSON", "last_edited_date": 1744204851000, "Shape_Length": 516.372727752195, "Shape_Area": 16664.115038303225}}, {"type": "Feature", "id": 256, "geometry": {"type": "Polygon", "coordinates": [[[-92.78232370987537, 44.89563445876024], [-92.78309546870564, 44.89563070614041], [-92.7830965368025, 44.895411285316875], [-92.78310003753718, 44.89469259886018], [-92.7831005450853, 44.89458847634046], [-92.7831010795829, 44.89447874463557], [-92.78295993448883, 44.8944794306463], [-92.7828675804911, 44.89447987992608], [-92.78195672023402, 44.89448430717697], [-92.78194190342174, 44.89448437908716], [-92.78179691802984, 44.89448508291631], [-92.7816425632095, 44.89448898643141], [-92.78067784176463, 44.89451337671304], [-92.78031519188444, 44.89452254303216], [-92.78028487194698, 44.894541655222845], [-92.78025368962683, 44.894556996898864], [-92.78023017712258, 44.89456734240955], [-92.7802109531755, 44.894585061566104], [-92.78020152086502, 44.89460437355695], [-92.78021428053532, 44.89463850091585], [-92.78023531997758, 44.89466066319716], [-92.78027638286754, 44.8946968542745], [-92.78029947496022, 44.89473296069174], [-92.78031769009924, 44.8947663364209], [-92.780333098003, 44.89480899167803], [-92.78034014259146, 44.894872897821934], [-92.78032274132607, 44.894929726203536], [-92.78025500296377, 44.895012261244275], [-92.780133318972, 44.89509764390793], [-92.77999045360417, 44.89517634778519], [-92.77986690111663, 44.8952276547617], [-92.77980949787167, 44.89525139245582], [-92.77977494237763, 44.89527794732699], [-92.7797708379751, 44.895310445829715], [-92.7797771387585, 44.895336023854725], [-92.77978128538184, 44.89535927214032], [-92.77979143095467, 44.89538153850744], [-92.77982146612618, 44.89543262130109], [-92.77985071167856, 44.89545094982666], [-92.77985433548244, 44.89547187152415], [-92.77984825209134, 44.895481909507126], [-92.77983494714366, 44.895486617953104], [-92.77981014016709, 44.89549590184412], [-92.779797950927, 44.89550805063644], [-92.77979171841555, 44.89552200796718], [-92.77979736522542, 44.895540825190146], [-92.77980220714481, 44.895545624631055], [-92.77982667186328, 44.895555602146814], [-92.77984466781335, 44.895572780091626], [-92.77988056539041, 44.895593122019626], [-92.77990942017566, 44.89561340221341], [-92.77992761645005, 44.89563908892134], [-92.77994932873047, 44.89568472615172], [-92.77995699764806, 44.895728332085554], [-92.77996230848801, 44.895785430074405], [-92.77995787350547, 44.89581691966165], [-92.77993881933996, 44.8958587818734], [-92.77990222017867, 44.89591700290407], [-92.77986073508052, 44.89597292726321], [-92.77985146446679, 44.89599911780513], [-92.77982417814002, 44.89604841252552], [-92.77979642019774, 44.89608494508894], [-92.77976190692453, 44.896144436055536], [-92.77972840245938, 44.89620693628106], [-92.77969283636065, 44.896266417576165], [-92.77963929946466, 44.896326985700945], [-92.77962449882205, 44.896347369997805], [-92.77961715239967, 44.89638408500443], [-92.77960811983947, 44.896416783969336], [-92.77959220438758, 44.89646017617018], [-92.77957183149525, 44.896497024738586], [-92.77955613882555, 44.896517459246894], [-92.7795458782684, 44.896530820708215], [-92.77953757514021, 44.89654225656901], [-92.77953226789352, 44.89656347631779], [-92.77953712418595, 44.89658704100958], [-92.77954925773048, 44.896617177277896], [-92.77957965851633, 44.896669247224445], [-92.77959438190383, 44.89671191825151], [-92.77959520476062, 44.8967360155063], [-92.77959553534066, 44.89674570773135], [-92.77958013821669, 44.896799615334345], [-92.77956491446757, 44.89684376768151], [-92.77954559260412, 44.89686110814642], [-92.77950974623103, 44.89687729745428], [-92.77946636748428, 44.896901176372765], [-92.77944210309013, 44.89691947197661], [-92.7794036453145, 44.89696341232846], [-92.779381340146, 44.896990236219686], [-92.77936284563091, 44.89704011043734], [-92.77935220957797, 44.897103071039155], [-92.77935069052681, 44.897168364408586], [-92.77934587735352, 44.89718133182189], [-92.77933546408275, 44.897192747826665], [-92.77933586922296, 44.89720951611362], [-92.77934392082282, 44.89723160867899], [-92.77935618552141, 44.89725449157375], [-92.77938543736201, 44.89729203833715], [-92.7794135429523, 44.89733457908828], [-92.77943890149446, 44.89737309176595], [-92.77944002888015, 44.897388864762355], [-92.7794334568055, 44.89740181749008], [-92.77943137630731, 44.89741981385434], [-92.77943127839096, 44.89742531884054], [-92.77943188655041, 44.89743057947132], [-92.77943566396617, 44.897435868736984], [-92.7794503478278, 44.897441506716895], [-92.77946125157872, 44.89744210424089], [-92.77947401753723, 44.89743696451593], [-92.7795055187593, 44.897466775805185], [-92.77953304942781, 44.89750205642275], [-92.77953937536404, 44.897542148383366], [-92.7795494346986, 44.897560501053846], [-92.77955812320403, 44.89757634972323], [-92.77957708663966, 44.897598541416585], [-92.77965575480404, 44.89764854619234], [-92.77973275210199, 44.89769328140961], [-92.77973758863148, 44.897696776177995], [-92.77977272084392, 44.897722166694585], [-92.77982817025315, 44.89777294833053], [-92.7798568849012, 44.897799246866185], [-92.77993027546329, 44.89786872208236], [-92.77997703996036, 44.89793094935488], [-92.77998426511019, 44.897979554541195], [-92.77995532678162, 44.89802283102261], [-92.77994488476476, 44.89803574988179], [-92.77994032581469, 44.8980544740138], [-92.7799459923875, 44.89807229009131], [-92.77997085775456, 44.89809908928455], [-92.78000019134186, 44.89813208316914], [-92.78002680033889, 44.898179617237616], [-92.78004056791893, 44.898216772688976], [-92.78004796464698, 44.89827539158478], [-92.78003985016502, 44.898355138513175], [-92.7800249093852, 44.898442330389386], [-92.78000580401576, 44.89852622976823], [-92.77997951571729, 44.898592409199324], [-92.77997262653736, 44.89860975486382], [-92.77994950839351, 44.89868185904064], [-92.77991136053669, 44.89874782066897], [-92.77986297727547, 44.89881519359191], [-92.77984253880612, 44.89883602752507], [-92.77981458862438, 44.89886699556421], [-92.7797818351508, 44.89890328707885], [-92.77968840766631, 44.899009034591884], [-92.77961424275645, 44.89906140908013], [-92.77956260579728, 44.89911398841651], [-92.77951750767508, 44.899174883156476], [-92.77947221461845, 44.89922702141858], [-92.77943947551792, 44.89928577545707], [-92.7793975798897, 44.89936446660265], [-92.77935844927593, 44.899445934535095], [-92.77932886236371, 44.899505717912405], [-92.7793034642957, 44.89958706092659], [-92.77926946575714, 44.89965337785364], [-92.77925749840092, 44.899676723022715], [-92.77921008532023, 44.89972933997532], [-92.7791660849393, 44.89976822647492], [-92.77913038409328, 44.899795926535745], [-92.77906369586154, 44.8998238480207], [-92.7790037270281, 44.89985007944165], [-92.77896251052624, 44.89987122543], [-92.77895144238362, 44.89988103420837], [-92.7792334513991, 44.89987384767965], [-92.77955112622627, 44.89986575185736], [-92.78162056616314, 44.89981298994987], [-92.78162235830213, 44.899812944135206], [-92.78177672839382, 44.89980900725683], [-92.7817768442765, 44.89977858950113], [-92.78191507523577, 44.8997779188252], [-92.78249391906215, 44.89977510694933], [-92.78307529613761, 44.89977227916544], [-92.78307623128383, 44.89958028669461], [-92.7824948569033, 44.899583113215314], [-92.78238525255716, 44.899583646449074], [-92.78199540169017, 44.899585540128776], [-92.78204829898569, 44.899311014464125], [-92.78212764268315, 44.89889922478218], [-92.78307957122006, 44.89889460633743], [-92.78308023866832, 44.898757457194556], [-92.7830813085618, 44.898538036848116], [-92.78219640871815, 44.898542338429834], [-92.78230219791926, 44.897993287918574], [-92.78192379338562, 44.89799512183517], [-92.78192540316661, 44.897665990774016], [-92.78192649461968, 44.89766598504696], [-92.78256059112421, 44.89766290516936], [-92.78308558364424, 44.89766035154345], [-92.7830863858398, 44.89749578592661], [-92.78273909176106, 44.89749747477352], [-92.78262333395523, 44.897498037934604], [-92.78192874040789, 44.89750141308288], [-92.78196111808006, 44.89744476020377], [-92.78199896127126, 44.89739160237043], [-92.78204189591689, 44.89734246502648], [-92.7820894976254, 44.89729783387465], [-92.78214129587317, 44.897258150075785], [-92.78219677865556, 44.89722380588813], [-92.78225539754773, 44.897195140790075], [-92.78231657312571, 44.897172438124485], [-92.78237970069371, 44.897155922298], [-92.78244415626132, 44.89714575656287], [-92.78250930271138, 44.89714204140328], [-92.78251157904232, 44.89667577107777], [-92.78251177936663, 44.89663462980869], [-92.78274221340668, 44.89663350983314], [-92.78274330485975, 44.89663350474234], [-92.78308950119721, 44.89663182032449], [-92.7830913283705, 44.89648096323034], [-92.78241923672269, 44.89648423153127], [-92.78193370270152, 44.896486589849545], [-92.78193786190128, 44.89563633284281], [-92.78232370987537, 44.89563445876024]]]}, "properties": {"OBJECTID": 256, "NAME": "STEAMBOAT PARK", "SUBTYPE": 3, "created_user": "NDSCHIL", "created_date": 1612384366000, "last_edited_user": "RYOLSON", "last_edited_date": 1744204851000, "Shape_Length": 3570.726647571291, "Shape_Area": 254910.3668697574}}, {"type": "Feature", "id": 320, "geometry": {"type": "Polygon", "coordinates": [[[-92.78232370987537, 44.89563445876024], [-92.78193786190128, 44.89563633284281], [-92.78193370270152, 44.896486589849545], [-92.78241923672269, 44.89648423153127], [-92.7830913283705, 44.89648096323034], [-92.78309146221946, 44.8964535352037], [-92.78309313128928, 44.896110690130946], [-92.78309546870564, 44.89563070614041], [-92.78232370987537, 44.89563445876024]]]}, "properties": {"OBJECTID": 320, "NAME": "CARVER PARK", "SUBTYPE": 3, "created_user": "RYOLSON", "created_date": 1695823320000, "last_edited_user": "RYOLSON", "last_edited_date": 1695828601000, "Shape_Length": 524.964963949148, "Shape_Area": 17217.71799255935}}]}