{"type": "FeatureCollection", "features": [{"type": "Feature", "id": 838, "geometry": {"type": "Polygon", "coordinates": [[[-92.78539477225236, 44.90312151227283], [-92.78552175181271, 44.90314398178818], [-92.78576398612235, 44.903182550384734], [-92.78577450180104, 44.90318409081201], [-92.78588843797021, 44.90319858046958], [-92.78600283827491, 44.90320877709196], [-92.78607971556443, 44.90321335275894], [-92.78615668464879, 44.903215963203834], [-92.7862341060752, 44.903216741048574], [-92.78631152276274, 44.90321558398282], [-92.78638546399209, 44.90321268001492], [-92.78645590897835, 44.9032090805961], [-92.78664278480545, 44.903197860848195], [-92.78682943027012, 44.90318330310074], [-92.7868495830752, 44.903181530432235], [-92.78784807937812, 44.903092689510494], [-92.78791174927052, 44.90308702408846], [-92.78797542006123, 44.90308135866586], [-92.78886689826771, 44.903002031874166], [-92.78947256938173, 44.90294813263125], [-92.7894773636904, 44.902975345678776], [-92.78971797115105, 44.902953932958305], [-92.78971317684238, 44.90292671990064], [-92.79021266259822, 44.90288226617345], [-92.79163799969662, 44.902755401225356], [-92.79173383844991, 44.902745880638875], [-92.79182946122637, 44.90273439182591], [-92.79189286791238, 44.90272566394174], [-92.79189254990877, 44.90266418249182], [-92.79189239000866, 44.90263329730585], [-92.79189191210493, 44.90254077463185], [-92.7917494214084, 44.90256066446067], [-92.79160634665925, 44.902575791259665], [-92.79140892750252, 44.902593364148366], [-92.79140413139721, 44.902566149647484], [-92.79118908819292, 44.90258529161518], [-92.79119388339991, 44.90261250483446], [-92.79100933979616, 44.90262893112927], [-92.79092749249399, 44.90263621593755], [-92.79092269638868, 44.9026090027295], [-92.7908331487279, 44.90261697281767], [-92.7908379448332, 44.902644186021945], [-92.79028180143408, 44.90269368565518], [-92.79026758918796, 44.902694949948845], [-92.79026039637749, 44.90265412921923], [-92.78985749029445, 44.90268998821633], [-92.78986468220661, 44.90273080892049], [-92.78959217736687, 44.902755060178215], [-92.78934070747782, 44.902777438848474], [-92.78933591316914, 44.90275022570727], [-92.78913598411948, 44.902768018059916], [-92.78891389992002, 44.9028154216758], [-92.78752859624228, 44.902938689600866], [-92.78682952369492, 44.90300086939191], [-92.78681793363111, 44.90300191925273], [-92.78662792067773, 44.90301701701394], [-92.7864376570084, 44.9030285322637], [-92.78636719046258, 44.903032132966395], [-92.78631233573806, 44.90303436630543], [-92.7862093784638, 44.9030356973148], [-92.78610644268424, 44.90303320789745], [-92.78600367011487, 44.90302690148067], [-92.78600405010224, 44.90294520128981], [-92.78544662121392, 44.90294406616643], [-92.78484177744829, 44.90283254591303], [-92.78474782624599, 44.902815223156026], [-92.78464086263452, 44.90279685343821], [-92.78453348372763, 44.90278109174193], [-92.78453371998454, 44.90272278921809], [-92.78395486537839, 44.90272160318772], [-92.78337600897561, 44.90272041461225], [-92.78337511605022, 44.902939824088065], [-92.78414692698277, 44.902941409061434], [-92.78433987881759, 44.902941804191286], [-92.78453283155072, 44.902942199957415], [-92.7845327363293, 44.90296548588967], [-92.78468386979102, 44.902990436955704], [-92.78484124564565, 44.90301945447073], [-92.78539477225236, 44.90312151227283]]]}, "properties": {"Plat_Link": "https://www.co.washington.mn.us/DocumentCenter/View/56313/Wash-Co-Hwy-ROW-Plat-No-167", "OBJECTID": 838, "LAYER": "PLTLBL", "LAND_TYPE": "B", "PLAT_ID": 2489, "PLAT_NAME": "WASH CO HWY ROW PLAT #167 CSAH 18", "SUBTYPE": 3, "SEC": null, "TWP": null, "RNG": null, "RECORDED": 1216252800000, "SURVEYOR": "26004", "created_user": null, "created_date": null, "last_edited_user": "SMKRECH", "last_edited_date": 1787147193000, "Shape_Length": 2046.5010779542042, "Shape_Area": 29166.033177644043}}, {"type": "Feature", "id": 919, "geometry": {"type": "Polygon", "coordinates": [[[-92.79197920319771, 44.896451184520316], [-92.79173126548434, 44.89645523935368], [-92.79171648999456, 44.89645548180367], [-92.79065885040995, 44.89647277784107], [-92.78996008059484, 44.896484199713676], [-92.78996633107259, 44.89717181911918], [-92.78918643170923, 44.897183433028694], [-92.78837446788012, 44.897195517830156], [-92.7882688843932, 44.897197089598635], [-92.78792611512853, 44.89720218989173], [-92.78791334557678, 44.89720237952213], [-92.78737921359703, 44.89721032426969], [-92.78682539952943, 44.89721855918874], [-92.78682558188744, 44.89747753186825], [-92.78682573460104, 44.897696947989225], [-92.7868260211636, 44.89810835111847], [-92.7868260319434, 44.89812356393997], [-92.78682629784471, 44.89851975448587], [-92.78682637330321, 44.898631222653776], [-92.78682644606675, 44.89873916981146], [-92.78682645594822, 44.89875433410526], [-92.78688819625937, 44.89875406875716], [-92.78753593637646, 44.89875127464836], [-92.78761151164132, 44.89875094948561], [-92.78768707792302, 44.898750623050226], [-92.7883487428253, 44.89874776467226], [-92.78939395331963, 44.898743241664306], [-92.79054974283218, 44.89873822868463], [-92.79061148224503, 44.898737961427486], [-92.79061106722337, 44.89865734707958], [-92.79061080311867, 44.8986058828085], [-92.7906082366319, 44.898107159265955], [-92.79135250072626, 44.898103916510614], [-92.79186897092919, 44.89810166389], [-92.79272426679267, 44.898097927339506], [-92.79283798721943, 44.897823547293], [-92.79305279237018, 44.89730526853193], [-92.79251435925686, 44.896442427046466], [-92.79197920319771, 44.896451184520316]]]}, "properties": {"Plat_Link": "https://www.co.washington.mn.us/DocumentCenter/View/56948/Schmitts-Afton-Coullee-Ridge", "OBJECTID": 919, "LAYER": "PLTLBL", "LAND_TYPE": "B", "PLAT_ID": 19720, "PLAT_NAME": "SCHMITT'S AFTON COULEE RIDGE", "SUBTYPE": 4, "SEC": "22", "TWP": "28", "RNG": "20", "RECORDED": -128217600000, "SURVEYOR": "4987", "created_user": null, "created_date": null, "last_edited_user": "SMKRECH", "last_edited_date": 1786566387000, "Shape_Length": 2017.6672205526318, "Shape_Area": 174828.63251605752}}, {"type": "Feature", "id": 1987, "geometry": {"type": "Polygon", "coordinates": [[[-92.7817688277109, 44.90187510532736], [-92.78176289433844, 44.90342681734995], [-92.78175770477105, 44.90478389101604], [-92.78175509875841, 44.9054651574458], [-92.78188725620807, 44.905464574639], [-92.78267018289392, 44.90546111597289], [-92.78278232767569, 44.90546062033253], [-92.78305611530968, 44.905459408908555], [-92.78307762726578, 44.905459314107006], [-92.7832575894616, 44.90545851751937], [-92.78336486088293, 44.905458042239076], [-92.78338832487816, 44.90545793789372], [-92.78394349450352, 44.90545547941557], [-92.7845226563335, 44.90545291086572], [-92.78483140190677, 44.90545154037856], [-92.78599244117382, 44.90544637910074], [-92.78619918663983, 44.905445459080035], [-92.78630118764539, 44.90544500479593], [-92.78683094752463, 44.90544264430008], [-92.78683067174184, 44.90503128792344], [-92.78683052351982, 44.90481187624958], [-92.78683007795544, 44.90414780227524], [-92.78682997105592, 44.903989082172174], [-92.78682989829238, 44.90387937604169], [-92.7868298237322, 44.90376967033812], [-92.78682971862933, 44.90361287455176], [-92.78682943027012, 44.90318330310074], [-92.78682936918467, 44.90309208122849], [-92.78682952369492, 44.90300086939191], [-92.78682919760647, 44.90283717167687], [-92.7868290350114, 44.90259455781677], [-92.78682893978998, 44.902453200836646], [-92.78682875563534, 44.90217893574423], [-92.78682857148071, 44.90190466997968], [-92.78682848973403, 44.90178310510218], [-92.7868284295469, 44.901692596838636], [-92.786828424157, 44.90168525909844], [-92.78682815106914, 44.90127783488397], [-92.78682787618469, 44.900868220173024], [-92.78682779713294, 44.90075153928405], [-92.78682743511187, 44.900212221871136], [-92.78682726083872, 44.89995333468432], [-92.78682714495604, 44.89978139246848], [-92.78682699853063, 44.89956197666579], [-92.78682672184954, 44.89915057375597], [-92.78682645594822, 44.89875433410526], [-92.78682644606675, 44.89873916981146], [-92.78682637330321, 44.898631222653776], [-92.78682629784471, 44.89851975448587], [-92.7868260319434, 44.89812356393997], [-92.7868260211636, 44.89810835111847], [-92.78682573460104, 44.897696947989225], [-92.78682558188744, 44.89747753186825], [-92.78682539952943, 44.89721855918874], [-92.78682534922379, 44.897145080582774], [-92.78682529442655, 44.89706612868007], [-92.78682500786398, 44.8966547244575], [-92.78682493150718, 44.89654502151299], [-92.78682485335375, 44.89643531008668], [-92.78682471141994, 44.89623087402251], [-92.78682456679118, 44.89602390580541], [-92.78682451828215, 44.89595393645607], [-92.78682427933028, 44.895612502398876], [-92.7868241266167, 44.89539308723316], [-92.78682410775207, 44.8953646576874], [-92.78682384005411, 44.894981683131846], [-92.78682355349153, 44.894570278632735], [-92.78682347533811, 44.89446057171169], [-92.78395277140545, 44.89447459675227], [-92.78373325279442, 44.89447568240569], [-92.78361541269376, 44.894476240505384], [-92.78338128927284, 44.894477380886926], [-92.7832337508689, 44.89447809935271], [-92.78295993448883, 44.8944794306463], [-92.7828675804911, 44.89447987992608], [-92.78195672023402, 44.89448430717697], [-92.78194190342174, 44.89448437908716], [-92.78179691802984, 44.89448508291631], [-92.78179417726989, 44.895210786623814], [-92.78179323403886, 44.895460570995716], [-92.78176976016218, 44.895501132106034], [-92.78175599527707, 44.895523354509265], [-92.78174168601291, 44.895545403813514], [-92.78172683865789, 44.89556727110985], [-92.78171145590696, 44.89558895194408], [-92.78169554225171, 44.895610438043555], [-92.78168522510066, 44.895623603716466], [-92.78167896563977, 44.895631162411135], [-92.78167252202424, 44.89563864219611], [-92.78166589425408, 44.89564603988958], [-92.78165908771916, 44.895653355491554], [-92.78165210152119, 44.895660585820266], [-92.78164494015174, 44.895667727694], [-92.78163784256269, 44.895674550113974], [-92.78163009459335, 44.89568173971299], [-92.78162241669264, 44.895688606040096], [-92.78161457080694, 44.89569537627603], [-92.78160655963123, 44.895702046602615], [-92.78159838675879, 44.89570861701996], [-92.7815900530879, 44.89571508561891], [-92.78158156221183, 44.89572144985415], [-92.78156296888207, 44.895734864318285], [-92.78154692946268, 44.895746005066506], [-92.78153061875206, 44.89575694345031], [-92.78151404303844, 44.895767679469735], [-92.78149720501675, 44.89577820739769], [-92.78148011097521, 44.89578852596158], [-92.78146276630369, 44.89579862943423], [-92.78140203749555, 44.89583267017604], [-92.78134873955143, 44.89586140494241], [-92.78129474361634, 44.89588947533666], [-92.78124006675824, 44.89591687181439], [-92.7812201690747, 44.89592643181517], [-92.7812040002979, 44.89593387656206], [-92.7811876491631, 44.89594111958268], [-92.78117112555178, 44.89594815960437], [-92.7811544294639, 44.895954992809145], [-92.78113756808602, 44.89596161792424], [-92.78112054770632, 44.89596803304077], [-92.78110337191809, 44.895974235613295], [-92.78108604611123, 44.8959802250056], [-92.78106857567556, 44.89598599803591], [-92.78105096689937, 44.89599155343157], [-92.78103322337589, 44.895996889283616], [-92.78101535318993, 44.896002004955754], [-92.78099735813817, 44.896006897266204], [-92.7809792463054, 44.896011566851435], [-92.78096102308155, 44.89601600989335], [-92.78094269385649, 44.89602022639195], [-92.7809242631218, 44.896024215711], [-92.7809057371657, 44.89602797403237], [-92.7808871231747, 44.89603150326519], [-92.78087695244905, 44.89603343206145], [-92.78086682933412, 44.896035485583525], [-92.78085675921977, 44.89603766510408], [-92.78084674390269, 44.89603996935037], [-92.78083678607776, 44.89604239768607], [-92.78082688933827, 44.89604494883845], [-92.78081705727747, 44.8960476215347], [-92.78080729259034, 44.89605041704761], [-92.78079759797178, 44.89605333283169], [-92.78078797611678, 44.89605636761426], [-92.78077843061857, 44.89605952266791], [-92.78076896417211, 44.89606279417458], [-92.78075957857402, 44.896066184043306], [-92.78075027831588, 44.89606968972859], [-92.78074106609265, 44.89607330932141], [-92.78073194280263, 44.896077042821695], [-92.7807229138357, 44.89608088895673], [-92.78071397919189, 44.896084846453775], [-92.78070514426108, 44.8960889153128], [-92.78069641083988, 44.89609309171567], [-92.78068778072495, 44.896097376298684], [-92.78067925661121, 44.89610176715283], [-92.78067179520446, 44.896105755193496], [-92.78067084209195, 44.89610626427796], [-92.78066253896378, 44.89611086321965], [-92.78065435171825, 44.89611556588691], [-92.78064627855882, 44.89612036846159], [-92.7806343058127, 44.896127816365144], [-92.78062429498719, 44.89613432437102], [-92.7806144449601, 44.896140955829026], [-92.7806047593247, 44.896147708193745], [-92.78059523987763, 44.89615458019245], [-92.78058589200879, 44.89616156927961], [-92.78057671661648, 44.896168672273475], [-92.78056771729396, 44.896175887901265], [-92.78055889583787, 44.8961832155266], [-92.78055025584146, 44.89619065133127], [-92.7805417999997, 44.896198192133504], [-92.78053353190582, 44.89620583666048], [-92.7805254497632, 44.896213583639536], [-92.7805175616567, 44.89622142925247], [-92.78050986578965, 44.89622937095385], [-92.78049849850805, 44.89624167613427], [-92.78049394225293, 44.896246852874604], [-92.78048951445692, 44.8962520843409], [-92.78048521511994, 44.896257370533185], [-92.78048104783535, 44.89626270890598], [-92.78047701170476, 44.89626809818659], [-92.78047310852487, 44.89627353773864], [-92.78046933919393, 44.89627902310761], [-92.78046570461028, 44.89628455620263], [-92.78046220657058, 44.89629013256913], [-92.78045884687141, 44.89629575157078], [-92.7804556255128, 44.89630141129849], [-92.78045254339307, 44.896307110479555], [-92.78044960141052, 44.89631284656855], [-92.78044680136176, 44.89631861829274], [-92.78044414324684, 44.896324423743124], [-92.78044162706574, 44.89633026164686], [-92.78043925461506, 44.896336129458625], [-92.78043702858979, 44.89634202654205], [-92.78043386562167, 44.89635120847854], [-92.78043078529856, 44.89636110058324], [-92.78042794931721, 44.89637103023102], [-92.780425355881, 44.89638099360382], [-92.78042300768485, 44.896390987519815], [-92.78042090652538, 44.89640100943356], [-92.78041905060601, 44.89641105552693], [-92.78041744172334, 44.896421122618186], [-92.780415451955, 44.89643663051699], [-92.7804145895723, 44.89644342420985], [-92.78041384127567, 44.89644818921241], [-92.78041297619806, 44.89645294530564], [-92.78041199523778, 44.89645768867142], [-92.7804108974965, 44.89646241930979], [-92.78040968387255, 44.89646713658441], [-92.7804083534676, 44.8964718373135], [-92.78040690987494, 44.89647652086071], [-92.78040535039962, 44.89648118531696], [-92.78040367683823, 44.89648583068234], [-92.78040188919084, 44.896490453775], [-92.78039998925401, 44.89649505459501], [-92.78039962902957, 44.896495855124954], [-92.78038269578646, 44.89653355956239], [-92.78037161686406, 44.89655637719081], [-92.78035998008787, 44.89657905354041], [-92.78034778815284, 44.896601581611456], [-92.78033149361191, 44.896631690509125], [-92.78031594018107, 44.89666199729572], [-92.78030113235192, 44.89669249242566], [-92.78028931321775, 44.896718321830065], [-92.78028648711785, 44.896724495685994], [-92.78027177720507, 44.89675869878487], [-92.78025791081035, 44.89679307813179], [-92.78024488973031, 44.89682762481762], [-92.78023271935484, 44.89686232738773], [-92.78021823132593, 44.89690747111495], [-92.78020561538608, 44.89694720840891], [-92.78019236793058, 44.89698575125427], [-92.78017817634573, 44.89702412353317], [-92.78016304332645, 44.897062314428204], [-92.78014697516097, 44.8971003112127], [-92.78013281950872, 44.89713132600347], [-92.78012266405445, 44.897152034550636], [-92.78011687710737, 44.897163206205164], [-92.78011200195031, 44.897172615821624], [-92.78010083499304, 44.89719306027134], [-92.78008916947074, 44.897213362809225], [-92.78007700718013, 44.89723351834471], [-92.78005420524327, 44.89726945199303], [-92.78003302296887, 44.89730125003002], [-92.78001106185512, 44.89733278142211], [-92.77998833088516, 44.89736403471557], [-92.77996483634722, 44.89739500227484], [-92.7799600447335, 44.897401020790845], [-92.77995631043686, 44.897405496815125], [-92.77995246834239, 44.897409925113486], [-92.77994851665346, 44.897414305685906], [-92.77994445896331, 44.897418636623364], [-92.77994029527197, 44.89742291601689], [-92.77993602557943, 44.897427143866516], [-92.77993165437725, 44.89743131762683], [-92.77992718166547, 44.89743543666151], [-92.77992260834235, 44.89743949906154], [-92.77991793440793, 44.89744350419065], [-92.77991316435377, 44.89744745204883], [-92.77990829728155, 44.897451338817994], [-92.77990333678456, 44.897455165134545], [-92.77989828196445, 44.8974589284531], [-92.77989313551619, 44.89746263004643], [-92.77988789833809, 44.897466266096416], [-92.77988257402339, 44.897469837239385], [-92.77987716167381, 44.89747334093009], [-92.77987166488258, 44.89747677780484], [-92.77986709155947, 44.897479636882345], [-92.77986258920326, 44.89748255259396], [-92.7798581596106, 44.89748552366703], [-92.77985380098484, 44.89748854946519], [-92.77984952051251, 44.897491628079464], [-92.77984531460034, 44.89749476014617], [-92.77984118684162, 44.89749794375622], [-92.77983713723633, 44.89750117763702], [-92.7798331684794, 44.89750446178845], [-92.77982927967253, 44.897507793665206], [-92.779825474409, 44.89751117453997], [-92.77982175358707, 44.89751460250369], [-92.77981811541018, 44.8975180743747], [-92.77981456347153, 44.897521591425594], [-92.77981109956782, 44.89752515238376], [-92.77980772280065, 44.897528755340076], [-92.77980443496672, 44.89753240029466], [-92.77980123786261, 44.89753608470201], [-92.77979813059005, 44.89753980856226], [-92.77979511674228, 44.89754357060263], [-92.77979219452266, 44.8975473695504], [-92.77978850693842, 44.89755240299678], [-92.77978708400701, 44.89755444373779], [-92.77978453099497, 44.897558106508264], [-92.77978069608702, 44.89756385901729], [-92.77977700311288, 44.89756965670585], [-92.77977345297089, 44.89757550084656], [-92.77977004655934, 44.897581387621436], [-92.77976678567485, 44.89758731575779], [-92.77976367121576, 44.89759328334651], [-92.77976070228374, 44.897599289114986], [-92.77975788247207, 44.89760533051781], [-92.77975521178074, 44.89761140564597], [-92.77975269020973, 44.897617512590394], [-92.77975031865738, 44.897623651351125], [-92.77974809892031, 44.897629818110154], [-92.7797460292019, 44.89763601095833], [-92.77974411309539, 44.89764222862308], [-92.77974189425665, 44.897650182218676], [-92.77974104894196, 44.89765356435772], [-92.77974028537395, 44.89765695540532], [-92.77973960714593, 44.89766035599781], [-92.7797390115629, 44.897663764226145], [-92.77973849952318, 44.897667179454025], [-92.7797380710268, 44.89767060104505], [-92.77973772697203, 44.89767402645391], [-92.77973746735891, 44.89767745695328], [-92.77973729128911, 44.89768088936149], [-92.77973720055927, 44.89768432240579], [-92.77973719337274, 44.89768775799528], [-92.77973727062788, 44.89769119167551], [-92.77973743322293, 44.8976946247192], [-92.77973758863148, 44.897696776177995], [-92.77977272084392, 44.897722166694585], [-92.77982817025315, 44.89777294833053], [-92.7798568849012, 44.897799246866185], [-92.77993027546329, 44.89786872208236], [-92.77997703996036, 44.89793094935488], [-92.77998426511019, 44.897979554541195], [-92.77995532678162, 44.89802283102261], [-92.77994488476476, 44.89803574988179], [-92.77994032581469, 44.8980544740138], [-92.7799459923875, 44.89807229009131], [-92.77997085775456, 44.89809908928455], [-92.78000019134186, 44.89813208316914], [-92.78002680033889, 44.898179617237616], [-92.78004056791893, 44.898216772688976], [-92.78004796464698, 44.89827539158478], [-92.78003985016502, 44.898355138513175], [-92.7800249093852, 44.898442330389386], [-92.78000580401576, 44.89852622976823], [-92.77997951571729, 44.898592409199324], [-92.77997262653736, 44.89860975486382], [-92.77994950839351, 44.89868185904064], [-92.77991136053669, 44.89874782066897], [-92.77986297727547, 44.89881519359191], [-92.77984253880612, 44.89883602752507], [-92.77981458862438, 44.89886699556421], [-92.77981196644207, 44.89888307995003], [-92.77980716045529, 44.898908658931205], [-92.7798017247495, 44.89893417363224], [-92.7797956647146, 44.89895961768999], [-92.77979441336142, 44.89896428449015], [-92.7797934018584, 44.89896766782457], [-92.77979231040533, 44.89897103779596], [-92.7797911336123, 44.89897439376807], [-92.7797898750726, 44.89897773383189], [-92.77978853658283, 44.89898105926003], [-92.77978711544804, 44.89898436687094], [-92.77978561346488, 44.89898765666462], [-92.77978403063337, 44.898990926095706], [-92.77978236785177, 44.89899417707328], [-92.77978062512013, 44.8989974057793], [-92.77977880423504, 44.899000612850145], [-92.77977690339989, 44.89900379637683], [-92.77977492710626, 44.89900695635939], [-92.7797728717609, 44.89901009152513], [-92.77974285545399, 44.89905333796004], [-92.77972261191907, 44.899080941007924], [-92.77970169374935, 44.899108288877315], [-92.77968010633477, 44.89913537329632], [-92.77965785776013, 44.899162184720545], [-92.77963495431365, 44.899188716150825], [-92.77961140228352, 44.8992149599517], [-92.77958726904342, 44.89924185151523], [-92.77956379876, 44.899269038955296], [-92.7795410013147, 44.8992965127266], [-92.77951888030084, 44.89932426582928], [-92.77949744559983, 44.89935228744546], [-92.77947670170329, 44.89938057121154], [-92.77944771666235, 44.89942225011435], [-92.77938927676153, 44.89951102353139], [-92.77931781308574, 44.899625453104356], [-92.77931698573737, 44.8996268517283], [-92.77931619342328, 44.89962826116964], [-92.77931543434686, 44.89962968015566], [-92.77931471120307, 44.8996311074138], [-92.77931402309355, 44.89963254421664], [-92.77931337091667, 44.899633989291544], [-92.77931275287574, 44.89963544200221], [-92.77931217166575, 44.89963690298494], [-92.77931162728669, 44.89963837033081], [-92.77931111794193, 44.899639844039825], [-92.77931064452977, 44.89964132411199], [-92.77931020794853, 44.899642809274575], [-92.77930980819824, 44.899644300164034], [-92.77930944527886, 44.89964579550764], [-92.77930911919042, 44.89964729594178], [-92.77930882903456, 44.899648798921085], [-92.77930857570968, 44.89965030635461], [-92.77930828824879, 44.899652389018044], [-92.7792334513991, 44.89987384767965], [-92.77922827620473, 44.89989572987415], [-92.77922363910125, 44.89991767314642], [-92.77921341896825, 44.899972528426986], [-92.7793575365876, 44.89996838412154], [-92.77956004919199, 44.899963963019694], [-92.77967800876857, 44.89996277884133], [-92.77979345306237, 44.89996457324376], [-92.77988821005349, 44.89996142540379], [-92.78000514734728, 44.899958483092696], [-92.78017934864718, 44.899962058535145], [-92.78031677471598, 44.8999552951647], [-92.78044292153805, 44.89994918019645], [-92.78060238867067, 44.89994987123242], [-92.78069619614253, 44.89995083206513], [-92.78081217762886, 44.89995201942527], [-92.78103925376637, 44.8999520684214], [-92.7812466172733, 44.89995194115877], [-92.7814417008103, 44.899949452538465], [-92.7815718864579, 44.89995363056986], [-92.78160092809271, 44.89996365186268], [-92.78161850902116, 44.89998457828137], [-92.78162167737915, 44.899991036854644], [-92.78163243739962, 44.90001297818156], [-92.78163755959336, 44.90004155114463], [-92.78163047188578, 44.90008352354431], [-92.78162102610058, 44.900161062512], [-92.7816185063262, 44.900181750878716], [-92.78160970732799, 44.90026024099683], [-92.78159882962821, 44.900336958887884], [-92.78158386908548, 44.90040588572183], [-92.78157450145369, 44.90043732823732], [-92.78155560000178, 44.90045092040366], [-92.78152687906552, 44.9004624210245], [-92.78147465550649, 44.900468954628344], [-92.78140703392516, 44.9004703455961], [-92.78129754636002, 44.900470358322266], [-92.78116581561012, 44.90047367157428], [-92.78102115091677, 44.900471860643755], [-92.78085145556634, 44.900472078897145], [-92.78069092123518, 44.90047162966424], [-92.78048877334678, 44.90047530433868], [-92.78030182495303, 44.90047561549293], [-92.78009414883238, 44.900473486408856], [-92.77990653029538, 44.90047179001368], [-92.77972558264771, 44.90047115307007], [-92.77956366850428, 44.900469187516826], [-92.77943631434643, 44.90046403215479], [-92.77929407151107, 44.90046474609164], [-92.77915281053434, 44.90046947067359], [-92.7790653388802, 44.90046353265348], [-92.77905734297585, 44.90047743342269], [-92.77904797085247, 44.90049457680918], [-92.7790438269241, 44.900502564370754], [-92.77903901914067, 44.90051183472583], [-92.77903049502694, 44.90052920080942], [-92.77902239671467, 44.90054666933314], [-92.77901472869539, 44.90056423647902], [-92.7790074936641, 44.90058189588387], [-92.7790006934174, 44.90059964182093], [-92.77899433065025, 44.90061746983591], [-92.77898840626094, 44.90063537420204], [-92.77898292204613, 44.90065334919248], [-92.77897787980243, 44.9006713897167], [-92.77896995217007, 44.900703881353444], [-92.77894576682766, 44.90085942964784], [-92.77893778260143, 44.900910783094126], [-92.77895589623081, 44.90090782492407], [-92.77898744147032, 44.900895849710615], [-92.77901136180972, 44.90087729894198], [-92.77905000733323, 44.90084262042926], [-92.77906960228451, 44.900829786192766], [-92.77910679523222, 44.90081711039294], [-92.77913072724972, 44.90081757743967], [-92.77919502596282, 44.900824663950814], [-92.77934585759058, 44.90083604105406], [-92.77943730967978, 44.9008408705955], [-92.77962909370473, 44.90084585857605], [-92.7798064319216, 44.90085146822427], [-92.78002563252902, 44.9008589562384], [-92.78022303012618, 44.90086499729874], [-92.78036666265527, 44.90086554388296], [-92.78055004473738, 44.90086795419841], [-92.78078697898682, 44.90086809418505], [-92.78102565237467, 44.90086950168701], [-92.78113524683933, 44.900869847199495], [-92.78128123564942, 44.90087030851906], [-92.78149064821349, 44.900873953261815], [-92.78152548667684, 44.900914305027904], [-92.78151333157273, 44.90096398813287], [-92.78149475620928, 44.901057651050266], [-92.78147579367196, 44.901173082898325], [-92.78145128313943, 44.90124417405454], [-92.78144235029225, 44.901251600296604], [-92.78140923210266, 44.901253052330084], [-92.78132754020903, 44.90125356391416], [-92.78111957213592, 44.901247931398466], [-92.78093271357369, 44.901242988629974], [-92.7807451947497, 44.9012355382075], [-92.78055626287578, 44.90122857582531], [-92.78037330479849, 44.901222166386034], [-92.78016263638963, 44.90121000352981], [-92.77996456685263, 44.9012019549818], [-92.77975179369108, 44.90118927162845], [-92.7796275405176, 44.90118789722187], [-92.77960520390805, 44.901196701695376], [-92.77957459740801, 44.90121494248333], [-92.77953328568472, 44.90124133997992], [-92.7795078876167, 44.90126363079393], [-92.7794808743778, 44.90129766575525], [-92.77943147242706, 44.90134326031678], [-92.77937815112674, 44.90139156864935], [-92.77929539203456, 44.901451622974726], [-92.77927598483116, 44.901473716455364], [-92.77925638808323, 44.90148680124879], [-92.77924057234435, 44.90150492486628], [-92.77922822679739, 44.90152583163514], [-92.77920230051998, 44.901577641346], [-92.77919225825342, 44.90160757838369], [-92.77917241626541, 44.90161465334416], [-92.7791489819146, 44.90162570005419], [-92.77911879043623, 44.90164044108725], [-92.77908245987119, 44.901663884075106], [-92.77901671217555, 44.90169806769223], [-92.77894439689685, 44.90172568665035], [-92.77889838878126, 44.901739032902974], [-92.7788711195225, 44.90174926958793], [-92.77885868953392, 44.90175393616167], [-92.77885096761574, 44.901755636973085], [-92.77881756735515, 44.90188108265176], [-92.77925391322462, 44.90186986991862], [-92.77954345281711, 44.90186242721284], [-92.78098521022056, 44.901825361289376], [-92.78165806453805, 44.90180805604511], [-92.78176909540886, 44.901805201000606], [-92.7817688277109, 44.90187510532736]]]}, "properties": {"Plat_Link": "https://www.co.washington.mn.us/DocumentCenter/View/56884/Afton", "OBJECTID": 1987, "LAYER": "PLTLBL", "LAND_TYPE": "B", "PLAT_ID": 19040, "PLAT_NAME": "AFTON", "SUBTYPE": 4, "SEC": "22", "TWP": "28", "RNG": "20", "RECORDED": -3618691200000, "SURVEYOR": "EMERSON", "created_user": null, "created_date": null, "last_edited_user": "SMKRECH", "last_edited_date": 1786566387000, "Shape_Length": 6137.442715340308, "Shape_Area": 1150053.8997939138}}, {"type": "Feature", "id": 4122, "geometry": {"type": "Polygon", "coordinates": [[[-92.79305279237018, 44.89730526853193], [-92.79283798721943, 44.897823547293], [-92.79272426679267, 44.898097927339506], [-92.79186897092919, 44.89810166389], [-92.79135250072626, 44.898103916510614], [-92.7906082366319, 44.898107159265955], [-92.79061080311867, 44.8986058828085], [-92.79061106722337, 44.89865734707958], [-92.79061148224503, 44.898737961427486], [-92.79054974283218, 44.89873822868463], [-92.78939395331963, 44.898743241664306], [-92.7883487428253, 44.89874776467226], [-92.78768707792302, 44.898750623050226], [-92.78761151164132, 44.89875094948561], [-92.78753593637646, 44.89875127464836], [-92.78688819625937, 44.89875406875716], [-92.78682645594822, 44.89875433410526], [-92.78682672184954, 44.89915057375597], [-92.78682699853063, 44.89956197666579], [-92.78682714495604, 44.89978139246848], [-92.78682726083872, 44.89995333468432], [-92.78682743511187, 44.900212221871136], [-92.78682779713294, 44.90075153928405], [-92.78682787618469, 44.900868220173024], [-92.78682815106914, 44.90127783488397], [-92.786828424157, 44.90168525909844], [-92.7868284295469, 44.901692596838636], [-92.78682848973403, 44.90178310510218], [-92.78682857148071, 44.90190466997968], [-92.78682875563534, 44.90217893574423], [-92.78682893978998, 44.902453200836646], [-92.7868290350114, 44.90259455781677], [-92.78682919760647, 44.90283717167687], [-92.78682952369492, 44.90300086939191], [-92.78682936918467, 44.90309208122849], [-92.78682943027012, 44.90318330310074], [-92.78682971862933, 44.90361287455176], [-92.7868298237322, 44.90376967033812], [-92.78682989829238, 44.90387937604169], [-92.78682997105592, 44.903989082172174], [-92.78683007795544, 44.90414780227524], [-92.78683052351982, 44.90481187624958], [-92.78683067174184, 44.90503128792344], [-92.78683094752463, 44.90544264430008], [-92.788083333778, 44.90543705482365], [-92.78836408694869, 44.90543579949779], [-92.78858786267584, 44.905434799309084], [-92.78886861674485, 44.90543354271069], [-92.78976008147662, 44.905429549590714], [-92.7902257438654, 44.90542746077401], [-92.79152473651233, 44.90542162443013], [-92.7919067926976, 44.90541990527587], [-92.79447858311777, 44.9053916212995], [-92.7945740937954, 44.905390570846066], [-92.79471012298393, 44.90538907310681], [-92.79705037263962, 44.905363280046416], [-92.79704966117393, 44.905272770420396], [-92.79876927378297, 44.90525378841106], [-92.79908706988269, 44.90525027755943], [-92.80040328862351, 44.905235727055846], [-92.80219298509607, 44.90521591790306], [-92.80215560350216, 44.901681449607025], [-92.80211843840223, 44.89816694212622], [-92.80211727059235, 44.8980564714663], [-92.8021174260009, 44.89796624305067], [-92.80211761374879, 44.8978579813645], [-92.80211781766636, 44.89773919381656], [-92.80211806649969, 44.89759520954504], [-92.80211863154001, 44.89726839948218], [-92.80212013891307, 44.89639595234133], [-92.8012672074154, 44.89568086853574], [-92.80140150465205, 44.895600905990186], [-92.80156166258912, 44.89550554527833], [-92.80134791924705, 44.89527719005296], [-92.80125328712177, 44.89533353376188], [-92.80110209347292, 44.89542355503603], [-92.80059363983558, 44.89572628364338], [-92.80038119545742, 44.89572720827416], [-92.799915913056, 44.89572923189822], [-92.79912731979732, 44.89573265805911], [-92.79819804677189, 44.89573668876149], [-92.79807556058456, 44.89573721884912], [-92.79724662398648, 44.895740806644866], [-92.79707241280511, 44.8957415594583], [-92.7969927546973, 44.895741904365224], [-92.79698910214735, 44.89574191963787], [-92.79698910035071, 44.8957405775554], [-92.79698828018887, 44.8952638804823], [-92.79684878889323, 44.89533148785114], [-92.7951824032614, 44.89613912503507], [-92.79310123671681, 44.895839091670524], [-92.79303330880998, 44.89570061733792], [-92.79113111811101, 44.89515790844441], [-92.79112418042209, 44.89443935373236], [-92.78995854627235, 44.89444512055366], [-92.78809675011676, 44.89445430661125], [-92.78682347533811, 44.89446057171169], [-92.78682355349153, 44.894570278632735], [-92.78682384005411, 44.894981683131846], [-92.78682410775207, 44.8953646576874], [-92.7868241266167, 44.89539308723316], [-92.78682427933028, 44.895612502398876], [-92.78682451828215, 44.89595393645607], [-92.78682456679118, 44.89602390580541], [-92.78682471141994, 44.89623087402251], [-92.78682485335375, 44.89643531008668], [-92.78682493150718, 44.89654502151299], [-92.78682500786398, 44.8966547244575], [-92.78682529442655, 44.89706612868007], [-92.78682534922379, 44.897145080582774], [-92.78682539952943, 44.89721855918874], [-92.78737921359703, 44.89721032426969], [-92.78791334557678, 44.89720237952213], [-92.78792611512853, 44.89720218989173], [-92.7882688843932, 44.897197089598635], [-92.78837446788012, 44.897195517830156], [-92.78918643170923, 44.897183433028694], [-92.78996633107259, 44.89717181911918], [-92.78996008059484, 44.896484199713676], [-92.79065885040995, 44.89647277784107], [-92.79171648999456, 44.89645548180367], [-92.79173126548434, 44.89645523935368], [-92.79197920319771, 44.896451184520316], [-92.79251435925686, 44.896442427046466], [-92.79305279237018, 44.89730526853193]]]}, "properties": {"Plat_Link": "https://www.co.washington.mn.us/DocumentCenter/View/56894/County-Auditors-Plat-No-5", "OBJECTID": 4122, "LAYER": "PLTLBL", "LAND_TYPE": "B", "PLAT_ID": 19125, "PLAT_NAME": "COUNTY AUDITOR'S PLAT NO. 5", "SUBTYPE": 4, "SEC": "22", "TWP": "28", "RNG": "20", "RECORDED": -2474409600000, "SURVEYOR": "SHEPARD", "created_user": "CJNEPER", "created_date": 1552934748000, "last_edited_user": "SMKRECH", "last_edited_date": 1786566387000, "Shape_Length": 8513.626696966296, "Shape_Area": 2501386.709960754}}, {"type": "Feature", "id": 4551, "geometry": {"type": "Polygon", "coordinates": [[[-92.78690034507528, 44.890797141860965], [-92.78682092052942, 44.89079757716834], [-92.78676608287292, 44.890797877555926], [-92.78676351728447, 44.89079789155704], [-92.78663138408932, 44.89079861516015], [-92.78653564074804, 44.89100736249892], [-92.78651242031574, 44.89104515043572], [-92.78648390709235, 44.891079122670504], [-92.78645071817382, 44.89110854396095], [-92.78641357184961, 44.8911327775583], [-92.78637327205706, 44.8911512989882], [-92.7862471503878, 44.891204334226465], [-92.78620565713125, 44.891220066286934], [-92.78616688911481, 44.89124165862278], [-92.78613166867275, 44.891268653224586], [-92.78610074288933, 44.891300477491825], [-92.78607476775197, 44.89133645637876], [-92.78605429423665, 44.89137582671322], [-92.78603975662074, 44.89141775338479], [-92.7860314632713, 44.891461347058886], [-92.78602959010409, 44.891505683041004], [-92.78605460908307, 44.891706563766306], [-92.78605085010092, 44.89175658326742], [-92.7860400096389, 44.891805558412365], [-92.78602230845463, 44.891852491860085], [-92.7859981070191, 44.89189642784712], [-92.78596789817584, 44.89193647165099], [-92.78593229710467, 44.89197180781052], [-92.78589202879392, 44.89200171673208], [-92.7858479132767, 44.892025589343554], [-92.78580084893146, 44.89204293949763], [-92.78575179418729, 44.8920534138718], [-92.78537300697133, 44.89215835811808], [-92.78537198918012, 44.89215864004295], [-92.78529291852765, 44.892181956630104], [-92.78521606393082, 44.89221177612484], [-92.7851419591636, 44.89224789142348], [-92.78507111890173, 44.892290051696456], [-92.78500403514812, 44.89233796413036], [-92.78494117381587, 44.89239129596163], [-92.78488297149227, 44.892449676787656], [-92.78479968510125, 44.89255130591598], [-92.78472188870613, 44.89265719653672], [-92.78464979994797, 44.892767052413205], [-92.78458362050026, 44.89288056621569], [-92.78439887836882, 44.89322008060244], [-92.78433839120052, 44.89332468899944], [-92.78427293204321, 44.89342626022064], [-92.78420265307311, 44.89352455813828], [-92.78418451698583, 44.8935487343675], [-92.78409703694473, 44.8936564584344], [-92.78400478136605, 44.893760122026784], [-92.78390793849171, 44.89385951362537], [-92.7838067059237, 44.893954430427655], [-92.78370129022092, 44.89404467876166], [-92.78359190647772, 44.89413007448114], [-92.78351320488228, 44.89419201281977], [-92.78343783851318, 44.89425796893643], [-92.7833660122457, 44.89432776353661], [-92.78329792133168, 44.89440120689129], [-92.7832337508689, 44.89447809935271], [-92.7831005450853, 44.89458847634046], [-92.78310003753718, 44.89469259886018], [-92.7830965368025, 44.895411285316875], [-92.78309546870564, 44.89563070614041], [-92.78309313128928, 44.896110690130946], [-92.78309146221946, 44.8964535352037], [-92.7830913283705, 44.89648096323034], [-92.78309091245052, 44.89656623426096], [-92.78339960232823, 44.896566992790746], [-92.78340016018203, 44.89645203341354], [-92.7834021625268, 44.89604061843386], [-92.78340416397324, 44.89562920369244], [-92.78340523207011, 44.895409782863126], [-92.78340709427769, 44.89502706697327], [-92.78356356193557, 44.894587505872586], [-92.78356402636457, 44.89458619940001], [-92.78365581083042, 44.89458575203022], [-92.78369277890799, 44.89452948392255], [-92.78373325279442, 44.89447568240569], [-92.78376650573131, 44.89443618649869], [-92.78382575849746, 44.894373297082154], [-92.78388925871823, 44.89431469937768], [-92.78424706218749, 44.89400580573797], [-92.78432935228807, 44.89393123452471], [-92.78440676394978, 44.89385161065182], [-92.78447898753582, 44.89376725260466], [-92.78454573416104, 44.89367849780467], [-92.78460673684746, 44.89358570125974], [-92.78494457076793, 44.89302487985078], [-92.78499863689431, 44.89294691868372], [-92.78505810458904, 44.89287299519032], [-92.78512267338004, 44.89280348288335], [-92.78519201702102, 44.89273873298722], [-92.78526578513976, 44.89267907266331], [-92.78534360500858, 44.89262480335699], [-92.7854250834275, 44.892576199274416], [-92.78550980871101, 44.89253350599714], [-92.78601018649394, 44.89228780413161], [-92.78610532230911, 44.892241803040335], [-92.78619725000371, 44.89218968564697], [-92.78628557689483, 44.89213167457878], [-92.7863699256809, 44.892068017638735], [-92.78644993605343, 44.891998986747], [-92.78652526623614, 44.89192487677938], [-92.78659559444483, 44.8918460043077], [-92.78666062026204, 44.89176270624756], [-92.78672006592024, 44.891675338419105], [-92.78677367748838, 44.89158427402712], [-92.78682122595661, 44.891489902066795], [-92.78684309984966, 44.891433000408476], [-92.78686182539302, 44.89137498644513], [-92.78687734640737, 44.89131603422693], [-92.78699847074871, 44.89079660409084], [-92.78690034507528, 44.890797141860965]]]}, "properties": {"Plat_Link": "https://www.co.washington.mn.us/DocumentCenter/View/56195/Wash-Co-Hwy-ROW-Plat-No-45", "OBJECTID": 4551, "LAYER": "PLTLBL", "LAND_TYPE": "A", "PLAT_ID": 1822, "PLAT_NAME": "WASH CO HWY ROW PLAT #45", "SUBTYPE": 3, "SEC": "22", "TWP": "28", "RNG": "20", "RECORDED": 503884800000, "SURVEYOR": "12279", "created_user": "SMKRECH", "created_date": 1696014784000, "last_edited_user": "SMKRECH", "last_edited_date": 1787147193000, "Shape_Length": 2180.7934753215263, "Shape_Area": 49116.57605252926}}]}