{"type": "FeatureCollection", "features": [{"type": "Feature", "id": 548, "geometry": {"type": "LineString", "coordinates": [[-92.77644133568077, 44.91533113833332], [-92.7767562095609, 44.9150106092512], [-92.77702316640544, 44.91473864395302], [-92.77725596121806, 44.91443264893072], [-92.7774886751823, 44.914209254550286], [-92.7778171297929, 44.913976189067384], [-92.77878912040505, 44.912936856849605], [-92.77914510478585, 44.91249972671144], [-92.77907020415576, 44.91216442887399], [-92.77939901719417, 44.91152807062962], [-92.7796936915568, 44.910828530171315], [-92.78007747879565, 44.90988122768964], [-92.78022799691139, 44.90978412010558], [-92.78042634941771, 44.909716188088304], [-92.78068701086875, 44.90880283798702], [-92.78133059178607, 44.907850791504224], [-92.7816729074015, 44.907350482501435], [-92.7819603036137, 44.9070930914326], [-92.78221349467485, 44.90685511906523], [-92.78254904597618, 44.90625762613881], [-92.78285721123778, 44.905694131365514], [-92.78293943942562, 44.90548523564722], [-92.7830081452735, 44.90510141356219], [-92.78309028991802, 44.90498483670311]]}, "properties": {"OBJECTID": 548, "TYPE": "Separated Trail", "NAME": " "}}]}